<?xml version="1.0" encoding="UTF-8"?><osm version="0.6" generator="https://github.com/Rub21/geojson2osm"><node lat="45.401988" lon="-75.627848"  id="-1"  changeset="false" ><tag k="tourism" v="artwork"/><tag k="name" v="Untitled 1977"/><tag k="name:fr" v="Untitled 1977"/><tag k="artist_name" v="McLaughlin, Monika"/><tag k="image" v="http://ottawaxyz.ottawa.ca/wp-content/uploads/2014/03/Public_Art_1_untitled.jpg"/><tag k="start_date" v="1977"/><tag k="material" v="concrete and ceramic"/><tag k="source" v="City of Ottawa"/><tag k="source:date" v="2018-07-20"/><tag k="description" v="1895 Russell Road, Dempsey Community Centre"/><tag k="inscription" v="This artwork was a collaboration between Monika McLaughlin (concept of concrete work) and Marguerite Weatherstone (supplier of handmade earthenware tiles). The stylized tree represents a community and its fruits symbolize individual contributions."/><tag k="inscription:fr" v="Cette œuvre d’art a été réalisée dans le cadre d’une collaboration entre Monika McLaughlin (qui a conçu l’œuvre de béton) et Marguerite Weatherstone (qui a réalisé à la main les tuiles de terre cuite). L’arbre stylisé représente une communauté, et ses fru"/></node><node lat="45.403638" lon="-75.724719"  id="-2"  changeset="false" ><tag k="tourism" v="artwork"/><tag k="name" v="We are not getting any older now..."/><tag k="name:fr" v="We are not getting any older now..."/><tag k="artist_name" v="Wonnacott, Justin"/><tag k="image" v="http://ottawaxyz.ottawa.ca/wp-content/uploads/2014/03/Public_Art_10_We-are-not-getting-any-older-now....jpg"/><tag k="start_date" v="1989"/><tag k="material" v="Ektacolour print with text, dye-coupler print (Ektacolour)"/><tag k="source" v="City of Ottawa"/><tag k="source:date" v="2018-07-20"/><tag k="inscription" v="The text “WE’RE NOT GETTING ANY OLDER NOW” points out the fact that the photograph has arrested this moment for our consideration. The installation of the text on the floor accentuates the intended three dimensional illusion of the image and assigns impor"/><tag k="inscription:fr" v="Le texte « WE’RE NOT GETTING ANY OLDER NOW » (nous ne vieillissons pas) signale le fait que le photographe a immortalisé ce moment pour le porter à notre attention. L’installation du texte sur le plancher accentue l’illusion de trois dimensions recherchée"/></node><node lat="45.292429" lon="-75.924941"  id="-3"  changeset="false" ><tag k="tourism" v="artwork"/><tag k="name" v="Night Patrol"/><tag k="name:fr" v="Night Patrol"/><tag k="artist_name" v="Robertson, Erin"/><tag k="image" v="http://ottawaxyz.ottawa.ca/wp-content/uploads/2014/03/Public_Art_109_Night-Patrol.jpg"/><tag k="start_date" v="2009"/><tag k="material" v="acrylic and resin on wood"/><tag k="source" v="City of Ottawa"/><tag k="source:date" v="2018-07-20"/><tag k="description" v="211 Huntmar Drive, West Division Patrol Station"/><tag k="inscription" v="Night Patrol is the focal point of the main entrance lobby at the Ottawa Police Service’s patrol station, located at 211 Huntmar Drive in Kanata. The artwork reflects the role of the new station in the community through a composite night scene of a patrol"/><tag k="inscription:fr" v="Night Patrol (Patrouille de nuit) orne le hall de l’entrée principale du poste de patrouille du Service de police d’Ottawa, situé au 211, promenade Huntmar, à Kanata. L’œuvre reflète le rôle du nouveau poste de patrouille dans la communauté au moyen d’une"/></node><node lat="45.415478" lon="-75.689035"  id="-4"  changeset="false" ><tag k="tourism" v="artwork"/><tag k="name" v="Ouananiche"/><tag k="name:fr" v="Ouananiche"/><tag k="artist_name" v="Sharpe, Blair"/><tag k="image" v="http://ottawaxyz.ottawa.ca/wp-content/uploads/2014/03/Public_Art_11_Ouananiche.jpg"/><tag k="start_date" v="1989"/><tag k="material" v="acrylic on canvas"/><tag k="source" v="City of Ottawa"/><tag k="source:date" v="2018-07-20"/><tag k="description" v="320 Jack Purcell Lane, Jack-Purcell Community Centre"/><tag k="inscription" v="This large mural was commissioned for the re-opening of the Jack Purcell Community Centre on Elgin Street in 1989. Its surface was built up with many layers of translucent colour, and contrasted between a fairly spontaneous handling of paint and a relativ"/><tag k="inscription:fr" v="Cette grande peinture murale a ete commandée pour la réouverture du Centre communautaire Jack-Purcell rue Elgin en 1989. Sa surface est constituée de multiples couches de couleur translucide ; elle offre un contraste entre le traitement assez spontané de"/><tag k="artwork_type" v="mural"/></node><node lat="45.403128" lon="-75.711018"  id="-5"  changeset="false" ><tag k="tourism" v="artwork"/><tag k="name" v="Postcards from the Piazzas"/><tag k="name:fr" v="Postcards from the Piazzas"/><tag k="artist_name" v="fleury, c j"/><tag k="image" v="http://ottawaxyz.ottawa.ca/wp-content/uploads/2014/03/Public_Art_110_Postcards-from-the-Piazzas.jpg"/><tag k="start_date" v="2010"/><tag k="material" v="bronze, stainless steel and granite"/><tag k="source" v="City of Ottawa"/><tag k="source:date" v="2018-07-20"/><tag k="description" v="Preston Street"/><tag k="inscription" v="After two years of collecting source material from community members, the artist created this sculptural series. It brings together fragments of the communities’ heritage and culture. Each element forges links and creates nostalgia between the viewer and"/><tag k="inscription:fr" v="Après deux années à recueillir du matériel-source auprès de membres de la communauté, l'artiste a conçu son installation en intégrant ces fragments d'histoire et de géographie. Chaque élément forge liens et souvenirs entre le spectateur et le concept de p"/></node><node lat="45.421781" lon="-75.691182"  id="-6"  changeset="false" ><tag k="tourism" v="artwork"/><tag k="name" v="The Wellington Marbles"/><tag k="name:fr" v="The Wellington Marbles"/><tag k="artist_name" v="Kucey Jones and/et Lotecki, Marcus and/et Ryan"/><tag k="image" v="http://ottawaxyz.ottawa.ca/wp-content/uploads/2014/03/Public_Art_111_The-Wellington-Marbles.jpg"/><tag k="start_date" v="2010"/><tag k="material" v="marble and limestone"/><tag k="source" v="City of Ottawa"/><tag k="source:date" v="2018-07-20"/><tag k="description" v="Wellington Street West"/><tag k="inscription" v="Eighteen hand-carved marble sculptures are installed at intervals along Wellington West Street. The Wellington Marbles, a sculptural series by local artists Marcus Kucey-Jones and Ryan Lotecki was commissioned by the City of Ottawa as part of the Wellingt"/><tag k="inscription:fr" v="Les dix-huit sculptures en marbre sont installées à intervalles le long de la rue Wellington Ouest. The Wellington Marbles, des artistes locaux Marcus Kucey-Jones et Ryan Lotecki, est une série de sculptures créées grâce à la Ville d’Ottawa pour la rue We"/><tag k="artwork_type" v="sculpture"/></node><node lat="45.372866" lon="-75.646768"  id="-7"  changeset="false" ><tag k="tourism" v="artwork"/><tag k="name" v="Vision Weave"/><tag k="name:fr" v="Toile de vision"/><tag k="artist_name" v="Ewen, Thoma and Gabriel Ewen"/><tag k="image" v="http://ottawaxyz.ottawa.ca/wp-content/uploads/2014/03/Public_Art_112_Vision-Weave.jpg"/><tag k="start_date" v="2010"/><tag k="material" v="mixed fibre tapestry and wood"/><tag k="source" v="City of Ottawa"/><tag k="source:date" v="2018-07-20"/><tag k="description" v="1550 Heatherington Rd, Albion-Heatherington Community Centre"/><tag k="inscription" v="Vision Weave, by artists Thoma Ewen and Gabriel Ewen, is a visual expression of inter-cultural and inter-generational creative collaboration. Hidden within the woven wool banners suspended from the foyer ceiling are over 100 ‘vision messages’ for the pres"/><tag k="inscription:fr" v="Toile de vision, projet dirigé par les artistes Thoma Ewen et Gabriel Ewen, est l’expression visuelle d’une collaboration créative interculturelle et intergénérationnelle. Plus de cent « messages de vision » du présent et de l’avenir, écrits par les membr"/></node><node lat="45.356993" lon="-75.732862"  id="-8"  changeset="false" ><tag k="tourism" v="artwork"/><tag k="name" v="A Place For Us All"/><tag k="name:fr" v="A Place For Us All"/><tag k="artist_name" v="Pynn-Trudeau, Carolynne and Chandler Swain"/><tag k="image" v="http://ottawaxyz.ottawa.ca/wp-content/uploads/2014/03/Public_Art_113_A-Place-For-Us-All.jpg"/><tag k="start_date" v="2010"/><tag k="material" v="clay, acrylic, wood"/><tag k="source" v="City of Ottawa"/><tag k="source:date" v="2018-07-20"/><tag k="description" v="24 Capilano Drive, Huron Early Learning Centre"/><tag k="inscription" v="Pynn-Trudeau and Swain have executed a three part commission for the centre; an entrance mosaic, interior mural, and whimsical playground structure. The artwork fosters an artistic flow through the facility underlying the importance of ecological awarenes"/><tag k="inscription:fr" v="Chandler Pynn-Trudeau et Carolynne Swain ont créé une œuvre en trois volets pour le Centre de la petite enfance Huron : une mosaïque à l’entrée, une murale intérieure et une structure originale englobant une aire de jeux. L’œuvre répand un courant artisti"/><tag k="artwork_type" v="mural"/></node><node lat="45.284463" lon="-75.744491"  id="-9"  changeset="false" ><tag k="tourism" v="artwork"/><tag k="name" v="Bellwether"/><tag k="name:fr" v="Bellwether"/><tag k="artist_name" v="Erin Robertson and Anna Williams"/><tag k="image" v="http://ottawaxyz.ottawa.ca/wp-content/uploads/2014/03/Public_Art_114_Bellwether.jpg"/><tag k="start_date" v="2011"/><tag k="material" v="bronze"/><tag k="source" v="City of Ottawa"/><tag k="source:date" v="2018-07-20"/><tag k="description" v="645 Longfields Drive, Longfields Transit Station"/><tag k="inscription" v="Bellwether is a permanent sculptural installation, primarily located on the vegetative roofs of the transit station, which consists of four life-sized sheep and one life-sized Border collie sheepdog all cast in bronze and finished with patina."/><tag k="inscription:fr" v="L’œuvre intitulée Bellwether est une sculpture permanente, que l’on aperçoit sur les toits végétaux de la station de transport en commun; elle se compose de quatre moutons et d’un chien berger de type Border-Collie, de grandeur nature, coulés dans le bron"/></node><node lat="45.269854" lon="-75.742951"  id="-10"  changeset="false" ><tag k="tourism" v="artwork"/><tag k="name" v="Currents"/><tag k="name:fr" v="Courants"/><tag k="artist_name" v="Pagurek, Cheryl"/><tag k="image" v="http://ottawaxyz.ottawa.ca/wp-content/uploads/2014/03/Public_Art_115_Currents.jpg"/><tag k="start_date" v="2011"/><tag k="material" v="LED panels and video"/><tag k="source" v="City of Ottawa"/><tag k="source:date" v="2018-07-20"/><tag k="description" v="65 Marketplace Avenue, Marketplace Transit Station"/><tag k="inscription" v="Central themes found in Cheryl Pagurek’s artwork investigate concepts of time, memory, history and the ephemeral quality of the disappearing past. Currents, a twenty-minute loop of constantly changing video, prominently features imagery of the Jock River,"/><tag k="inscription:fr" v="Les thèmes dominants représentés dans l’œuvre de Cheryl Pagurek explorent les concepts du temps, de la mémoire, de l’histoire et de la nature éphémère du passé évanescent. Currents, une œuvre consistant en des images vidéo à changement constant diffusées"/></node><node lat="45.42012" lon="-75.678529"  id="-11"  changeset="false" ><tag k="tourism" v="artwork"/><tag k="name" v="Celebration of Growth"/><tag k="name:fr" v="Célébration de la croissance"/><tag k="artist_name" v="Ciesluk, Karl"/><tag k="image" v="http://ottawaxyz.ottawa.ca/wp-content/uploads/2014/03/Public_Art_116_Celebration-of-Growth.jpg"/><tag k="start_date" v="2004"/><tag k="material" v="aluminum, stainless steel and stone"/><tag k="source" v="City of Ottawa"/><tag k="source:date" v="2018-07-20"/><tag k="description" v="King Edward Avenue (Rideau Street to Murray Street)"/><tag k="inscription" v="The sculptural series, Celebration of Growth, by local artist Karl Ciesluk was commissioned for King Edward Avenue as part of the street renewal project. Nineteen sculptures of seed pods and plant growth are installed at intervals along Kind Edward Avenue"/><tag k="inscription:fr" v="La série de sculptures Celebration of Growth, (Célébration de la croissance) de l'artiste local Karl Ciesluk est une commande dans le cadre du projet de réfection de l'avenue King Edward. Dix-neuf sculptures de gousses et de bourgeons sont installées à in"/><tag k="artwork_type" v="sculpture"/></node><node lat="45.34459" lon="-75.76448"  id="-12"  changeset="false" ><tag k="tourism" v="artwork"/><tag k="name" v="Curtain Time"/><tag k="name:fr" v="Curtain Time"/><tag k="artist_name" v="Cronin, Lynda"/><tag k="image" v="http://ottawaxyz.ottawa.ca/wp-content/uploads/2014/03/Public_Art_117_Curtain-Time.jpg"/><tag k="start_date" v="2010"/><tag k="material" v="glass"/><tag k="source" v="City of Ottawa"/><tag k="source:date" v="2018-07-20"/><tag k="description" v="101 Centrepointe Drive, Ben Franklin Place, 1st and 2nd, Centrepointe Theatre"/><tag k="inscription" v="Ottawa’s 250-seat studio theatre at Centrepointe Theatre features a public art commission by Lynda Cronin and Michèle Provost, inspired by elegant historical theatre billboards. Incorporated onto the corridor and lobby walls of the expansion, the artist t"/><tag k="inscription:fr" v="Le tout nouveau théâtre d’atelier de 250 places du Théâtre Centrepointe, à Ottawa, présente une œuvre d’art public de Lynda Cronin et de Michèle Provost inspirée des élégants panneaux d’affichage des théâtres d’antan. Les deux artistes ont intégré dans le"/></node><node lat="45.340672" lon="-75.761316"  id="-13"  changeset="false" ><tag k="tourism" v="artwork"/><tag k="name" v="Archive"/><tag k="name:fr" v="Archive"/><tag k="artist_name" v="Maynard, Don"/><tag k="image" v="http://ottawaxyz.ottawa.ca/wp-content/uploads/2014/03/Public_Art_118_Archive.jpg"/><tag k="start_date" v="2009"/><tag k="material" v="stainless steel, stone, LED"/><tag k="source" v="City of Ottawa"/><tag k="source:date" v="2018-07-20"/><tag k="description" v="100 Tallwood Drive, Central Archives"/><tag k="inscription" v="As if defying gravity, a stainless steel house floats twenty feet off the plaza. Tethered to the ground, ropes and boulders anchor the house, preventing it from floating away. Archive speaks to the challenge and importance of collecting and preserving our"/><tag k="inscription:fr" v="Défiant la loi de la gravité, une maison en acier inoxydable flotte à une vingtaine de pieds au-dessus de la place. Fixés au sol, des câbles et des blocs rocheux ancrent la structure, l’empêchant de partir à la dérive. L’œuvre symbolise la difficulté et l"/></node><node lat="45.425571" lon="-75.657529"  id="-14"  changeset="false" ><tag k="tourism" v="artwork"/><tag k="name" v="Connections"/><tag k="name:fr" v="Connections"/><tag k="artist_name" v="Cunnane, Cairn"/><tag k="image" v="http://ottawaxyz.ottawa.ca/wp-content/uploads/2014/03/Public_Art_119_Connections.jpg"/><tag k="start_date" v="2010"/><tag k="material" v="steel and zinc"/><tag k="source" v="City of Ottawa"/><tag k="source:date" v="2018-07-20"/><tag k="description" v="33 Quill Street, Overbrook Community Centre"/><tag k="inscription" v="Cairn Cunnane’s whimsical benches are created from collected, recycled, rescued, found and donated materials. The benches are a fluid collage of welded objects and forms inspired by themes of community and connections. Not only as resting places, these be"/><tag k="inscription:fr" v="Les bancs fantaisistes de Cairn Cunnane sont créés à partir de matériaux recueillis, recyclés, sauvegardés, trouvés et reçus en cadeau. Les bancs sont un collage fluide d’objets soudés, inspiré par des thèmes de collectivité et de connexions. Ces bancs ne"/></node><node lat="45.430499" lon="-75.686988"  id="-15"  changeset="false" ><tag k="tourism" v="artwork"/><tag k="name" v="Bathing in Champagne"/><tag k="name:fr" v="Bain de champagne"/><tag k="artist_name" v="Cabri, Mimi"/><tag k="image" v="http://ottawaxyz.ottawa.ca/wp-content/uploads/2014/03/Public_Art_12_Bathing-in-Champagne.jpg"/><tag k="start_date" v="1990"/><tag k="material" v="ceramic tile"/><tag k="source" v="City of Ottawa"/><tag k="source:date" v="2018-07-20"/><tag k="description" v="321 King Edward Avenue, Champagne Bath Pool"/></node><node lat="45.425571" lon="-75.657529"  id="-16"  changeset="false" ><tag k="tourism" v="artwork"/><tag k="name" v="Portal"/><tag k="name:fr" v="Portal"/><tag k="artist_name" v="St. Amand , Chris"/><tag k="image" v="http://ottawaxyz.ottawa.ca/wp-content/uploads/2014/03/Public_Art_120_Portal.jpg"/><tag k="start_date" v="2010"/><tag k="material" v="mixed media"/><tag k="source" v="City of Ottawa"/><tag k="source:date" v="2018-07-20"/><tag k="description" v="33 Quill Street, Overbrook Community Centre"/><tag k="inscription" v="A circular window built into the wall of the courtyard, displaying a magnified photograph of a maple leaf transports the natural world into the built environment of the community centre. Illuminated from within, the window’s light box is powered directly"/><tag k="inscription:fr" v="Construite dans le mur d’une cour, une fenêtre circulaire présente la photographie agrandie d’une feuille d’érable, reliant le monde de la nature à l’environnement bâti du Centre. Éclairé de l’intérieur, le caisson lumineux de la fenêtre est alimenté dire"/></node><node lat="45.363903" lon="-75.634656"  id="-17"  changeset="false" ><tag k="tourism" v="artwork"/><tag k="name" v="Metabolics of Peace: A Video Triptych"/><tag k="name:fr" v="Metabolics of Peace: A Video Triptych"/><tag k="artist_name" v="fleury, c j"/><tag k="image" v="http://ottawaxyz.ottawa.ca/wp-content/uploads/2014/03/Public_Art_121_Metabolics-of-Peace-A-Video-Triptych.jpg"/><tag k="start_date" v="2011"/><tag k="material" v="digital media installation"/><tag k="source" v="City of Ottawa"/><tag k="source:date" v="2018-07-20"/><tag k="description" v="363 Lorry Greenberg Drive, Greenboro Community Centre"/><tag k="inscription" v="The artist describes the commissioned 3-channel video, mixed media installation “as an exploration of the body as a vehicle for new perceptions about wellness and exercise.”"/><tag k="inscription:fr" v="L’artiste décrit l’installation qui lui a été commandée, une œuvre vidéo à trois canaux en technique mixte, comme étant une « exploration du corps en tant que véhicule de nouvelles perceptions de bien-être et d’exercice »."/></node><node lat="45.293396" lon="-75.89571"  id="-18"  changeset="false" ><tag k="tourism" v="artwork"/><tag k="name" v="Narrative of Nature"/><tag k="name:fr" v="Narrative of Nature"/><tag k="artist_name" v="Stead, Jennifer"/><tag k="image" v="http://ottawaxyz.ottawa.ca/wp-content/uploads/2014/03/Public_Art_122_Narrative-of-Nature.jpg"/><tag k="start_date" v="2011"/><tag k="material" v="clear anodized aluminium"/><tag k="source" v="City of Ottawa"/><tag k="source:date" v="2018-07-20"/><tag k="description" v="Hazeldean Road (Terry Fox Drive to Carp Road)"/><tag k="inscription" v="Narrative of Nature celebrates the dramatic environment surrounding Kanata. Thirty-six designs illustrate Jennifer Stead’s careful attention to and manipulation of spatial relationships, ensuring each composition tells a complete story while remaining par"/><tag k="inscription:fr" v="L’oeuvre Narrative of Nature (Récit de la nature) reflète l’environnement spectaculaire de Kanata. Les trente-six créations de Jennifer Stead révèlent l’attention minutieuse qu’a portée l’artiste à l’établissement de rapports spatiaux de façon à ce que ch"/></node><node lat="45.293396" lon="-75.89571"  id="-19"  changeset="false" ><tag k="tourism" v="artwork"/><tag k="name" v="Imprint: Intersections of City and Sky"/><tag k="name:fr" v="Imprint: Intersections of City and Sky"/><tag k="image" v="http://ottawaxyz.ottawa.ca/wp-content/uploads/2014/03/Public_Art_123_Imprint-Intersections-of-City-and-Sky.jpg"/><tag k="start_date" v="2011"/><tag k="material" v="clear anodized aluminium, glass"/><tag k="source" v="City of Ottawa"/><tag k="source:date" v="2018-07-20"/><tag k="description" v="Hazeldean Road (Terry Fox Drive to Carp Road)"/><tag k="inscription" v="Poetically reconnecting urban travellers with nature’s guidance systems Imprint: Intersections of City  Sky, a series of twenty designs by artist team Alisdair MacRae and Negar Seyfollahy, draws attention to visible constellations in the north-eastern an"/><tag k="inscription:fr" v="Rétablissant une connexion poétique entre le voyageur urbain et les systèmes d’orientation de la nature, l’œuvre Imprint: Intersections of City  Sky (Empreinte : rencontres de la ville et du ciel), une série de vingt créations du duo Alisdair MacRae et N"/></node><node lat="45.293396" lon="-75.89571"  id="-20"  changeset="false" ><tag k="tourism" v="artwork"/><tag k="name" v="Hazel Lyrics"/><tag k="name:fr" v="Hazel Lyrics"/><tag k="artist_name" v="Chan, Eric"/><tag k="image" v="http://ottawaxyz.ottawa.ca/wp-content/uploads/2014/03/Public_Art_124_Hazel-Lyrics.jpg"/><tag k="start_date" v="2011"/><tag k="material" v="red anodized aluminium"/><tag k="source" v="City of Ottawa"/><tag k="source:date" v="2018-07-20"/><tag k="description" v="Hazeldean Road (Terry Fox Drive to Carp Road)"/><tag k="inscription" v="Taking inspiration from the natural environment, local economy and community, Eric Chan and Lynda Cronin in a series of twenty-six designs, cleverly employ organic and animal forms combined with urban elements to achieve visual consistency in the designs."/><tag k="inscription:fr" v="Ayant puisé leur inspiration dans l’environnement naturel et l’économie de la collectivité, Eric Chan et Lynda Cronin démontrent dans cette série de vingt­six créations leur habilité à faire cohabiter des formes naturelles et animales à des éléments urbai"/></node><node lat="45.394707" lon="-75.682307"  id="-21"  changeset="false" ><tag k="tourism" v="artwork"/><tag k="name" v="For Everyone A Garden"/><tag k="name:fr" v="À chacun son jardin"/><tag k="artist_name" v="Margo, Deborah"/><tag k="image" v="http://ottawaxyz.ottawa.ca/wp-content/uploads/2014/03/Public_Art_125_For-Everyone-A-Garden.jpg"/><tag k="start_date" v="2011"/><tag k="material" v="copper"/><tag k="source" v="City of Ottawa"/><tag k="source:date" v="2018-07-20"/><tag k="description" v="260 Sunnyside Ave, Ottawa South Community Centre"/><tag k="inscription" v="In collaboration with members of the Ottawa South community, Deborah Margo developed the imagery which was embossed and punctured onto the copper panels. Collected in an accompanying archive, the source imagery for the artwork focuses on local gardens and"/><tag k="inscription:fr" v="En collaboration avec les membres de la collectivité d’Ottawa-Sud, Margo a élaboré l’imagerie qui a été estampée et perforée sur des panneaux de cuivre. Recueillies dans les archives jointes, les images sources de la maquette portent principalement sur le"/></node><node lat="45.399841" lon="-75.686537"  id="-22"  changeset="false" ><tag k="tourism" v="artwork"/><tag k="name" v="A Place to Nest, a Place to Reflect, Have a Seat"/><tag k="name:fr" v="A Place to Nest, a Place to Reflect, Have a Seat"/><tag k="artist_name" v="desClouds, Tim"/><tag k="image" v="http://ottawaxyz.ottawa.ca/wp-content/uploads/2014/03/Public_Art_126_A-Place-to-Nest-a-Place-to-Reflect-Have-a-Seat.jpg"/><tag k="start_date" v="2007"/><tag k="material" v="steel and found objects"/><tag k="source" v="City of Ottawa"/><tag k="source:date" v="2018-07-20"/><tag k="description" v="Bank Street, South (Highway 417 to Holmwood Avenue)"/><tag k="inscription" v="A Place to Nest, a Place to Reflect, Have a Seat, by local artist Tim desClouds was commissioned for the Bank Street Glebe district as part of the reconstruction project. Artist and educator Tim desClouds has created an undoubtedly whimsical work of art r"/><tag k="inscription:fr" v="Un endroit où se blottir, un endroit où réfléchir, prenez un siège une œuvre réalisée par l’artiste local Tim desClouds a été élaborée pour la rue Bank du quartier du Glebe, dans le cadre du projet de reconstruction. L’artiste et éducateur, Tim desClouds,"/></node><node lat="45.409883" lon="-75.706312"  id="-23"  changeset="false" ><tag k="tourism" v="artwork"/><tag k="name" v="Silk Road Flower Rain"/><tag k="name:fr" v="Pluie de fleurs sur la route de la soie"/><tag k="artist_name" v="Lafontaine and/et Lotecki, Charlynne and/et Ryan"/><tag k="image" v="http://ottawaxyz.ottawa.ca/wp-content/uploads/2014/03/Public_Art_127_Silk-Road-Flower-Rain.jpg"/><tag k="start_date" v="2011"/><tag k="material" v="aluminum and glass"/><tag k="source" v="City of Ottawa"/><tag k="source:date" v="2018-07-20"/><tag k="description" v="Somerset Street West (Chinatown)"/><tag k="inscription" v="Towards Chinatown the series Silk Road Flower Rain exhibits colourful glass forms representing abstracted flowers and raindrops; bamboo for longevity, chrysanthemum for good health, and pomegranate to ward off evil spirits. The deliberate choice of eight"/><tag k="inscription:fr" v="Vers le Quartier chinois, la série Silk Road Flower Rain (Pluie de fleurs sur la route de la soie) présente des formes colorées en verre qui représentent des fleurs et des gouttes de pluie abstraites : le bambou symbolisant la longévité, le chrysanthème s"/></node><node lat="45.40586" lon="-75.72258"  id="-24"  changeset="false" ><tag k="tourism" v="artwork"/><tag k="name" v="Morphology"/><tag k="name:fr" v="Morphologie"/><tag k="artist_name" v="Lafontaine and/et Lotecki, Charlynne and/et Ryan"/><tag k="image" v="http://ottawaxyz.ottawa.ca/wp-content/uploads/2014/03/Public_Art_128_Morphology.jpg"/><tag k="start_date" v="2011"/><tag k="material" v="aluminum and glass"/><tag k="source" v="City of Ottawa"/><tag k="source:date" v="2018-07-20"/><tag k="description" v="Somerset Street West"/><tag k="inscription" v="The series of sculptures entitled Morphology commissioned for the Hintonburg district are formed as if windblown with glass forms morphing from a seed pod to an open flower, signifying growth and revitalization. The flame-worked glass elements playfully r"/><tag k="inscription:fr" v="La série de sculptures intitulées Morphology (Morphologie), commandées pour le district de Hintonburg, semblent soufflées par le vent et comportent des formes en verre ressemblant à des gousses qui se transforment en fleurs épanouies, illustrant ainsi la"/><tag k="artwork_type" v="sculpture"/></node><node lat="45.408927" lon="-75.634927"  id="-25"  changeset="false" ><tag k="tourism" v="artwork"/><tag k="name" v="TRANSPOtting"/><tag k="name:fr" v="TRANSPOtting"/><tag k="image" v="http://ottawaxyz.ottawa.ca/wp-content/uploads/2014/03/Public_Art_129_TRANSPOtting.jpg"/><tag k="start_date" v="2008"/><tag k="material" v="LED panels and software"/><tag k="source" v="City of Ottawa"/><tag k="source:date" v="2018-07-20"/><tag k="description" v="745 Industrial Avenue, OC Transpo Bus Garage"/><tag k="inscription" v="TRANSPOtting is comprised of 80 LED panels which are embedded in a sound wall. The visual experience of lights cycling different colours, intensities, and patterns through LED panels is cued from input from the OC Transpo bus schedule. As the first bus dr"/><tag k="inscription:fr" v="L'œuvre de commande TRANSPOtting en est une qui s'appuie sur divers médias et comprend 80 panneaux à DEL encastrés dans des murs acoustiques. L'expérience visuelle, où les diodes changent de couleur et d'intensité et tracent sans cesse de nouvelles formes"/></node><node lat="45.379463" lon="-75.654049"  id="-26"  changeset="false" ><tag k="tourism" v="artwork"/><tag k="name" v="Home is Where the Heart Is"/><tag k="name:fr" v="Home is Where the Heart Is"/><tag k="artist_name" v="Durr, Pat"/><tag k="image" v="http://ottawaxyz.ottawa.ca/wp-content/uploads/2014/03/Public_Art_13_Home-is-Where-the-Heart-Is.jpg"/><tag k="start_date" v="1990"/><tag k="material" v="acrylic on cotton duck canvas on cassiform"/><tag k="source" v="City of Ottawa"/><tag k="source:date" v="2018-07-20"/><tag k="description" v="1480 Heron Road, Heron Road Community Centre"/><tag k="inscription" v="An 18 foot long curved mural is situated on the third floor of this centre. Predominantly abstract, the work evokes a number of familiar scenes and objects in a colourful and playful manner."/><tag k="inscription:fr" v="Situé au 3e étage du Centre, la grande peinture acrylique sur toile peut presque être qualifiée d’abstraite mais évoque néanmoins divers scènes et objets familiers d’une manière vive et colorée"/><tag k="artwork_type" v="mural"/></node><node lat="45.457771" lon="-75.466009"  id="-27"  changeset="false" ><tag k="tourism" v="artwork"/><tag k="name" v="Water"/><tag k="name:fr" v="Eau"/><tag k="artist_name" v="Stead, Jennifer"/><tag k="image" v="http://ottawaxyz.ottawa.ca/wp-content/uploads/2014/03/Public_Art_130_Water.jpg"/><tag k="start_date" v="2011"/><tag k="material" v="aluminum"/><tag k="source" v="City of Ottawa"/><tag k="source:date" v="2018-07-20"/><tag k="description" v="2263 Portobello Boulevard, François Dupuis Pool"/><tag k="inscription" v="Water introduces the force of nature to the built environment of the François Dupuis Recreation Centre through a visual exploration of water’s many moods and manifestations. The artwork amplifies the experience of being at the pool and our relationship w"/><tag k="inscription:fr" v="Eau fait entrer la force de la nature au centre récréatif François-Dupuis en explorant les différentes expressions et dispositions caractéristiques de l’eau. Cette œuvre, tout en soulignant les activités et les objectifs du centre aquatique, enrichit notr"/></node><node lat="45.252462" lon="-75.737779"  id="-28"  changeset="false" ><tag k="tourism" v="artwork"/><tag k="name" v="Falling Star"/><tag k="name:fr" v="Étoile filante"/><tag k="artist_name" v="Maynard, Don"/><tag k="image" v="http://ottawaxyz.ottawa.ca/wp-content/uploads/2014/03/Public_Art_131_Falling-Star.jpg"/><tag k="start_date" v="2011"/><tag k="material" v="aluminum, acrylic and LED"/><tag k="source" v="City of Ottawa"/><tag k="source:date" v="2018-07-20"/><tag k="description" v="2757 Grand Vista Circle, Half Moon Bay, Cambrian and Greenbank"/><tag k="inscription" v="Falling Star was commissioned by the City of Ottawa for Half Moon Bay Park in Barrhaven South. The 13-foot high cast aluminum sculpture sits atop the toboggan hill at Cambrian and Greenbank roads, balanced on one of its five points. As if fallen from the"/><tag k="inscription:fr" v="La sculpture Étoile filante a fait l’objet d’une commande de la Ville d’Ottawa pour le parc Half Moon Bay à Barrhaven Sud. Se présentant sous la forme d’une sculpture en aluminium coulé d’une hauteur de 4 m (13 pi), l’étoile se dresse en haut de la collin"/><tag k="artwork_type" v="sculpture"/></node><node lat="45.281583" lon="-75.909978"  id="-29"  changeset="false" ><tag k="tourism" v="artwork"/><tag k="name" v="Overhaul"/><tag k="name:fr" v="Overhaul"/><tag k="artist_name" v="Kinghorn, Michael"/><tag k="image" v="http://ottawaxyz.ottawa.ca/wp-content/uploads/2014/03/Public_Art_132_Overhaul.jpg"/><tag k="start_date" v="2012"/><tag k="material" v="steel, brass, aluminum and rubber"/><tag k="source" v="City of Ottawa"/><tag k="source:date" v="2018-07-20"/><tag k="description" v="34 Iber Rd, Stittsville, Fire Station 46"/><tag k="inscription" v="This sculpture by artist Michael Kinghorn engages with the word “overhaul” in two ways. A term frequently used by firefighters, overhaul refers to the stripping of walls and floors in order to search for trapped heat. Similarly, the layers of this sculptu"/><tag k="inscription:fr" v="Cette sculpture de l’artiste Michael Kinghorn évoque deux significations du mot anglais overhaul. Terme fréquemment utilisé par les pompiers, overhaul décrit l’enlèvement de murs et de planchers pour trouver de la chaleur emprisonnée. Dans le même ordre d"/><tag k="artwork_type" v="sculpture"/></node><node lat="45.253397" lon="-75.736022"  id="-30"  changeset="false" ><tag k="tourism" v="artwork"/><tag k="name" v="Collapse"/><tag k="name:fr" v="Collapse"/><tag k="artist_name" v="Kinghorn, Michael"/><tag k="image" v="http://ottawaxyz.ottawa.ca/wp-content/uploads/2014/03/Public_Art_133_Collapse.jpg"/><tag k="start_date" v="2012"/><tag k="material" v="steel, stainless steel and copper"/><tag k="source" v="City of Ottawa"/><tag k="source:date" v="2018-07-20"/><tag k="description" v="3559 Greenbank Road, Barrhaven South, Fire Station 47"/><tag k="inscription" v="This sculpture by artist Michael Kinghorn reminds us of the dangerous conditions regularly faced by rescue workers. The open corner exposes a jumble of weathered gears, tilling blades, horseshoes and wagon wheels. The deteriorating structure is secured"/><tag k="inscription:fr" v="Cette sculpture de l’artiste Michael Kinghorn nous rappelle les conditions dangereuses que doivent souvent affronter les membres d’équipes de secours. Le coin dégagé montre un amas d’engrenages, de lames de labourage, de fers à cheval et de roues de chari"/><tag k="artwork_type" v="sculpture"/></node><node lat="45.340496" lon="-75.930498"  id="-31"  changeset="false" ><tag k="tourism" v="artwork"/><tag k="name" v="Chase"/><tag k="name:fr" v="La chasse"/><tag k="artist_name" v="Erin Robertson and Anna Williams"/><tag k="image" v="http://ottawaxyz.ottawa.ca/wp-content/uploads/2014/03/Public_Art_134_Chase.jpg"/><tag k="start_date" v="2011"/><tag k="material" v="bronze and stainless steel"/><tag k="source" v="City of Ottawa"/><tag k="source:date" v="2018-07-20"/><tag k="description" v="4101 Innovation Drive, Richcraft Recreation Complex (commissions)"/><tag k="inscription" v="Chase, is a sculptural installation in bronze, mapping the trail of a red fox chasing a ball. Chase captures the animal in gestural movements as though stopped in motion, offering the viewer a sustained gaze of something that usually unfolds too fast for"/><tag k="inscription:fr" v="La Chasse est une sculpture de bronze représentant le parcours d’un renard roux poursuivant une balle. La Chasse reproduit la gestuelle de l’animal interrompu dans son mouvement, offrant à l’observateur une vue soutenue sur une action habituellement trop"/></node><node lat="45.363903" lon="-75.634656"  id="-32"  changeset="false" ><tag k="tourism" v="artwork"/><tag k="name" v="Trellisworks"/><tag k="name:fr" v="Trellisworks"/><tag k="artist_name" v="Brown, Barbara"/><tag k="image" v="http://ottawaxyz.ottawa.ca/wp-content/uploads/2014/03/Public_Art_14_Trellisworks.jpg"/><tag k="start_date" v="1991"/><tag k="material" v="aluminum and wood"/><tag k="source" v="City of Ottawa"/><tag k="source:date" v="2018-07-20"/><tag k="description" v="363 Lorry Greenberg Drive, Greenboro Community Centre"/><tag k="inscription" v="It is my hope that this piece will have the effect of recalling the memories of being in a greenhouse or conservatory. The work is a reminder of growing and thriving plants, of hanging vines and trellises overhead, of the warmth of a summer day. It is a m"/><tag k="inscription:fr" v="J’espère que cette œuvre éveillera des souvenirs de serre ou de conservatoire. Elle évoque des plantes florissantes, grimpantes et des treillis en surplomb par une chaude journée d’été. Il s’agit d’une représentation métaphorique de la vie organique."/></node><node lat="45.422992" lon="-75.677901"  id="-33"  changeset="false" ><tag k="tourism" v="artwork"/><tag k="name" v="Shutters"/><tag k="name:fr" v="Shutters"/><tag k="artist_name" v="Brathwaite, Stephen"/><tag k="image" v="http://ottawaxyz.ottawa.ca/wp-content/uploads/2014/03/Public_Art_15_Shutters.jpg"/><tag k="start_date" v="1991"/><tag k="material" v="bevelled and mouthblown glass, lead, heat coloured steel"/><tag k="source" v="City of Ottawa"/><tag k="source:date" v="2018-07-20"/><tag k="description" v="250 Somerset Street East, Sandy Hill Community Centre"/><tag k="inscription" v="Shutters is one work in a series of leaded glass designs based on deteriorating shutters in various stages of repair. Shutters resemble a set of Venetian blinds, whose glass strips change colour providing different perspectives on the surrounding visual"/><tag k="inscription:fr" v="Shutters fait partie d'une série d'objets en verre au plomb, inspirés de la détérioration de volets, à divers stades de réparation. Shutters rappelle un ensemble de stores vénitiens, dont les parties en verre changent de couleur, donnant des perspectives"/></node><node lat="45.37225" lon="-75.658971"  id="-34"  changeset="false" ><tag k="tourism" v="artwork"/><tag k="name" v="Glacier"/><tag k="name:fr" v="Glacier"/><tag k="artist_name" v="Vigneau, Jean-Yves"/><tag k="image" v="http://ottawaxyz.ottawa.ca/wp-content/uploads/2014/03/Public_Art_16_Glacier.jpg"/><tag k="start_date" v="1991"/><tag k="material" v="aluminum and Plexiglas"/><tag k="source" v="City of Ottawa"/><tag k="source:date" v="2018-07-20"/><tag k="description" v="1265 Walkley Road, Jim Durrell Arena"/><tag k="inscription" v="The aluminum base of the sculpture’s pyramid is 16 feet on its longest side and 6 feet on its shortest side. The top is a small glass pyramid about 4 feet high, reaching 18 feet high in the air. This is the mountain and its summit of ice."/><tag k="inscription:fr" v="La base en aluminium de la sculpture fait 16 pieds sur 6 pieds. La cime de la pyramide de verre, d’environ 4 pieds de haut, atteint une hauteur totale de 18 pieds. Tout comme une montagne et son sommet de glace."/><tag k="artwork_type" v="sculpture"/></node><node lat="45.401706" lon="-75.729756"  id="-35"  changeset="false" ><tag k="tourism" v="artwork"/><tag k="name" v="Harvest"/><tag k="name:fr" v="Harvest"/><tag k="artist_name" v="Ciesluk, Karl"/><tag k="image" v="http://ottawaxyz.ottawa.ca/wp-content/uploads/2014/03/Public_Art_17_Harvest.jpg"/><tag k="start_date" v="1991"/><tag k="material" v="wood, metal, Plexiglas and concrete"/><tag k="source" v="City of Ottawa"/><tag k="source:date" v="2018-07-20"/><tag k="description" v="366 Parkdale Avenue, Parkdale Park"/></node><node lat="45.409278" lon="-75.701565"  id="-36"  changeset="false" ><tag k="tourism" v="artwork"/><tag k="name" v="Indicator 03"/><tag k="name:fr" v="Indicator 03"/><tag k="artist_name" v="Robinson, David"/><tag k="image" v="http://ottawaxyz.ottawa.ca/wp-content/uploads/2014/03/Public_Art_18_Indicator-O3.jpg"/><tag k="start_date" v="1992"/><tag k="material" v="polychromed steel, wood"/><tag k="source" v="City of Ottawa"/><tag k="source:date" v="2018-07-20"/><tag k="description" v="180 Percy Street, McNabb Community Centre"/><tag k="inscription" v="This project was installed in order to promote and celebrate some of the diverse activities that occur in this vital community park and centre. The nets, and the coloured ball images in the brick represent different games and sports played by many differe"/><tag k="inscription:fr" v="Ce projet a été mis sur pied dans le but de promouvoir et de célébrer quelques-unes des différentes activités qui ont lieu dans ce parc et centre communautaire de grande importance. Les filets et les images de balles colorées dans la brique représentent d"/></node><node lat="45.389782" lon="-75.672045"  id="-37"  changeset="false" ><tag k="tourism" v="artwork"/><tag k="name" v="Billings Bridge"/><tag k="name:fr" v="Billings Bridge"/><tag k="artist_name" v="Gill, Richard"/><tag k="image" v="http://ottawaxyz.ottawa.ca/wp-content/uploads/2014/03/Public_Art_19_Billings-Bridge.jpg"/><tag k="start_date" v="1992"/><tag k="material" v="clay"/><tag k="source" v="City of Ottawa"/><tag k="source:date" v="2018-07-20"/><tag k="description" v="2100 Cabot Street, Billings Estate Museum"/></node><node lat="45.427613" lon="-75.692613"  id="-38"  changeset="false" ><tag k="tourism" v="artwork"/><tag k="name" v="McClintock's Dream"/><tag k="name:fr" v="McClintock's Dream"/><tag k="artist_name" v="Tolgesy, Victor"/><tag k="image" v="http://ottawaxyz.ottawa.ca/wp-content/uploads/2014/03/Public_Art_2_McClintocks_Dream.jpg"/><tag k="start_date" v="1978"/><tag k="material" v="papier maché, acrylic"/><tag k="source" v="City of Ottawa"/><tag k="source:date" v="2018-07-20"/><tag k="description" v="55 ByWard Market Building"/><tag k="inscription" v="The Hungarian-born artist who created this whimsical, lively and humorous paper-mâché cloud for the ByWard Market Building was turning away from abstract art in the few years before his early death in 1980, towards what he called “a deliberate involvement"/><tag k="inscription:fr" v="C’est un artiste d’origine hongroise qui a réalisé le nuage en papier mâché à la fois fantaisiste et amusant qui orne l’édifice du marché By. Dans les années qui avaient précédé sa mort prématurée, survenue en 1980, Tolgesy avait décidé de se détourner de"/></node><node lat="45.426752" lon="-75.672726"  id="-39"  changeset="false" ><tag k="tourism" v="artwork"/><tag k="name" v="Strathcona's Folly"/><tag k="name:fr" v="Strathcona's Folly"/><tag k="artist_name" v="Brathwaite, Stephen"/><tag k="image" v="http://ottawaxyz.ottawa.ca/wp-content/uploads/2014/03/Public_Art_20_Strathconas-Folly.jpg"/><tag k="start_date" v="1992"/><tag k="material" v="concrete, stone, bronze and wood"/><tag k="source" v="City of Ottawa"/><tag k="source:date" v="2018-07-20"/><tag k="description" v="25 Range Road, Strathcona Park"/></node><node lat="45.429947" lon="-75.691032"  id="-40"  changeset="false" ><tag k="tourism" v="artwork"/><tag k="name" v="Untitled"/><tag k="name:fr" v="Untitled"/><tag k="artist_name" v="Slota, Marian"/><tag k="image" v="http://ottawaxyz.ottawa.ca/wp-content/uploads/2014/03/Public_Art_21_untitled.jpg"/><tag k="start_date" v="1992"/><tag k="material" v="paint on concrete"/><tag k="source" v="City of Ottawa"/><tag k="source:date" v="2018-07-20"/><tag k="description" v="145 Clarence, Clarence/Murray Street Parking Garage"/></node><node lat="45.429947" lon="-75.691032"  id="-41"  changeset="false" ><tag k="tourism" v="artwork"/><tag k="name" v="Alley Cats"/><tag k="name:fr" v="Les chats de gouttieres"/><tag k="artist_name" v="Vigneau, Jean-Yves"/><tag k="image" v="http://ottawaxyz.ottawa.ca/wp-content/uploads/2014/03/Public_Art_22_Alley-Cats.jpg"/><tag k="start_date" v="1993"/><tag k="material" v="bronze"/><tag k="source" v="City of Ottawa"/><tag k="source:date" v="2018-07-20"/><tag k="description" v="145 Clarence, Clarence/Murray Street Parking Garage"/><tag k="inscription" v="The Murray Street parking garage is home to 14 bronze alley cats by local sculptor Jean-Yves Vigneau. These alley cats will infiltrate your creative imaginings. One squints down at you from its perch, another arches its back and three kittens play in the"/><tag k="inscription:fr" v="Le garage de stationnement de la rue Murray abrite les 14 chats de gouttière en bronze de Jean-Yves Vigneau, sculpteur de la région. Ces chats de gouttière s’infiltreront dans votre imaginaire. L’un vous toise du regard du haut de son perchoir, l’autre fa"/></node><node lat="45.425644" lon="-75.68899"  id="-42"  changeset="false" ><tag k="tourism" v="artwork"/><tag k="name" v="Grand monochrome rouge et detail"/><tag k="name:fr" v="Grand monochrome rouge et detail"/><tag k="artist_name" v="Berlanga, Miguel"/><tag k="image" v="http://ottawaxyz.ottawa.ca/wp-content/uploads/2014/03/Public_Art_23_Grand-monochrome-rouge-et-detail.jpg"/><tag k="start_date" v="1993"/><tag k="material" v="corten steel"/><tag k="source" v="City of Ottawa"/><tag k="source:date" v="2018-07-20"/><tag k="description" v="2 Daly Avenue, Arts Court"/></node><node lat="45.439069" lon="-75.696107"  id="-43"  changeset="false" ><tag k="tourism" v="artwork"/><tag k="name" v="Untitled benches"/><tag k="name:fr" v="sans titre bancs"/><tag k="artist_name" v="Thomson, Jim"/><tag k="image" v="http://ottawaxyz.ottawa.ca/wp-content/uploads/2014/03/Public_Art_24_untitled-benches.jpg"/><tag k="start_date" v="1994"/><tag k="material" v="clay, wood and leather"/><tag k="source" v="City of Ottawa"/><tag k="source:date" v="2018-07-20"/><tag k="inscription" v="Using natural materials such as clay, wood and leather, Jim Thomson created a series of Forest benches. The benches represent the four Ottawa seasons, bringing the outside natural world to the inside. Ceramic rocks with glazed and sculpted leaves, moss,"/><tag k="inscription:fr" v="Tirant parti de matériaux naturels tels que l'argile, le bois et le cuir, Jim Thomson a créé toute une série de « Bancs sylvestres ». Ces bancs illustrent les quatre saisons à Ottawa, et recréent, dans I'enceinte même de l'hôtel de ville, le milieu nature"/></node><node lat="45.340672" lon="-75.761316"  id="-44"  changeset="false" ><tag k="tourism" v="artwork"/><tag k="name" v="Untitled: Mayor's desk and Chair"/><tag k="name:fr" v="Sans titre: pupitre et chaise du maire"/><tag k="artist_name" v="Kerr, Randy"/><tag k="image" v="http://ottawaxyz.ottawa.ca/wp-content/uploads/2014/03/Public_Art_25_untitled-Mayors-desk-and-chair.jpg"/><tag k="start_date" v="1993"/><tag k="material" v="wood, leather, mother of pearl"/><tag k="source" v="City of Ottawa"/><tag k="source:date" v="2018-07-20"/><tag k="description" v="100 Tallwood Drive, Central Archives"/><tag k="inscription" v="This desk and chair was commissioned to integrate with the existing design of the Ottawa City Hall Council Chambers as part of renovations to the previous Ottawa City Hall at 111 Sussex Drive. Details in the chair and desk such as mother of pearl diamonds"/><tag k="inscription:fr" v="La commande du pupitre et de la chaise visait à ce que le mobilier s'intègre dans la conception de la salle du Conseil municipal d'Ottawa dans le cadre des rénovations effectuées à l'ancien hôtel de ville au 111, promenade Sussex. Les détails dans le pupi"/></node><node lat="45.439069" lon="-75.696107"  id="-45"  changeset="false" ><tag k="tourism" v="artwork"/><tag k="name" v="Objective Memory"/><tag k="name:fr" v="Objective Memory"/><tag k="artist_name" v="Widgery, Catherine"/><tag k="image" v="http://ottawaxyz.ottawa.ca/wp-content/uploads/2014/03/Public_Art_26_Objective-Memory.jpg"/><tag k="start_date" v="1993"/><tag k="material" v="cast bronze and aluminium"/><tag k="source" v="City of Ottawa"/><tag k="source:date" v="2018-07-20"/><tag k="description" v="111 Sussex Drive"/><tag k="inscription" v="Widgery’s three-part outdoor sculpture of cast bronze and aluminum offers a whimsical look at the relationship between nature and the human order of things. A polar bear atop a pyramid of star constellations, a man inside a rocket ship-like cone and a tre"/><tag k="inscription:fr" v="Cette oeuvre de Widgery, une sculpture extérieure en bronze coulé et en aluminium composée de trois segments, jette un regard fantaisiste sur la relation entre la nature et l’ordre des choses imposé par l’homme. Un ours polaire au sommet d’une pyramide de"/><tag k="artwork_type" v="sculpture"/></node><node lat="45.439069" lon="-75.696107"  id="-46"  changeset="false" ><tag k="tourism" v="artwork"/><tag k="name" v="Vox Populi"/><tag k="name:fr" v="Vox Populi"/><tag k="artist_name" v="Geuer, Juan"/><tag k="image" v="http://ottawaxyz.ottawa.ca/wp-content/uploads/2014/03/Public_Art_27_Vox-Populi.jpg"/><tag k="start_date" v="1994"/><tag k="material" v="mixed media"/><tag k="source" v="City of Ottawa"/><tag k="source:date" v="2018-07-20"/><tag k="description" v="111 Sussex Drive"/><tag k="inscription" v="Vox Populi or Voice of the People is a voice animated light sculpture. Directional microphones placed at the entrance doors pick up voices and sounds; the sound is then transformed by a micro-computer into light patterns that emanate from the central open"/><tag k="inscription:fr" v="Vox Populi est une sculpture lumineuse commandée à Ia voix. Des microphones directionnels, placés aux portes d'entrée, recueillent les voix et les bruits, qui sont ensuite transformés en diagrammes de lumière commandés par ordinateur. Émanant de Ia niche"/><tag k="artwork_type" v="sculpture"/></node><node lat="45.439069" lon="-75.696107"  id="-47"  changeset="false" ><tag k="tourism" v="artwork"/><tag k="name" v="Je veux la lune"/><tag k="name:fr" v="Je veux la lune"/><tag k="artist_name" v="Beauchemin, Micheline"/><tag k="image" v="http://ottawaxyz.ottawa.ca/wp-content/uploads/2014/03/Public_Art_28_Je-veux-la-lune.jpg"/><tag k="start_date" v="1994"/><tag k="material" v="nylon filament, rope, dye"/><tag k="source" v="City of Ottawa"/><tag k="source:date" v="2018-07-20"/><tag k="description" v="111 Sussex Drive"/><tag k="inscription" v="The series of twelve sails are made of several layers of knotted nylon and dyed in various shades of yellow, orange, red and blue. Overlapping one another, the sails create new colours; the contrasting colours of the ropes outline their size and triangula"/><tag k="inscription:fr" v="Cette serie de douze voiles est faite de plusieurs épaisseurs de nylon noué, teint en divers tons de jaune, d'orange, de rouge et de bleu. En se chevauchant, elles créent de toutes nouvelles teintes, tandis que les couleurs contrastantes des cordages font"/></node><node lat="45.421254" lon="-75.653829"  id="-48"  changeset="false" ><tag k="tourism" v="artwork"/><tag k="name" v="Switch Hitter"/><tag k="name:fr" v="Switch Hitter"/><tag k="artist_name" v="Yuristy, Russell"/><tag k="image" v="http://ottawaxyz.ottawa.ca/wp-content/uploads/2014/03/Public_Art_29_Switch-Hitter.jpg"/><tag k="start_date" v="1994"/><tag k="material" v="aluminum, concrete, acrylic"/><tag k="source" v="City of Ottawa"/><tag k="source:date" v="2018-07-20"/><tag k="description" v="300 Coventry Road, RCGT Park"/></node><node lat="45.373096" lon="-75.739452"  id="-49"  changeset="false" ><tag k="tourism" v="artwork"/><tag k="name" v="Interactions Bleues"/><tag k="name:fr" v="Interactions Bleues"/><tag k="artist_name" v="Hardy, Pierre"/><tag k="image" v="http://ottawaxyz.ottawa.ca/wp-content/uploads/2014/03/Public_Art_3_Interactions_Bleues.jpg"/><tag k="start_date" v="1986"/><tag k="material" v="acrylic on concrete"/><tag k="source" v="City of Ottawa"/><tag k="source:date" v="2018-07-20"/><tag k="description" v="1520 Caldwell Avenue, Carlington Rec Centre, Bellevue Gym"/></node><node lat="45.42805" lon="-75.68754"  id="-50"  changeset="false" ><tag k="tourism" v="artwork"/><tag k="name" v="Shelter - Its Loss and Replacement"/><tag k="name:fr" v="Shelter - Its Loss and Replacement"/><tag k="artist_name" v="Wonnacott, Justin"/><tag k="image" v="http://ottawaxyz.ottawa.ca/wp-content/uploads/2014/03/Public_Art_30_Shelter-Its-Loss-and-Replacement.jpg"/><tag k="start_date" v="1994"/><tag k="material" v="inkjet print"/><tag k="source" v="City of Ottawa"/><tag k="source:date" v="2018-07-20"/><tag k="inscription" v="Justin Wonnacott was commissioned to create artworks for Rideau Street. He chose shelter, its loss and replacement as a theme for his work. The large granite disc, “From a Camper’s Diary”, uses a surveyor's words in a spiral around images of flames and"/><tag k="inscription:fr" v="La Ville a demandé à Justin Wonnacott de créer des œuvres pour la rue Rideau. Le thème qu’il a choisi est celui de « l’abri, sa perte et son remplacement ». Le grand disque de granit, « From a Camper’s Diary », est gravé aux mots d’un arpenteur qui se dér"/></node><node lat="45.401185" lon="-75.666747"  id="-51"  changeset="false" ><tag k="tourism" v="artwork"/><tag k="name" v="River's Invitation"/><tag k="name:fr" v="River's Invitation"/><tag k="artist_name" v="Sharpe, Blair"/><tag k="image" v="http://ottawaxyz.ottawa.ca/wp-content/uploads/2014/03/Public_Art_300_RiverInvitation.jpg"/><tag k="start_date" v="1991"/><tag k="material" v="stonhard flooring paint system"/><tag k="source" v="City of Ottawa"/><tag k="source:date" v="2018-07-20"/><tag k="description" v="OC Transitway Smyth Station"/></node><node lat="45.340496" lon="-75.930498"  id="-52"  changeset="false" ><tag k="tourism" v="artwork"/><tag k="name" v="Silver Line"/><tag k="name:fr" v="Ligne argentée"/><tag k="artist_name" v="Lasserre, Maskull"/><tag k="image" v="http://ottawaxyz.ottawa.ca/wp-content/uploads/2014/03/Public_Art_301_SilverLine.jpg"/><tag k="start_date" v="2011"/><tag k="material" v="stainless steel, aluminum, bronze and prefabricated components"/><tag k="source" v="City of Ottawa"/><tag k="source:date" v="2018-07-20"/><tag k="description" v="4101 Innovation Drive, Richcraft Recreation Complex (commissions)"/><tag k="inscription" v="Silver Line is a three part installation consisting of a pair of binoculars, a cloud fabricated in aluminum and stainless steel, and a poised bronze female gure. The three sculptural components come into alignment when viewed through the binoculars. The c"/><tag k="inscription:fr" v="Ligne argentée est une installation en trois parties composée de jumelles, d’un nuage en aluminium et en acier inoxydable et d’un bronze représentant le corps d’une femme en équilibre. Vues à travers les jumelles, les trois composantes sculpturales s’alig"/></node><node lat="45.340496" lon="-75.930498"  id="-53"  changeset="false" ><tag k="tourism" v="artwork"/><tag k="name" v="Skiff"/><tag k="name:fr" v="Skiff"/><tag k="artist_name" v="Vigneau, Jean-Yves"/><tag k="image" v="http://ottawaxyz.ottawa.ca/wp-content/uploads/2014/03/Public_Art_302_Skiff.jpg"/><tag k="start_date" v="2011"/><tag k="material" v="aluminum"/><tag k="source" v="City of Ottawa"/><tag k="source:date" v="2018-07-20"/><tag k="description" v="4101 Innovation Drive, Richcraft Recreation Complex (commissions)"/><tag k="inscription" v="This sculptural installation was inspired by skiffs - long, slender boats with hulls so elongated that rowers balance themselves as though on a high wire. They speed forward so fast they barely touch the surface of the water. The long oars seem to walk on"/><tag k="inscription:fr" v="Cette oeuvre est inspirée des skiffs, embarcations aux coques effilées sur lesquelles les rameurs se tiennent en équilibre comme sur un fil tendu. Ils se déplacent ainsi à toute allure, effleurant à peine la surface de l'eau. Les longues rames semblent ma"/><tag k="artwork_type" v="sculpture"/></node><node lat="45.340496" lon="-75.930498"  id="-54"  changeset="false" ><tag k="tourism" v="artwork"/><tag k="name" v="A Flat and A Box"/><tag k="name:fr" v="A Flat and A Box"/><tag k="image" v="http://ottawaxyz.ottawa.ca/wp-content/uploads/2014/03/Public_Art_303_FlatBox.jpg"/><tag k="start_date" v="2012"/><tag k="material" v="granite and cement"/><tag k="source" v="City of Ottawa"/><tag k="source:date" v="2018-07-20"/><tag k="description" v="4101 Innovation Drive, Richcraft Recreation Complex (commissions)"/><tag k="inscription" v="A Flat and a Box has two main components: a flat area and a rectangular box. Skaters use the sculpture for many different tricks and approaches – the design accommodates beginner to expert skaters. Artists Alisdair MacRae and Negar Seyfollahy worked direc"/><tag k="inscription:fr" v="Cette œuvre compte deux éléments fondamentaux : une partie plane et une boîte rectangulaire. Les planchistes utilisent la sculpture pour de nombreuses figures et approches – sa conception convient tant aux novices qu'aux planchistes aguerris. Pour la conc"/><tag k="artwork_type" v="sculpture"/></node><node lat="45.321918" lon="-75.895582"  id="-55"  changeset="false" ><tag k="tourism" v="artwork"/><tag k="name" v="Blanding’s Turtles of the South March Highlands"/><tag k="name:fr" v="Les tortues mouchetées des hautes terres de South March"/><tag k="artist_name" v="Griffin, Christopher"/><tag k="image" v="http://ottawaxyz.ottawa.ca/wp-content/uploads/2014/03/Public_Art_304_BlandingTurtles.jpg"/><tag k="start_date" v="2013"/><tag k="material" v="concrete"/><tag k="source" v="City of Ottawa"/><tag k="source:date" v="2018-07-20"/><tag k="description" v="2500 Campeau Drive, Ottawa Public Library, Beaverbrook Branch"/><tag k="inscription" v="Inspired by the natural ecosystems of Kanata and the South March Highlands, Griffin's gestural concrete murals feature the Blanding's turtle, an important local species, as well as other indigenous flora and fauna. Thirteen concrete turtle sculptures roam"/><tag k="inscription:fr" v="Inspirées des écosystèmes naturels de Kanata et des hautes terres de South March, les sculptures murales gestuelles en béton de Christopher Griffin représentent la tortue mouchetée, importante espèce locale, ainsi que d'autres espèces de la flore et de la"/><tag k="artwork_type" v="sculpture"/></node><node lat="45.413561" lon="-75.706344"  id="-56"  changeset="false" ><tag k="tourism" v="artwork"/><tag k="name" v="Community Channel"/><tag k="name:fr" v="Voie communautaire"/><tag k="artist_name" v="O’Malley, Andrew"/><tag k="image" v="http://ottawaxyz.ottawa.ca/wp-content/uploads/2014/03/Public_Art_305_CommunityChannel.jpg"/><tag k="start_date" v="2012"/><tag k="material" v="LED, acrylic panels, software"/><tag k="source" v="City of Ottawa"/><tag k="source:date" v="2018-07-20"/><tag k="description" v="211 Bronson Avenue, Bronson Centre"/><tag k="inscription" v="Community Channel by Andrew O’Malley is a bold and forward-thinking light-based permanent installation above the exterior entranceway of the Bronson Centre located at 211 Bronson Avenue. Composed of larger-than-life silhouettes, the sculpture represents v"/><tag k="inscription:fr" v="Voie communautaire d'Andrew O'Malley est une installation à base de lumière audacieuse et avant gardiste pour l'entrée extérieure du Centre Bronson, situé au 211, avenue Bronson. Composé de silhouettes plus grandes que nature, la sculpture représente dive"/><tag k="artwork_type" v="sculpture"/></node><node lat="45.407821" lon="-75.703351"  id="-57"  changeset="false" ><tag k="tourism" v="artwork"/><tag k="name" v="Sit for a While, In the Garden, and Watch the Parade"/><tag k="name:fr" v="Prenez le temps de vous asseoir dans le jardin pour regarder le défilé"/><tag k="artist_name" v="desClouds, Tim"/><tag k="image" v="http://ottawaxyz.ottawa.ca/wp-content/uploads/2014/03/Public_Art_306_Sit.jpg"/><tag k="start_date" v="2012"/><tag k="material" v="powder-coated steel"/><tag k="source" v="City of Ottawa"/><tag k="source:date" v="2018-07-20"/><tag k="description" v="Bronson Avenue, 435 Bronson Avenue (entrance to McNabb Skate Park)"/><tag k="inscription" v="Tim desClouds has created a dynamic and monumental artwork along Bronson Avenue at Gladstone Avenue. Sit for a While, In the Garden, and Watch the Parade features a large three dimensional silhouette of a stylized maple tree as a central image whose branc"/><tag k="inscription:fr" v="Tim desClouds a créé une œuvre dynamique et monumentale en bordure de l’avenue Bronson à la hauteur de l’avenue Gladstone. La grande silhouette tridimensionnelle d’un érable stylisé dont les branches forment des arcades à l’entrée du parc McNabb se découp"/></node><node lat="45.412696" lon="-75.631342"  id="-58"  changeset="false" ><tag k="tourism" v="artwork"/><tag k="name" v="The Spirit of OC Transpo"/><tag k="name:fr" v="L’esprit d’OC Transpo"/><tag k="artist_name" v="Bhat Boy"/><tag k="image" v="http://ottawaxyz.ottawa.ca/wp-content/uploads/2014/03/Public_Art_307_SpiritOCTranspo.jpg"/><tag k="start_date" v="2014"/><tag k="material" v="acrylic on canvas"/><tag k="source" v="City of Ottawa"/><tag k="source:date" v="2018-07-20"/><tag k="description" v="1500 St. Laurent Blvd, OC Transpo, 1st Floor"/><tag k="inscription" v="Local artist Bhat Boy has drawn on medieval painting traditions and his love of history and mapmaking to form an imaginative portrait of Ottawa’s transit network. The 15-foot long painting features 28 different examples of vehicles used for public transpo"/><tag k="inscription:fr" v="L'artiste local Bhat Boy s'est inspiré des traditions de peinture médiévales et a tiré parti de sa passion pour l'histoire et la cartographie pour créer une image fantaisiste du réseau de transport en commun d'Ottawa. La peinture de 15 pieds (4,6 m) de lo"/></node><node lat="45.252821" lon="-75.73489"  id="-59"  changeset="false" ><tag k="tourism" v="artwork"/><tag k="name" v="Mr. Kurokawa"/><tag k="name:fr" v="M. Kurokawa"/><tag k="artist_name" v="Daniel Young  Christian Giroux"/><tag k="image" v="http://ottawaxyz.ottawa.ca/wp-content/uploads/2014/03/Public_Art_308_Kurokawa.jpg"/><tag k="start_date" v="2012"/><tag k="material" v="Plywood, aluminum, steel, glass, Phenolic resin"/><tag k="source" v="City of Ottawa"/><tag k="source:date" v="2018-07-20"/><tag k="description" v="3500 Cambrian Drive, Minto Recreation Complex (Barrhaven)"/><tag k="inscription" v="The two modular sculptures suspended from the ceiling of the complex enhance the public site and create a dialogue between old and new with their retro-futuristic presence. Appearing simultaneously industrial and organic, Young and Giroux’s richly composi"/><tag k="inscription:fr" v="La sculpture modulaire est accrochée au plafond du complexe, où sa présence rétro-futuriste agrémente l’espace public et fait dialoguer l’ancien et le nouveau. L’œuvre richement compositionnelle, d’apparence industrielle et organique tout à la fois, est c"/><tag k="artwork_type" v="sculpture"/></node><node lat="45.486549" lon="-75.476211"  id="-60"  changeset="false" ><tag k="tourism" v="artwork"/><tag k="name" v="Erratic Field"/><tag k="name:fr" v="Champs de blocs erratiques"/><tag k="artist_name" v="Dark, Shayne"/><tag k="image" v="http://ottawaxyz.ottawa.ca/wp-content/uploads/2014/03/Public_Art_309_ErraticField.jpg"/><tag k="start_date" v="2013"/><tag k="material" v="corten steel"/><tag k="source" v="City of Ottawa"/><tag k="source:date" v="2018-07-20"/><tag k="description" v="Trim Road (between Watters and Old Montreal Road)"/><tag k="inscription" v="Over 10,000 years ago, glaciers scattered large boulders, commonly known as erratics, across the landscape. Inspired by clusters of ancient stone found in the Ottawa region, Erratic Field transforms the urban environment with carefully executed minimal sc"/><tag k="inscription:fr" v="Il y a plus de 10 000 ans, les glaciers ont laissé sur leur passage de grosses pierres, communément appelées des blocs erratiques, qui jonchent maintenant le paysage. Inspiré de ces amas de roches anciennes qui se trouvent dans la région de l’Outaouais, C"/><tag k="artwork_type" v="sculpture"/></node><node lat="45.379883" lon="-75.616032"  id="-61"  changeset="false" ><tag k="tourism" v="artwork"/><tag k="name" v="The Mechanics of Gauging a Trade"/><tag k="name:fr" v="The Mechanics of Gauging a Trade"/><tag k="artist_name" v="fleury, c j"/><tag k="image" v="http://ottawaxyz.ottawa.ca/wp-content/uploads/2014/03/Public_Art_31_The-Mechanics-of-Gauging-a-Trade.jpg"/><tag k="start_date" v="1995"/><tag k="material" v="steel, chrome"/><tag k="source" v="City of Ottawa"/><tag k="source:date" v="2018-07-20"/><tag k="description" v="2799 Swansea Crescent, Municipal Workshops Front Lobby"/></node><node lat="45.427588" lon="-75.688763"  id="-62"  changeset="false" ><tag k="tourism" v="artwork"/><tag k="name" v="Cube, Lattice, Sphere, Wave"/><tag k="name:fr" v="Cube, treillis, sphère et vague"/><tag k="artist_name" v="Thompson, Mark"/><tag k="image" v="http://ottawaxyz.ottawa.ca/wp-content/uploads/2014/03/Public_Art_310_ShortStory.jpg"/><tag k="start_date" v="2012"/><tag k="material" v="glass, programmable LEDs, steel"/><tag k="source" v="City of Ottawa"/><tag k="source:date" v="2018-07-20"/><tag k="description" v="Rideau Street"/><tag k="inscription" v="Glass artist Mark Thompson has created four sculptures along Rideau Street that explore how we perceive colour, light and motion. This art installation conveys a range of symbols and associations: Here at Waller Street, the energy of downtown glows red in"/><tag k="inscription:fr" v="L’artiste verrier Mark Thompson a créé quatre sculptures disposées le long de la rue Rideau, qui explorent notre perception de la couleur, de la lumière et du mouvement. Cette installation artistique exprime toute une gamme de symboles et d’associations."/><tag k="artwork_type" v="sculpture"/></node><node lat="45.391082" lon="-75.752962"  id="-63"  changeset="false" ><tag k="tourism" v="artwork"/><tag k="name" v="Short Story"/><tag k="name:fr" v="Petite histoire"/><tag k="artist_name" v="Stead, Jennifer"/><tag k="image" v="http://ottawaxyz.ottawa.ca/wp-content/uploads/2014/03/Public_Art_311_IocomOtion.jpg"/><tag k="start_date" v="2013"/><tag k="material" v="steel"/><tag k="source" v="City of Ottawa"/><tag k="source:date" v="2018-07-20"/><tag k="description" v="Churchill Avenue (at Byron)"/><tag k="inscription" v="Artist Jennifer Stead tells stories by drawing the world around her. She began this project with her thoughts and experiences of the neighbourhood. Combining these with local history, she created a drawing using pencil and charcoal that was transformed in"/><tag k="inscription:fr" v="L’artiste Jennifer Stead raconte des histoires en dessinant le monde qui l’entoure. Elle a entamé ce projet en utilisant les réflexions que lui inspiraient le quartier et les expériences qu’elle y a vécues. En effectuant l’amalgame de ces concepts et de l"/><tag k="artwork_type" v="sculpture"/></node><node lat="45.385361" lon="-75.695994"  id="-64"  changeset="false" ><tag k="tourism" v="artwork"/><tag k="name" v="locomOtion"/><tag k="name:fr" v="locomOtion"/><tag k="artist_name" v="Kinmond, Stuart"/><tag k="image" v="http://ottawaxyz.ottawa.ca/wp-content/uploads/2014/03/Public_Art_312_Cube.jpg"/><tag k="start_date" v="2013"/><tag k="material" v="powder coated aluminum posts, aluminum panels with reflective sheeting, stainless steel"/><tag k="source" v="City of Ottawa"/><tag k="source:date" v="2018-07-20"/><tag k="description" v="Carleton University O-Train station, 1125 Colonel By Dr"/><tag k="inscription" v="The large scale of this artwork and its placement along the length of the platform gives the Carleton O-Train station a sense of place and architectural identity. As the eye passes along its length, the sequence of wheel segments plays on the idea of move"/><tag k="inscription:fr" v="Le grand format de cette œuvre d’art et son installation le long du quai confèrent à la station Carleton de l’O-Train un sentiment d’appartenance au lieu et une identité architecturale. En balayant l’œuvre du regard, la succession de segments de roues don"/></node><node lat="45.412211" lon="-75.633545"  id="-65"  changeset="false" ><tag k="tourism" v="artwork"/><tag k="name" v="Inflorescence"/><tag k="name:fr" v="L’Inflorescence"/><tag k="artist_name" v="Margo, Deborah"/><tag k="image" v="http://ottawaxyz.ottawa.ca/wp-content/uploads/2014/03/Public_Art_313_Inflorescence.jpg"/><tag k="start_date" v="2015"/><tag k="material" v="copper"/><tag k="source" v="City of Ottawa"/><tag k="source:date" v="2018-07-20"/><tag k="description" v="925 Belfast Road, OC Transpo"/><tag k="inscription" v="Based on the common spider plant, these five sculptures were inspired by the clusters of tiny plantlets known as inflorescences that grow from the spider plant’s central stem. For the artist, Inflorescence represents the idea of interconnectedness, a fitt"/><tag k="inscription:fr" v="L’Inflorescence est une œuvre composée de cinq sculptures inspirées par les petites plantes qui poussent sur la tige centrale de la plante-araignée, appelées inflorescences. Pour l’artiste, Deborah Margo, L’Inflorescence représente l’interdépendance, prin"/><tag k="artwork_type" v="sculpture"/></node><node lat="45.403541" lon="-75.688979"  id="-66"  changeset="false" ><tag k="tourism" v="artwork"/><tag k="name" v="House of the Great Blue Heron"/><tag k="name:fr" v="Domaine du grand heron"/><tag k="artist_name" v="Griffin, Christopher"/><tag k="image" v="http://ottawaxyz.ottawa.ca/wp-content/uploads/2014/03/Public_Art_314_HouseGreatBlue.jpg"/><tag k="start_date" v="2015"/><tag k="material" v="concrete"/><tag k="source" v="City of Ottawa"/><tag k="source:date" v="2018-07-20"/><tag k="description" v="170 Second Avenue, Glebe Parking Garage"/><tag k="inscription" v="Animals etched and sculpted out of concrete found on the walls, columns, and roof guide us through this building. Christopher Griffin worked with the Ottawa Field-Naturalists' Club and the Canadian Museum of Nature to create a list of wildlife living in a"/><tag k="inscription:fr" v="Les animaux gravés et sculptés dans le béton des murs, des colonnes et du plafond nous guident à travers le bâtiment. Christopher Griffin a travaillé avec l’Ottawa Field-Naturalists' Club et le Musée canadien de la nature en vue de dresser une liste des e"/><tag k="artwork_type" v="sculpture"/></node><node lat="45.435623" lon="-75.646343"  id="-67"  changeset="false" ><tag k="tourism" v="artwork"/><tag k="name" v="Untitled, from the Community Series"/><tag k="name:fr" v="Untitled, from the Community Series"/><tag k="artist_name" v="Astman, Barbara"/><tag k="image" v="http://ottawaxyz.ottawa.ca/wp-content/uploads/2014/03/Public_Art_32_untitled-from-the-Community-series.jpg"/><tag k="start_date" v="1995"/><tag k="material" v="sand blasted glass"/><tag k="source" v="City of Ottawa"/><tag k="source:date" v="2018-07-20"/></node><node lat="45.319954" lon="-75.895681"  id="-68"  changeset="false" ><tag k="tourism" v="artwork"/><tag k="name" v="Earth of Kanata 45°18'N - 75°55'W"/><tag k="name:fr" v="Earth of Kanata 45°18'N - 75°55'W"/><tag k="artist_name" v="Feindel, Susan"/><tag k="image" v="http://ottawaxyz.ottawa.ca/wp-content/uploads/2014/03/Public_Art_33_Earth-of-Kanata.jpg"/><tag k="start_date" v="1997"/><tag k="material" v="porcelain tile mosaic"/><tag k="source" v="City of Ottawa"/><tag k="source:date" v="2018-07-20"/><tag k="description" v="2500 Campeau Drive, John G Mlacak Community Centre"/></node><node lat="45.34459" lon="-75.76448"  id="-69"  changeset="false" ><tag k="tourism" v="artwork"/><tag k="name" v="Applause"/><tag k="name:fr" v="Applause"/><tag k="artist_name" v="Pfaff, Mary"/><tag k="image" v="http://ottawaxyz.ottawa.ca/wp-content/uploads/2014/03/Public_Art_34_Applause.jpg"/><tag k="start_date" v="1998"/><tag k="material" v="acrylic on canvas"/><tag k="source" v="City of Ottawa"/><tag k="source:date" v="2018-07-20"/><tag k="description" v="101 Centrepointe Drive, Ben Franklin Place, 1st and 2nd, Centrepointe Theatre"/><tag k="inscription" v="Commissioned by the City of Nepean to commemorate Centrepointe Theatre’s10th anniversary."/><tag k="inscription:fr" v="Exécuté à la demande de la Ville de Nepean pour célébrer le 10e anniversaire du Théâtre Centrepointe."/></node><node lat="45.455995" lon="-75.524831"  id="-70"  changeset="false" ><tag k="tourism" v="artwork"/><tag k="name" v="Wonder is the Beginning of Wisdom"/><tag k="name:fr" v="Wonder is the Beginning of Wisdom"/><tag k="artist_name" v="desClouds, Tim"/><tag k="image" v="http://ottawaxyz.ottawa.ca/wp-content/uploads/2014/03/Public_Art_35_Wonder-is-the-Beginning-of-Wisdom.jpg"/><tag k="start_date" v="1995"/><tag k="material" v="painted steel and Galvalume pipe"/><tag k="source" v="City of Ottawa"/><tag k="source:date" v="2018-07-20"/><tag k="description" v="1705 Orleans Blvd, Ottawa Public Library, Orleans Branch"/><tag k="inscription" v="Wonder is the Beginning of Wisdom was created for the Gloucester Public Library and represents the human desire to seek knowledge. Born in Montreal, Tim DesClouds has a B.FA from York University and a B.ED from Queens University. Besides his busy career a"/><tag k="inscription:fr" v="L'oeuvre Wonder is the Beginning of Wisdom a été créée pour la Bibliothèque publique de Gloucester. Elle représente la volonté d'accéder à la connaissance. Né à Montréal, Tim DesClouds possède un baccalauréat en beaux-arts de l'Université York et un bacca"/></node><node lat="45.421781" lon="-75.691182"  id="-71"  changeset="false" ><tag k="tourism" v="artwork"/><tag k="name" v="Tree of Knowledge"/><tag k="name:fr" v="Tree of Knowledge"/><tag k="artist_name" v="Swan, Rosemary"/><tag k="image" v="http://ottawaxyz.ottawa.ca/wp-content/uploads/2014/03/Public_Art_36_Tree-of-Knowledge.jpg"/><tag k="start_date" v="1998"/><tag k="material" v="ceramic, raku fired"/><tag k="source" v="City of Ottawa"/><tag k="source:date" v="2018-07-20"/><tag k="description" v="2036 Oglivie Road, Ottawa Public Library, North Gloucester Branch"/></node><node lat="45.458408" lon="-75.497648"  id="-72"  changeset="false" ><tag k="tourism" v="artwork"/><tag k="name" v="Snow Birds-Face of our Community"/><tag k="name:fr" v="Snow Birds-Face of our Community"/><tag k="artist_name" v="Ciesluk, Karl"/><tag k="image" v="http://ottawaxyz.ottawa.ca/wp-content/uploads/2014/03/Public_Art_37_Snow-Birds-Face-of-our-Community.jpg"/><tag k="material" v="ceramic mosaic"/><tag k="source" v="City of Ottawa"/><tag k="source:date" v="2018-07-20"/><tag k="description" v="200 Glen Park Drive, Blackburn Community Centre"/></node><node lat="45.465652" lon="-75.546161"  id="-73"  changeset="false" ><tag k="tourism" v="artwork"/><tag k="name" v="Raising the Bar"/><tag k="name:fr" v="Raising the Bar"/><tag k="artist_name" v="Smith, Diane"/><tag k="image" v="http://ottawaxyz.ottawa.ca/wp-content/uploads/2014/03/Public_Art_38_Raising-the-Bar.jpg"/><tag k="start_date" v="2000"/><tag k="material" v="bronze"/><tag k="source" v="City of Ottawa"/><tag k="source:date" v="2018-07-20"/><tag k="description" v="1490 Youville Drive Bob MacQuarrie Recreation Complex - Orléans"/></node><node lat="45.448473" lon="-75.683201"  id="-74"  changeset="false" ><tag k="tourism" v="artwork"/><tag k="name" v="Terry Fox Memorial Sculpture"/><tag k="name:fr" v="Terry Fox Memorial Sculpture"/><tag k="artist_name" v="Hooper, John"/><tag k="image" v="http://ottawaxyz.ottawa.ca/wp-content/uploads/2014/03/Public_Art_39_Terry-Fox.jpg"/><tag k="start_date" v="1983"/><tag k="material" v="bronze"/><tag k="source" v="City of Ottawa"/><tag k="source:date" v="2018-07-20"/><tag k="description" v="90 Wellington and Metcalfe - Department of Heritage (NCC)"/><tag k="inscription" v="At 21, Terry Fox set out on his Marathon of Hope to raise money for cancer research. He ran for 143 days, through the Atlantic provinces, Quebec and Ontario, before the bone cancer that had taken part of his right leg returned and forced him to stop near"/><tag k="inscription:fr" v="À 21 ans, Terry Fox a entrepris son Marathon de l’espoir afin de recueillir des fonds pour la recherche contre le cancer. Il a couru pendant 143 jours, traversant les provinces de l’Atlantique, le Québec et l’Ontario, avant que le cancer des os qui l’av"/></node><node lat="45.42536" lon="-75.682985"  id="-75"  changeset="false" ><tag k="tourism" v="artwork"/><tag k="name" v="In Context"/><tag k="name:fr" v="In Context"/><tag k="artist_name" v="Nigro, Richard"/><tag k="image" v="http://ottawaxyz.ottawa.ca/wp-content/uploads/2014/03/Public_Art_4_In_Context.jpg"/><tag k="start_date" v="1986"/><tag k="material" v="wood"/><tag k="source" v="City of Ottawa"/><tag k="source:date" v="2018-07-20"/><tag k="description" v="530 King Edward Street, Fire Station 13"/></node><node lat="45.38881" lon="-75.76015"  id="-76"  changeset="false" ><tag k="tourism" v="artwork"/><tag k="name" v="Phoenix Rising"/><tag k="name:fr" v="Phoenix Rising"/><tag k="artist_name" v="Lutkenhaus-Lackey, Almuth"/><tag k="image" v="http://ottawaxyz.ottawa.ca/wp-content/uploads/2014/03/Public_Art_40_Phoenix-Rising.jpg"/><tag k="start_date" v="1990"/><tag k="material" v="bronze casting"/><tag k="source" v="City of Ottawa"/><tag k="source:date" v="2018-07-20"/><tag k="description" v="495 Richmond Road"/></node><node lat="45.379006" lon="-75.667727"  id="-77"  changeset="false" ><tag k="tourism" v="artwork"/><tag k="name" v="Quarry Pillar"/><tag k="name:fr" v="Quarry Pillar"/><tag k="artist_name" v="Feindel, Susan"/><tag k="image" v="http://ottawaxyz.ottawa.ca/wp-content/uploads/2014/03/Public_Art_41_Quarry-Pillar.jpg"/><tag k="start_date" v="1994"/><tag k="material" v="mosaic tile mural"/><tag k="source" v="City of Ottawa"/><tag k="source:date" v="2018-07-20"/><tag k="description" v="OC Transitway Greenboro"/><tag k="inscription" v="This artwork comprises 200-square-feet of unglazed, fully vitrified clay tiles in rich, earthy tones. Although the imagery is abstract, it conveys a strong sense of movement and liveliness as visible in the right side of the mural which contains a concen"/><tag k="inscription:fr" v="Cette œuvre de Susan Feindel est composée de carreaux couleur terre vitrifiés mais non vernissés, de 18,5 mètres carrés. Malgré le style abstrait, l’œuvre produit une forte impression de mouvement et d’animation, particulièrement perceptible dans la parti"/><tag k="artwork_type" v="mural"/></node><node lat="45.421848" lon="-75.690861"  id="-78"  changeset="false" ><tag k="tourism" v="artwork"/><tag k="name" v="The Living Room"/><tag k="name:fr" v="The Living Room"/><tag k="artist_name" v="URBAN KEIOS"/><tag k="image" v="http://ottawaxyz.ottawa.ca/wp-content/uploads/2014/03/Public_Art_42_The-Living-Room.jpg"/><tag k="start_date" v="1995"/><tag k="material" v="aluminium"/><tag k="source" v="City of Ottawa"/><tag k="source:date" v="2018-07-20"/><tag k="description" v="110 Laurier, City Hall commissions"/><tag k="inscription" v="Originally planned as a theatrical stage set with props, this invented room provides a place for personal thinking and public observation. As visitors walk around and through The Living Room, a relationship between the participant's body and each object a"/><tag k="inscription:fr" v="Conçu à l’origine comme un décor de théâtre avec des accessoires, ce salon imaginaire offre un espace pour la réflexion personnelle et l’observation. Une relation s’établit progressivement entre le corps des visiteurs qui déambulent dans le Salon et chacu"/></node><node lat="45.41243" lon="-75.685749"  id="-79"  changeset="false" ><tag k="tourism" v="artwork"/><tag k="name" v="Tiles of Time (Les carreaux du temps)"/><tag k="name:fr" v="Tiles of Time (Les carreaux du temps)"/><tag k="artist_name" v="Grey, Jerry"/><tag k="image" v="http://ottawaxyz.ottawa.ca/wp-content/uploads/2014/03/Public_Art_43_Mosaic-Mural.jpg"/><tag k="start_date" v="1983"/><tag k="material" v="glass tiles, gold leaf tiles, silver plated buttons"/><tag k="source" v="City of Ottawa"/><tag k="source:date" v="2018-07-20"/><tag k="description" v="474 Elgin Street, Police Station"/></node><node lat="45.421848" lon="-75.690861"  id="-80"  changeset="false" ><tag k="tourism" v="artwork"/><tag k="name" v="Rivers Reflecting Seasons"/><tag k="name:fr" v="Rivers Reflecting Seasons"/><tag k="artist_name" v="Sabiston, Carole"/><tag k="image" v="http://ottawaxyz.ottawa.ca/wp-content/uploads/2014/03/Public_Art_45_Rivers-Reflecting-Seasons.jpg"/><tag k="start_date" v="1990"/><tag k="material" v="multi synthetic fabric, machine bonded"/><tag k="source" v="City of Ottawa"/><tag k="source:date" v="2018-07-20"/><tag k="description" v="110 Laurier, Teachers College, Meeting Rooms"/><tag k="inscription" v="This tapestry, located in the Keefer Room of the Heritage Building, conveys an impression of the Ottawa, Rideau and Gatineau Rivers as portrayed on the Ottawa-Carlton regional flag and heraldic crest. The eleven panels, representing each of the previous"/><tag k="inscription:fr" v="Accrochée dans la salle Keefer de l'édifice historique, la tapisserie évoque les rivières Outaouais, Rideau et Gatineau telles qu'elles figurent sur le drapeau et les armoiries de la région d'Ottawa-Carleton. Ses onze pans représentant chacune des ancienn"/></node><node lat="45.421848" lon="-75.690861"  id="-81"  changeset="false" ><tag k="tourism" v="artwork"/><tag k="name" v="Nautilus"/><tag k="name:fr" v="Nautilus"/><tag k="artist_name" v="Murray, Paula"/><tag k="image" v="http://ottawaxyz.ottawa.ca/wp-content/uploads/2014/03/Public_Art_46_Nautilus.jpg"/><tag k="start_date" v="1990"/><tag k="material" v="anodized aluminum, translucent ceramic"/><tag k="source" v="City of Ottawa"/><tag k="source:date" v="2018-07-20"/><tag k="description" v="110 Laurier, City Hall commissions"/><tag k="inscription" v="Drawing inspiration from the Nautilus Shell, Paula Murray created Nautilus to celebrate the rhythmic energy paralleled in nature and society. The mathematically correct architecture of the symbolic spiral structure instills energy, strength, power, and u"/><tag k="inscription:fr" v="S'inspirant de la coquille en spirale du nautile, Paula Murray célèbre dans Nautilus le rythme simultané qui anime la nature et la société. La composition mathématiquement précise de la spirale symbolique déploie une énergie, une force et une unité remarq"/></node><node lat="45.421848" lon="-75.690861"  id="-82"  changeset="false" ><tag k="tourism" v="artwork"/><tag k="name" v="Family Portrait"/><tag k="name:fr" v="Family Portrait"/><tag k="artist_name" v="Brathwaite, Stephen"/><tag k="image" v="http://ottawaxyz.ottawa.ca/wp-content/uploads/2014/03/Public_Art_47_Family-Portrait.jpg"/><tag k="start_date" v="1992"/><tag k="material" v="glass and bronze casting"/><tag k="source" v="City of Ottawa"/><tag k="source:date" v="2018-07-20"/><tag k="description" v="110 Laurier, City Hall commissions"/><tag k="inscription" v="Stephen Brathwaite belongs to the social realism school of art. Though his work is representational, the underlying meanings and inspiration justify viewer contemplation. Creating a welcome feeling of intimacy in the arcade, Family Portrait celebrates t"/><tag k="inscription:fr" v="Stephen Brathwaite épouse le credo de l'école réaliste. Quoique figurative, son œuvre invite à la contemplation par ses sous-entendus et son inspiration. Introduisant une sensation bienvenue d'intimité dans la galerie, Family Portrait rend hommage aux per"/></node><node lat="45.421848" lon="-75.690861"  id="-83"  changeset="false" ><tag k="tourism" v="artwork"/><tag k="name" v="On Top of the world"/><tag k="name:fr" v="On Top of the world"/><tag k="artist_name" v="Thomson, Jim"/><tag k="image" v="http://ottawaxyz.ottawa.ca/wp-content/uploads/2014/03/Public_Art_48_On-Top-of-the-world.jpg"/><tag k="start_date" v="1990"/><tag k="material" v="stoneware and concrete"/><tag k="source" v="City of Ottawa"/><tag k="source:date" v="2018-07-20"/><tag k="description" v="110 Laurier, City Hall commissions"/><tag k="inscription" v="To add a spirit of optimism to the place where people pay their municipal taxes, artist Jim Thomson proposed this statue assembly to be placed in the entrance of the Client Service area of City Hall. The statue's reference various mythological traditions"/><tag k="inscription:fr" v="Pour ajouter une note d'optimisme à l'endroit où les gens paient leurs taxes municipales, l'artiste Jim Thomson a proposé que cette statue soit placée à l'entrée du Service à la clientèle à l'Hôtel de ville. Les sculptures font référence à diverses tradit"/></node><node lat="45.421848" lon="-75.690861"  id="-84"  changeset="false" ><tag k="tourism" v="artwork"/><tag k="name" v="The Lost Child"/><tag k="name:fr" v="The Lost Child"/><tag k="artist_name" v="Piqtoukun, David"/><tag k="image" v="http://ottawaxyz.ottawa.ca/wp-content/uploads/2014/03/Public_Art_49_The-Lost-Child.jpg"/><tag k="start_date" v="1990"/><tag k="material" v="Kingston hue sandstone"/><tag k="source" v="City of Ottawa"/><tag k="source:date" v="2018-07-20"/><tag k="description" v="110 Laurier, City Hall commissions"/><tag k="inscription" v="Centuries-old Inuit customs of guiding travelers inspired the artist to create this cairn, a directional marker. The assemblage of stones recalls the artist’s childhood experience of wandering amongst tall city buildings. The leading stone represents a se"/><tag k="inscription:fr" v="L’artiste s'est inspiré de la coutume séculaire inuite de guider les voyageurs pour créer ce cairn, qui sert de point de repère. L’assemblage de pierres rappelle l'expérience de l'artiste qui, enfant, s'était perdu parmi les gratte-ciel de la ville. La pi"/></node><node lat="45.360547" lon="-75.792376"  id="-85"  changeset="false" ><tag k="tourism" v="artwork"/><tag k="name" v="Time Flow"/><tag k="name:fr" v="Time Flow"/><tag k="artist_name" v="Garner, Bruce"/><tag k="image" v="http://ottawaxyz.ottawa.ca/wp-content/uploads/2014/03/Public_Art_5_Time_Flow.jpg"/><tag k="start_date" v="1987"/><tag k="material" v="bronze"/><tag k="source" v="City of Ottawa"/><tag k="source:date" v="2018-07-20"/><tag k="description" v="2730 Carling Avenue, Old Forge Community Centre"/></node><node lat="45.421848" lon="-75.690861"  id="-86"  changeset="false" ><tag k="tourism" v="artwork"/><tag k="name" v="Structure"/><tag k="name:fr" v="Structure"/><tag k="artist_name" v="Brathwaite, Stephen"/><tag k="image" v="http://ottawaxyz.ottawa.ca/wp-content/uploads/2014/03/Public_Art_50_Structure.jpg"/><tag k="start_date" v="1989"/><tag k="material" v="glass, granite and steel"/><tag k="source" v="City of Ottawa"/><tag k="source:date" v="2018-07-20"/><tag k="description" v="110 Laurier, City Hall commissions"/><tag k="inscription" v="For this particular piece, fragments of polished granite with cut and raw edges are being supported and united by a structure of steel. Located in Council Chambers as a backdrop to all City decisions, the work expresses the need for collaboration. A figu"/><tag k="inscription:fr" v="L'œuvre composée de fragments de granit poli aux rebords bruts soutenus et unis par une structure en aluminium est située dans la salle du conseil. Toile de fond des décisions prises par la Ville, elle exprime la nécessité de collaboration. Une figure mou"/></node><node lat="45.401471" lon="-75.667083"  id="-87"  changeset="false" ><tag k="tourism" v="artwork"/><tag k="name" v="Untitled"/><tag k="name:fr" v="Untitled"/><tag k="artist_name" v="McMaster, Gerald"/><tag k="image" v="http://ottawaxyz.ottawa.ca/wp-content/uploads/2014/03/Public_Art_51_untitled.jpg"/><tag k="start_date" v="1991"/><tag k="material" v="epoxy coating"/><tag k="source" v="City of Ottawa"/><tag k="source:date" v="2018-07-20"/><tag k="description" v="OC Transitway Riverside Station"/><tag k="inscription" v="Drawn from traditional symbols used in the artist's native Plains Cree culture, repeated images of humans, horses, handprints, dots and crosses suggest movement and freedom in modern urban transportation. The artwork is located at the embarkation area, c"/><tag k="inscription:fr" v="Les images répétées d’humains, de chevaux, d’empreintes de main, de points et de croix, issues des symboles traditionnels utilisés dans la culture des Cris des plaines, à laquelle l’artiste appartient, évoquent le mouvement et la liberté dans les transpor"/></node><node lat="45.421781" lon="-75.691182"  id="-88"  changeset="false" ><tag k="tourism" v="artwork"/><tag k="name" v="Accelerator/Decelerator"/><tag k="name:fr" v="Accelerator/Decelerator"/><tag k="artist_name" v="Sherman, Tom"/><tag k="image" v="http://ottawaxyz.ottawa.ca/wp-content/uploads/2014/03/Public_Art_52_Accelerator_Decelerator.jpg"/><tag k="start_date" v="1990"/><tag k="material" v="glazed concrete blocks"/><tag k="source" v="City of Ottawa"/><tag k="source:date" v="2018-07-20"/><tag k="description" v="OC Transitway Lycée Claudel Station"/><tag k="inscription" v="Using principles of perspective and motion, this work located in the pedestrian underpass area, is designed to present a visual directional context for passengers as they enter and exit the station."/><tag k="inscription:fr" v="Fondée sur les principes de la perspective et du mouvement, cette œuvre, située dans le secteur du passage inférieur pour piétons, est conçue pour présenter un contexte visuel directionnel pour les passagers qui entrent dans la station et ceux qui en sort"/></node><node lat="45.421848" lon="-75.690861"  id="-89"  changeset="false" ><tag k="tourism" v="artwork"/><tag k="name" v="Fable VII"/><tag k="name:fr" v="Fable VII"/><tag k="artist_name" v="Gould, Trevor"/><tag k="image" v="http://ottawaxyz.ottawa.ca/wp-content/uploads/2014/03/Public_Art_53_Fable-VII.jpg"/><tag k="start_date" v="1990"/><tag k="material" v="cast iron and bronze, sand blasted glass"/><tag k="source" v="City of Ottawa"/><tag k="source:date" v="2018-07-20"/><tag k="description" v="110 Laurier, City Hall commissions"/><tag k="inscription" v="Fable VII consists of 3-components; the interior inscription, a bronze element in the exterior pool, and the lion with an accompanying frame. The artist anticipates the viewer to gravitate towards the interior pool inside the main lobby and find the inscr"/><tag k="inscription:fr" v="Fable VII comprend trois volets : l'inscription à l'intérieur, un élément en bronze dans le bassin extérieur et le lion et son cadre. L'artiste s'attend à ce que le spectateur gravite vers le bassin intérieur dans l'entrée principale et y découvre l'inscr"/></node><node lat="45.263767" lon="-75.706993"  id="-90"  changeset="false" ><tag k="tourism" v="artwork"/><tag k="name" v="The Birdhouse Garden"/><tag k="name:fr" v="The Birdhouse Garden"/><tag k="artist_name" v="Rogers-Bell, Su"/><tag k="image" v="http://ottawaxyz.ottawa.ca/wp-content/uploads/2014/03/Public_Art_54_The-Birdhouse-Garden.jpg"/><tag k="start_date" v="1993"/><tag k="material" v="painted wood"/><tag k="source" v="City of Ottawa"/><tag k="source:date" v="2018-07-20"/><tag k="description" v="55 Lodge Road, Carleton Lodge"/><tag k="inscription" v="In memory of my father, Peter G. Rogers."/><tag k="inscription:fr" v="À la mémoire de mon père, Peter G. Rogers."/></node><node lat="45.432264" lon="-75.683647"  id="-91"  changeset="false" ><tag k="tourism" v="artwork"/><tag k="name" v="Suntent"/><tag k="name:fr" v="Suntent"/><tag k="artist_name" v="Marsters, Mark"/><tag k="image" v="http://ottawaxyz.ottawa.ca/wp-content/uploads/2014/03/Public_Art_55_Suntent.jpg"/><tag k="start_date" v="1993"/><tag k="material" v="enamel on aluminum"/><tag k="source" v="City of Ottawa"/><tag k="source:date" v="2018-07-20"/></node><node lat="45.475387" lon="-75.518349"  id="-92"  changeset="false" ><tag k="tourism" v="artwork"/><tag k="name" v="Carnavalesque"/><tag k="name:fr" v="Carnavalesque"/><tag k="artist_name" v="Geuer, Juan"/><tag k="image" v="http://ottawaxyz.ottawa.ca/wp-content/uploads/2014/03/Public_Art_56_Carnavalesque.jpg"/><tag k="start_date" v="1994"/><tag k="material" v="mixed media"/><tag k="source" v="City of Ottawa"/><tag k="source:date" v="2018-07-20"/><tag k="inscription" v="Mobile and static elements of tubing and mirrors are placed throughout the station. Each becomes a playful and alleviating aspect of the architectural structure, embracing and reflecting light and sky."/><tag k="inscription:fr" v="Des éléments mobiles et statiques composés de tubes et de miroirs sont placés aux quatre coins de la station. Chacun se veut un jeu sur l’aspect de la structure architecturale, et embrasse et reflète la lumière et le ciel."/></node><node lat="45.393434" lon="-75.605654"  id="-93"  changeset="false" ><tag k="tourism" v="artwork"/><tag k="name" v="A Brief History of Ottawa"/><tag k="name:fr" v="A Brief History of Ottawa"/><tag k="artist_name" v=","/><tag k="image" v="http://ottawaxyz.ottawa.ca/wp-content/uploads/2014/03/Public_Art_57_A-Brief-History-of-Ottawa.jpg"/><tag k="start_date" v="1992"/><tag k="material" v="sand blasted concrete"/><tag k="source" v="City of Ottawa"/><tag k="source:date" v="2018-07-20"/><tag k="description" v="OC Transitway Walkley Station"/><tag k="inscription" v="Located on the sloping planes underneath the bridge at Walkley Station, historic maps trace significant moments in local history. From early rivers, lakes and forests to the urbanization of the capital, even the expansion of the transit system is presente"/><tag k="inscription:fr" v="Situées sur les plans en pente qui se trouvent sous le pont à la station Walkley, les cartes historiques tracent les moments importants de l’histoire locale. L’époque où le territoire était couvert de rivières, de lacs et de forêts, la période d’urbanisat"/></node><node lat="45.376036" lon="-75.696922"  id="-94"  changeset="false" ><tag k="tourism" v="artwork"/><tag k="name" v="Linkages"/><tag k="name:fr" v="Linkages"/><tag k="artist_name" v="Durr, Pat"/><tag k="image" v="http://ottawaxyz.ottawa.ca/wp-content/uploads/2014/03/Public_Art_58_Linkages.jpg"/><tag k="start_date" v="1992"/><tag k="material" v="coloured concrete"/><tag k="source" v="City of Ottawa"/><tag k="source:date" v="2018-07-20"/><tag k="description" v="OC Transitway Heron Station"/><tag k="inscription" v="Linkages treats the site as a whole, dramatically uniting the landscape and the architecture with colour and image. Laser engraved drawings of plant and animal life unify interior surfaces with the environment while colours drawn from the landscape are e"/><tag k="inscription:fr" v="L’œuvre Linkages considère le site dans son ensemble, et unit de manière spectaculaire, grâce à ses couleurs et à ses images, le paysage et l’architecture. Les dessins de la faune et de la flore gravés au laser assemblent les surfaces intérieures et l’env"/></node><node lat="45.399086" lon="-75.745279"  id="-95"  changeset="false" ><tag k="tourism" v="artwork"/><tag k="name" v="Salut/Salute"/><tag k="name:fr" v="Salut/Salute"/><tag k="artist_name" v="Marsters, Mark"/><tag k="image" v="http://ottawaxyz.ottawa.ca/wp-content/uploads/2014/03/Public_Art_59_Salut_Salute.jpg"/><tag k="start_date" v="1995"/><tag k="material" v="vacuum formed ABS plastic"/><tag k="source" v="City of Ottawa"/><tag k="source:date" v="2018-07-20"/><tag k="description" v="OC Transitway Tunneys Pasture - Western Parkway Transitway Stations"/><tag k="inscription" v="Placed along the walls of the Transitway, these eight sculptures are meant to provide a humorous diversion by greeting and entertaining bus commuters. Each one expresses a different form of communication, including a waving hand, a hitchhiker's thumb, two"/><tag k="inscription:fr" v="Placées le long des murs du Transitway, ces huit sculptures visent à accueillir et divertir les usagers du transport en commun à leur arrivée en faisant une diversion humoristique. Chacune exprime un signe de communication différent, comme un salut de la"/><tag k="artwork_type" v="sculpture"/></node><node lat="45.359131" lon="-75.703085"  id="-96"  changeset="false" ><tag k="tourism" v="artwork"/><tag k="name" v="From Sea to Sea"/><tag k="name:fr" v="From Sea to Sea"/><tag k="artist_name" v="Schreier, Hilde"/><tag k="image" v="http://ottawaxyz.ottawa.ca/wp-content/uploads/2014/03/Public_Art_6_From_Sea_to_Sea.jpg"/><tag k="start_date" v="1987"/><tag k="material" v="wool, rope, and stone"/><tag k="source" v="City of Ottawa"/><tag k="source:date" v="2018-07-20"/><tag k="description" v="2 Daly Avenue, Ottawa Art Gallery"/></node><node lat="45.421848" lon="-75.690861"  id="-97"  changeset="false" ><tag k="tourism" v="artwork"/><tag k="name" v="V.I.P."/><tag k="name:fr" v="V.I.P."/><tag k="artist_name" v="Bussiere, Michael"/><tag k="image" v="http://ottawaxyz.ottawa.ca/wp-content/uploads/2014/03/Public_Art_60_V.I.P.-Virtual-Instrument-Paradigm.jpg"/><tag k="start_date" v="1996"/><tag k="material" v="concrete, computer, speaker, sound system, video camera"/><tag k="source" v="City of Ottawa"/><tag k="source:date" v="2018-07-20"/><tag k="description" v="110 Laurier, City Hall commissions"/><tag k="inscription" v="Made up of concrete towers housing speakers and electronic components, V.I.P. is one of the City of Ottawa's earliest computer-based artworks. V.I.P. may generate its own music or emit sound compositions activated by movement on the pathway. Developed by"/><tag k="inscription:fr" v="Constitué de tours de béton qui logent des haut-parleurs et des éléments électroniques, V.I.P. est l’une des premières œuvres d’art informatique de la Ville d’Ottawa. Activé par les mouvements qui se produisent sur le sentier, l’instrument génère sa propr"/></node><node lat="45.39372" lon="-75.639644"  id="-98"  changeset="false" ><tag k="tourism" v="artwork"/><tag k="name" v="Ploughed Field : Hillside, Circuit"/><tag k="name:fr" v="Ploughed Field : Hillside, Circuit"/><tag k="artist_name" v="Feindel, Susan"/><tag k="image" v="http://ottawaxyz.ottawa.ca/wp-content/uploads/2014/03/Public_Art_61_Ploughed-Field_Hillside_Circuit.jpg"/><tag k="start_date" v="1995"/><tag k="material" v="stained glass and porcelain tile mosaic on concrete wall"/><tag k="source" v="City of Ottawa"/><tag k="source:date" v="2018-07-20"/><tag k="description" v="OC Transitway Pleasant Park Station"/><tag k="inscription" v="The mural located at the western embankment incorporates the graphic energy of a contemporary landscape with the traditional art form of mosaic. This work considers earth's regenerative energies, and is designed to delight viewers when seen either at clo"/><tag k="inscription:fr" v="La murale, située au point d’embarquement ouest, rassemble l’énergie graphique d’un paysage contemporain et une mosaïque traditionnelle. Cette œuvre, qui évoque les énergies régénératrices de la terre, est conçue pour faire plaisir aux spectateurs, qu’ils"/><tag k="artwork_type" v="mural"/></node><node lat="45.379006" lon="-75.667727"  id="-99"  changeset="false" ><tag k="tourism" v="artwork"/><tag k="name" v="South Keys Code"/><tag k="name:fr" v="South Keys Code"/><tag k="artist_name" v="Standish, Ineke"/><tag k="image" v="http://ottawaxyz.ottawa.ca/wp-content/uploads/2014/03/Public_Art_62_South-Keys-Code.jpg"/><tag k="start_date" v="1996"/><tag k="material" v="embossed stainless steel mural plates"/><tag k="source" v="City of Ottawa"/><tag k="source:date" v="2018-07-20"/><tag k="description" v="OC Transitway South Keys Station"/><tag k="inscription" v="Located along the north and south walls of the South Keys underpass, Standish’s mural encourages transit users to touch the tiles and decode eleven Braille symbols. Green and blue evokes the essence of a lush watery landscape and open sky while stainless"/><tag k="inscription:fr" v="Située le long des murs nord et sud du passage inférieur South Keys, la murale de Standish encourage les usagers du transport en commun à toucher les tuiles pour décoder 11 symboles en braille. Le vert et le bleu évoquent le ciel et un paysage aquatique l"/><tag k="artwork_type" v="mural"/></node><node lat="45.379006" lon="-75.667727"  id="-100"  changeset="false" ><tag k="tourism" v="artwork"/><tag k="name" v="mem-o-mobilia"/><tag k="name:fr" v="mem-o-mobilia"/><tag k="artist_name" v="Marsters, Mark"/><tag k="image" v="http://ottawaxyz.ottawa.ca/wp-content/uploads/2014/03/Public_Art_63_mem-o-mobilia.jpg"/><tag k="start_date" v="1991"/><tag k="material" v="enamel on aluminum"/><tag k="source" v="City of Ottawa"/><tag k="source:date" v="2018-07-20"/><tag k="description" v="OC Transitway Billings Bridge Station"/><tag k="inscription" v="This series of images imitates a historical advertising campaign with the intention of both entertaining and informing the viewer. The images depict news items and commercial products of specific eras that greatly affected the development of the Billings"/><tag k="inscription:fr" v="Cette série d’images qui imite une campagne publicitaire ancienne a un but à la fois ludique et informatif. Elle figure des actualités et des nouveautés commerciales d’époques précises qui ont marqué le développement de la communauté de Billings Bridge. L"/></node><node lat="45.422627" lon="-75.686072"  id="-101"  changeset="false" ><tag k="tourism" v="artwork"/><tag k="name" v="... compass rose ..."/><tag k="name:fr" v="... compass rose ..."/><tag k="artist_name" v="Wonnacott, Justin"/><tag k="image" v="http://ottawaxyz.ottawa.ca/wp-content/uploads/2014/03/Public_Art_64_...-compass-rose-....jpg"/><tag k="start_date" v="2003"/><tag k="material" v="granite"/><tag k="source" v="City of Ottawa"/><tag k="source:date" v="2018-07-20"/><tag k="description" v="Waller Street Mall (between Rideau and George)"/><tag k="inscription" v="Justin Wonnacott was commissioned to create artwork for Waller Street. He chose shelter, its loss and replacement as a theme for his work. Compass Rose combines images of Ottawa from space, a sextant and the word “domicile”."/><tag k="inscription:fr" v="La Ville a demandé à Justin Wonnacott de créer des œuvres pour la rue Waller. Le thème qu’il a choisi est celui de « l’abri, sa perte et son remplacement ». Compass Rose combine des images d’Ottawa vues de l’espace au sextant et au mot « domicile »."/></node><node lat="45.408182" lon="-75.714647"  id="-102"  changeset="false" ><tag k="tourism" v="artwork"/><tag k="name" v="Skipping Stones"/><tag k="name:fr" v="Skipping Stones"/><tag k="artist_name" v="Lasserre, Maskull"/><tag k="image" v="http://ottawaxyz.ottawa.ca/wp-content/uploads/2014/03/Public_Art_65_Skipping-Stones.jpg"/><tag k="start_date" v="2003"/><tag k="material" v="bronze, copper, steel, patina, Plexiglas, paint"/><tag k="source" v="City of Ottawa"/><tag k="source:date" v="2018-07-20"/><tag k="description" v="930 Somerset Street W, Plant Recreation Centre"/><tag k="inscription" v="Skipping Stones reflects a peaceful underwater world with fourteen swimming animals - loons, fish and beaver. The activity of making a beaver lodge implies the feeling of home and shelter. The cast shadowy human forms represent the families, children and"/><tag k="inscription:fr" v="Skipping Stones reflète un monde sous-marin paisible grâce à quatorze silhouettes d’animaux nageurs – huards, poissons et castors. La construction d’une hutte de castor suggère le sentiment du chez-soi et de l’abri. Les silhouettes humaines floues représe"/></node><node lat="45.421781" lon="-75.691182"  id="-103"  changeset="false" ><tag k="tourism" v="artwork"/><tag k="name" v="The Second Storey"/><tag k="name:fr" v="The Second Storey"/><tag k="artist_name" v="Emig, Kenneth"/><tag k="image" v="http://ottawaxyz.ottawa.ca/wp-content/uploads/2014/03/Public_Art_66_The-Second-Storey.jpg"/><tag k="start_date" v="2004"/><tag k="material" v="wood, mirror, fluorescent light"/><tag k="source" v="City of Ottawa"/><tag k="source:date" v="2018-07-20"/><tag k="description" v="65 Stonehaven Drive, Eva James Memorial Community Centre"/><tag k="inscription" v="Kenneth Emig, a local visual and performance artist, created the three-framed light and mirror artworks located in the rotunda. The artwork generates the illusion of expanding the architectural space through multiple reflections. The artist hopes to stimu"/><tag k="inscription:fr" v="Kenneth Emig, artiste visuel et multiartiste local, a réalisé les trois oeuvres encadrées constituées de lampes et de miroirs qui sont situées dans la rotonde. Par le jeu des multiples reflets, l'ensemble donne l'impression d'élargir l'espace architectura"/></node><node lat="45.402073" lon="-75.690894"  id="-104"  changeset="false" ><tag k="tourism" v="artwork"/><tag k="name" v="Neighbourhood Perspectives"/><tag k="name:fr" v="Neighbourhood Perspectives"/><tag k="artist_name" v="Feraud, Pynn-Trudeau  Pal, Marie-Christine, Carolynne  Mary"/><tag k="image" v="http://ottawaxyz.ottawa.ca/wp-content/uploads/2014/03/Public_Art_67_Neighbourhood-Perspectives.jpg"/><tag k="start_date" v="2004"/><tag k="material" v="acrylic, ceramic, cotton, found objects, paper"/><tag k="source" v="City of Ottawa"/><tag k="source:date" v="2018-07-20"/><tag k="description" v="175 3rd Avenue, Glebe Community Centre"/><tag k="inscription" v="Glebe artists, Marie-Christine Féraud, Carolynne Pynn-Trudeau, and Mary Pal, share with local residents in the success of the Glebe Community Centre’s public art project. Children and adults from the Glebe created and donated elements for the three instal"/><tag k="inscription:fr" v="Les artistes du Glebe, Marie-Christine Féraud, Carolynne Pynn-Trudeau et Mary Pal, partagent, avec les habitants du quartier, le succès du projet d’art public du Centre communautaire du Glebe. Dans le cadre d’ateliers d’art animés par les artistes, les en"/></node><node lat="45.261106" lon="-75.709833"  id="-105"  changeset="false" ><tag k="tourism" v="artwork"/><tag k="name" v="Wanderer"/><tag k="name:fr" v="Wanderer"/><tag k="artist_name" v="Cronin, Lynda"/><tag k="image" v="http://ottawaxyz.ottawa.ca/wp-content/uploads/2014/03/Public_Art_68_Wanderer.jpg"/><tag k="start_date" v="2005"/><tag k="material" v="wood and glass"/><tag k="source" v="City of Ottawa"/><tag k="source:date" v="2018-07-20"/><tag k="inscription" v="Wanderer is composed of seven glass panels in the facility’s Multi-Faith Worship Centre. The piece celebrates the journey of bird migration, as each year billions of birds navigate from one geographic area to another. This pilgrimage is guided by an inter"/><tag k="inscription:fr" v="Wanderer est composé de sept panneaux de verre au centre de recueillement multiconfessionnel du foyer. L’œuvre célèbre la migration des oiseaux, alors que tous les ans, des milliards d’oiseaux se déplacent d’une région géographique à une autre. Ils sont g"/></node><node lat="45.261106" lon="-75.709833"  id="-106"  changeset="false" ><tag k="tourism" v="artwork"/><tag k="name" v="Histories: Whimisical Voyages"/><tag k="name:fr" v="Histories: Whimisical Voyages"/><tag k="artist_name" v="desClouds, Tim"/><tag k="image" v="http://ottawaxyz.ottawa.ca/wp-content/uploads/2014/03/Public_Art_69_Histories-Whimisical-Voyages.jpg"/><tag k="start_date" v="2005"/><tag k="material" v="wood construction, mixed media, found objects and photographs"/><tag k="source" v="City of Ottawa"/><tag k="source:date" v="2018-07-20"/><tag k="description" v="200 Island Lodge Road, Garry J. Armstrong Long Term Care Facility"/><tag k="inscription" v="For every residential floor, Tim desClouds has created a unique and whimsical flying vessel. As interpretations of magical quality of the human existence, these vessels enlighten us to our own daily journeys and to the environments we find along the way."/><tag k="inscription:fr" v="Pour chacun des étages de la résidence, Tim desClouds a créé un navire volant unique et imaginaire. Afin de recréer la magie de la vie, ces navires nous emmènent dans notre quotidien et nous divertissent le long du parcours. Pour agrémenter le foyer de so"/></node><node lat="45.347399" lon="-75.775039"  id="-107"  changeset="false" ><tag k="tourism" v="artwork"/><tag k="name" v="Lest We Forget The Wilderness"/><tag k="name:fr" v="Lest We Forget The Wilderness"/><tag k="artist_name" v="Firth, Christine"/><tag k="image" v="http://ottawaxyz.ottawa.ca/wp-content/uploads/2014/03/Public_Art_7_Lest-We-Forget-The-Wilderness.jpg"/><tag k="start_date" v="1988"/><tag k="material" v="fresco: oil and acrylic on paper"/><tag k="source" v="City of Ottawa"/><tag k="source:date" v="2018-07-20"/><tag k="description" v="2250 Torquay Avenue, Pinecrest Pool"/><tag k="inscription" v="The sky has always been the most vital and important element for artist Christine Firth, a former glider pilot and the first woman in Canada to glide over 100 kilometres. She celebrates the sky through paint and poetry."/><tag k="inscription:fr" v="Pour l’artiste Christine Firth, ancienne pilote de planeur et première Canadienne à effectuer un vol plané sur plus de 100 kilomètres, le ciel a toujours constitué un élément vital. C’est par la peinture et la poésie qu’elle célèbre le ciel."/></node><node lat="45.261106" lon="-75.709833"  id="-108"  changeset="false" ><tag k="tourism" v="artwork"/><tag k="name" v="Flock of Fancies"/><tag k="name:fr" v="Flock of Fancies"/><tag k="artist_name" v="fleury, c j"/><tag k="image" v="http://ottawaxyz.ottawa.ca/wp-content/uploads/2014/03/Public_Art_70_Flock-of-Fancies.jpg"/><tag k="start_date" v="2005"/><tag k="material" v="bronze"/><tag k="source" v="City of Ottawa"/><tag k="source:date" v="2018-07-20"/><tag k="description" v="200 Island Lodge Road, Garry J. Armstrong Long Term Care Facility"/><tag k="inscription" v="Each unique bird, installed on a balcony, mixes a full dose of humour into the pleasurable activity of bird watching. The simple joy of these 18 birds, “all dressed up” in familiar garments and accessories, is their ability to awaken the imaginations of r"/><tag k="inscription:fr" v="Chaque oiseau unique, installé à un balcon, ajoute une bonne dose d’humour à cette activité très plaisante qu’est l’observation des oiseaux. Ces 18 oiseaux, vêtus d’habits et d’accessoires de tous les jours, éveillent l’imagination des résidents, de leurs"/></node><node lat="45.261106" lon="-75.709833"  id="-109"  changeset="false" ><tag k="tourism" v="artwork"/><tag k="name" v="Migration, Central Experimental Farm, Ottawa"/><tag k="name:fr" v="Migration, Central Experimental Farm, Ottawa"/><tag k="artist_name" v="Wardrop, Dana"/><tag k="image" v="http://ottawaxyz.ottawa.ca/wp-content/uploads/2014/03/Public_Art_71_Migration_Central-Experimental-Farm_Ottawa.jpg"/><tag k="start_date" v="2005"/><tag k="material" v="acrylic, plaster, oil"/><tag k="source" v="City of Ottawa"/><tag k="source:date" v="2018-07-20"/><tag k="description" v="200 Island Lodge Road, Garry J. Armstrong Long Term Care Facility"/><tag k="inscription" v="Migration, Central Experimental Farm, Ottawa transcends culture, age and religion by depicting a beloved scene in the Ottawa region. The artist team, WardropLanglois, terms the experience of migrating birds taking off at the Central Experimental Farm as a"/><tag k="inscription:fr" v="Migration, Ferme expérimentale centrale, Ottawa, transcende la culture, l’âge et la religion en représentant nos scènes préférées de la région d’Ottawa. Les artistes, WardropLanglois (Dana Wardrop et Peter Langlois), décrivent l’expérience des oiseaux mig"/></node><node lat="45.363903" lon="-75.634656"  id="-110"  changeset="false" ><tag k="tourism" v="artwork"/><tag k="name" v="SHELF: 759 - 760"/><tag k="name:fr" v="SHELF: 759 - 760"/><tag k="artist_name" v="Göllner, Adrian"/><tag k="image" v="http://ottawaxyz.ottawa.ca/wp-content/uploads/2014/03/Public_Art_72_SHELF-759-760.jpg"/><tag k="start_date" v="2004"/><tag k="material" v="aluminium and stained glass"/><tag k="source" v="City of Ottawa"/><tag k="source:date" v="2018-07-20"/><tag k="description" v="363 Lorry Greenberg Drive, Ottawa Public Library, Greenboro Branch"/><tag k="inscription" v="Shelf: 759-760 was selected as the public art commission for the Greenboro Branch. Shelf: 759-760 is an abstraction of a bookshelf and consists of an aluminium and stained glass sculpture that will suspend in a central light well on the 2nd floor of the n"/><tag k="inscription:fr" v="L’étagère : 759-760 d’Adrian Göllner a été choisie comme œuvre d’art public commandée pour la succersale Greenboro. L’étagère : 759-760 est une sculpture composée d’aluminium et de verre teinté, qui sera suspendue dans un puits de lumière au centre du 2e"/><tag k="artwork_type" v="sculpture"/></node><node lat="45.378531" lon="-75.635555"  id="-111"  changeset="false" ><tag k="tourism" v="artwork"/><tag k="name" v="Alipes"/><tag k="name:fr" v="Alipes"/><tag k="artist_name" v="Halstead  Swinimer, Jean  Svetlana"/><tag k="image" v="http://ottawaxyz.ottawa.ca/wp-content/uploads/2014/03/Public_Art_73_Alipes.jpg"/><tag k="start_date" v="2006"/><tag k="material" v="concrete and steel"/><tag k="source" v="City of Ottawa"/><tag k="source:date" v="2018-07-20"/><tag k="description" v="2465 Don Reid Road, Paramedic Headquarters"/><tag k="inscription" v="In the spirit of the values and mission of Ottawa’s paramedics, artist team Jean Halstead and Svetlana Swinimer designed an abstract exterior sculpture with the emblematic symbols of wings, staff, and serpent for the new Ottawa Paramedic Service Headquart"/><tag k="inscription:fr" v="Dans l’esprit des valeurs et de la mission des paramédics d’Ottawa, les artistes Jean Halstead et Svetlana Swinimer ont conçu une sculpture abstraite extérieure, représentant l’emblème des ailes, du bâton et du serpent pour le nouveau quartier général du"/><tag k="artwork_type" v="sculpture"/></node><node lat="45.421781" lon="-75.691182"  id="-112"  changeset="false" ><tag k="tourism" v="artwork"/><tag k="name" v="Richmond Gateways"/><tag k="name:fr" v="Richmond Gateways"/><tag k="artist_name" v="Kucey-Jones, Marcus"/><tag k="image" v="http://ottawaxyz.ottawa.ca/wp-content/uploads/2014/03/Public_Art_74_Richmond-Gateways.jpg"/><tag k="start_date" v="2006"/><tag k="material" v="limestone"/><tag k="source" v="City of Ottawa"/><tag k="source:date" v="2018-07-20"/><tag k="description" v="Perth Street, Richmond"/><tag k="inscription" v="At the east and west entrances to the Village of Richmond stand welcoming gateways hand carved by local artist Marcus Kucey Jones. On each gateway, leaves of 18 tree species are carved in high relief into the limestone façade as tribute to the trees plant"/><tag k="inscription:fr" v="Les accueillantes arches, taillées à la main par l’artiste local Marcus Kucey Jones, s’élèvent aux entrées est et ouest du village de Richmond. Sur la façade en calcaire de chaque arche, des feuilles appartenant à 18 espèces d’arbres sont gravées en haut-"/></node><node lat="45.421781" lon="-75.691182"  id="-113"  changeset="false" ><tag k="tourism" v="artwork"/><tag k="name" v="Stilt Walkers"/><tag k="name:fr" v="Stilt Walkers"/><tag k="artist_name" v="Brathwaite, Stephen"/><tag k="image" v="http://ottawaxyz.ottawa.ca/wp-content/uploads/2014/03/Public_Art_75_Stilt-Walkers.jpg"/><tag k="start_date" v="2007"/><tag k="material" v="bronze"/><tag k="source" v="City of Ottawa"/><tag k="source:date" v="2018-07-20"/><tag k="description" v="5670 Carp Road, Kinburn Community Centre, Client Service Centre"/><tag k="inscription" v="In the spring of 2008, local artist Stephen Brathwaite installed two bronze stilt walkers adjacent to the pedestrian pathway between the Kinburn Client Service Centre and the Arena Complex in West Carleton. The teetering stilt walkers, which are partial c"/><tag k="inscription:fr" v="Au printemps 2008, Stephen Brathwaite, artiste de la région, installait deux marcheurs en échasses le long du sentier piétonnier reliant le centre du service à la clientèle Kinburn et le complexe de l’aréna de West Carleton. Ces marcheurs vacillants, fabr"/></node><node lat="45.265098" lon="-75.908555"  id="-114"  changeset="false" ><tag k="tourism" v="artwork"/><tag k="name" v="Interdependencies #2"/><tag k="name:fr" v="Interdependencies #2"/><tag k="artist_name" v="O'Brien, Cynthia"/><tag k="image" v="http://ottawaxyz.ottawa.ca/wp-content/uploads/2014/03/Public_Art_76_Interdependencies_2.jpg"/><tag k="start_date" v="2007"/><tag k="material" v="clay"/><tag k="source" v="City of Ottawa"/><tag k="source:date" v="2018-07-20"/><tag k="description" v="1500 Shea Road, Goulbourn Recreation Complex"/><tag k="inscription" v="The Goulbourn Recreation Complex is home to a beautiful work of art by local ceramic artist Cynthia O’Brien. The artwork consists of more than 2,000 individual clay leaves arranged in the shape of a tree reaching up from a planter and incorporates itself"/><tag k="inscription:fr" v="Le Complexe récréatif de Goulbourn abrite une superbe œuvre d’art de la céramiste d’art de la région, Cynthia O’Brien. L’œuvre d’art consiste en plus de 2 000 feuilles d’argile individuelles arrangées sous la forme d’un arbre qui s’élève d’une jardinière"/></node><node lat="45.480367" lon="-75.510982"  id="-115"  changeset="false" ><tag k="tourism" v="artwork"/><tag k="name" v="Stand"/><tag k="name:fr" v="Stand"/><tag k="artist_name" v="Göllner, Adrian"/><tag k="image" v="http://ottawaxyz.ottawa.ca/wp-content/uploads/2014/03/Public_Art_77_Stand.jpg"/><tag k="start_date" v="2009"/><tag k="material" v="glass"/><tag k="source" v="City of Ottawa"/><tag k="source:date" v="2018-07-20"/><tag k="description" v="245 Centrum Blvd, Shenkman Art Centre"/><tag k="inscription" v="Stand by Adrian Göllner adorns the front glazed façade of the new Shenkman Arts Centre and will use coloured glass and light to enhance the Centre’s sense of identity. As the new hub for cultural activities in Orléans, the building itself is an artistic s"/><tag k="inscription:fr" v="Stand d’Adrian Göllner orne la devanture vitrée du Centre des arts Shenkman. Le sentiment d’identité du Centre sera rehaussé par l’œuvre dont le verre coloré laisse passer la lumière. L’édifice, nouveau foyer culturel d’Orléans, constitue à lui seul une p"/></node><node lat="45.480367" lon="-75.510982"  id="-116"  changeset="false" ><tag k="tourism" v="artwork"/><tag k="name" v="Resonance"/><tag k="name:fr" v="Resonance"/><tag k="artist_name" v="Lasserre, Maskull"/><tag k="image" v="http://ottawaxyz.ottawa.ca/wp-content/uploads/2014/03/Public_Art_78_Resonance.jpg"/><tag k="start_date" v="2009"/><tag k="material" v="bronze, stainless steel, limestone and cement"/><tag k="source" v="City of Ottawa"/><tag k="source:date" v="2018-07-20"/><tag k="description" v="245 Centrum Blvd, Shenkman Art Centre"/><tag k="inscription" v="Lasserre’s sculpture, titled Resonance, consists of an upright piano made from hammered bronze and stainless steel accompanied by a partially-carved piano stool in a limestone boulder. Excavated during the construction of the Shenkman Arts Centre, the bou"/><tag k="inscription:fr" v="La sculpture de Lasserre, intitulé Resonance, représente un piano droit fait de bronze martelé et d’acier inoxydable et un banc de piano partiellement sculpté dans un bloc de calcaire. Ce rocher, mis au jour lors de la construction du Centre des Arts Shen"/><tag k="artwork_type" v="sculpture"/></node><node lat="45.450207" lon="-75.655325"  id="-117"  changeset="false" ><tag k="tourism" v="artwork"/><tag k="name" v="Midnight and Neighbourhood"/><tag k="name:fr" v="Midnight and Neighbourhood"/><tag k="artist_name" v="Moorhead, Janice"/><tag k="image" v="http://ottawaxyz.ottawa.ca/wp-content/uploads/2014/03/Public_Art_8_Midnight-and-Neighbourhood.jpg"/><tag k="start_date" v="1988"/><tag k="material" v="stained glass"/><tag k="source" v="City of Ottawa"/><tag k="source:date" v="2018-07-20"/><tag k="description" v="100 Braemar Street, Manor Park Fieldhouse"/><tag k="inscription" v="Part of the expansion and upgrade of the Manor Park Field House in the mid-eighties included the installation of coloured glass collages in the north and south windows by local artist Janice Moorhead. The images in each window are composed of four differe"/><tag k="inscription:fr" v="Les travaux d’agrandissement et d’améliorations du Pavillon Manor Park effectués au milieu des années quatre-vingt comprenaient l’installation de collages de verre teinté de l’artiste locale Janice Moorhead dans les fenêtres nord et sud. Les images de cha"/></node><node lat="45.403638" lon="-75.724719"  id="-118"  changeset="false" ><tag k="tourism" v="artwork"/><tag k="name" v="West Ottawa Streetscape"/><tag k="name:fr" v="West Ottawa Streetscape"/><tag k="artist_name" v="Gill, Richard"/><tag k="image" v="http://ottawaxyz.ottawa.ca/wp-content/uploads/2014/03/Public_Art_9_West-Ottawa-Streetscape.jpg"/><tag k="start_date" v="1989"/><tag k="material" v="ceramic"/><tag k="source" v="City of Ottawa"/><tag k="source:date" v="2018-07-20"/><tag k="description" v="1064 Wellington Street, Hintonburg Community Centre"/></node><node lat="45.43963" lon="-75.693755"  id="-119"  changeset="false" ><tag k="tourism" v="artwork"/><tag k="name" v="Portes Rideau"/><tag k="name:fr" v="Portes Rideau"/><tag k="artist_name" v="Berlanga, Miguel"/><tag k="image" v="http://ottawaxyz.ottawa.ca/wp-content/uploads/2014/03/1994-0002a-4.jpg"/><tag k="start_date" v="1993"/><tag k="material" v="glass, slate and brass"/><tag k="source" v="City of Ottawa"/><tag k="source:date" v="2018-07-20"/><tag k="description" v="111 Sussex Drive"/></node><node lat="45.43963" lon="-75.693755"  id="-120"  changeset="false" ><tag k="tourism" v="artwork"/><tag k="name" v="Call for Expressions-Many Voices/Miltunkasik"/><tag k="name:fr" v="Call for Expressions-Many Voices/Miltunkasik"/><tag k="artist_name" v="Newdigate, Ann"/><tag k="image" v="http://ottawaxyz.ottawa.ca/wp-content/uploads/2014/03/1994-0001-007a.jpg"/><tag k="start_date" v="1993"/><tag k="material" v="tapestry and canvas"/><tag k="source" v="City of Ottawa"/><tag k="source:date" v="2018-07-20"/><tag k="description" v="111 Sussex Drive"/></node><node lat="45.339986" lon="-75.927333"  id="-121"  changeset="false" ><tag k="tourism" v="artwork"/><tag k="name" v="Tempus"/><tag k="name:fr" v="Tempus"/><tag k="artist_name" v="Cronin, Lynda"/><tag k="image" v="http://ottawaxyz.ottawa.ca/wp-content/uploads/2014/03/2017-0069a.jpg"/><tag k="start_date" v="2016"/><tag k="material" v="powder-coated aluminum"/><tag k="source" v="City of Ottawa"/><tag k="source:date" v="2018-07-20"/><tag k="description" v="1321-3043 Innovation Drive, Innovation Park and Ride"/></node><node lat="45.384073" lon="-75.741218"  id="-122"  changeset="false" ><tag k="tourism" v="artwork"/><tag k="name" v="Firefighters in Action (Series)"/><tag k="name:fr" v="Firefighters in Action (Series)"/><tag k="artist_name" v="McVeigh, Don"/><tag k="image" v="http://ottawaxyz.ottawa.ca/wp-content/uploads/2014/03/1989-0020.jpg"/><tag k="start_date" v="1988"/><tag k="material" v="oil on canvas"/><tag k="source" v="City of Ottawa"/><tag k="source:date" v="2018-07-20"/><tag k="description" v="1445 Carling Avenue, Fire Station Administration offices"/></node><node lat="45.433652" lon="-75.695625"  id="-123"  changeset="false" ><tag k="tourism" v="artwork"/><tag k="name" v="Our Fence"/><tag k="name:fr" v="Notre clôture"/><tag k="artist_name" v="Cunnane, Cairn"/><tag k="image" v="http://ottawaxyz.ottawa.ca/wp-content/uploads/2014/03/2016-0004a.jpg"/><tag k="start_date" v="2014"/><tag k="material" v="powder-coated, stainless steel"/><tag k="source" v="City of Ottawa"/><tag k="source:date" v="2018-07-20"/><tag k="description" v="Bingham Park, 145 Cathcart Street"/></node><node lat="45.415331" lon="-75.686551"  id="-124"  changeset="false" ><tag k="tourism" v="artwork"/><tag k="name" v="The Listening Tree"/><tag k="name:fr" v="L'arbre écoute"/><tag k="artist_name" v="Mixed Metaphors Design"/><tag k="image" v="http://ottawaxyz.ottawa.ca/wp-content/uploads/2014/03/2016-0033.jpg"/><tag k="start_date" v="2015"/><tag k="material" v="stainless steel"/><tag k="source" v="City of Ottawa"/><tag k="source:date" v="2018-07-20"/><tag k="description" v="166 Frank Street, St. Luke’s Park"/></node><node lat="45.432048" lon="-75.691648"  id="-125"  changeset="false" ><tag k="tourism" v="artwork"/><tag k="name" v="study for Hazeldean banners"/><tag k="name:fr" v="study for Hazeldean banners"/><tag k="image" v="http://ottawaxyz.ottawa.ca/wp-content/uploads/2014/03/2010-0008.jpg"/><tag k="start_date" v="2010"/><tag k="material" v="aluminium"/><tag k="source" v="City of Ottawa"/><tag k="source:date" v="2018-07-20"/><tag k="description" v="172 Guigues Avenue, 3rd Floor (Storage Room A  B)"/></node><node lat="45.432048" lon="-75.691648"  id="-126"  changeset="false" ><tag k="tourism" v="artwork"/><tag k="name" v="Tell Me A Story..."/><tag k="name:fr" v="Tell Me A Story..."/><tag k="artist_name" v="Nigro, Richard"/><tag k="image" v="http://ottawaxyz.ottawa.ca/wp-content/uploads/2014/03/1991-0007.01.jpg"/><tag k="start_date" v="1991"/><tag k="material" v="photo etching on zinc plates, concrete base"/><tag k="source" v="City of Ottawa"/><tag k="source:date" v="2018-07-20"/><tag k="description" v="172 Guigues Avenue, 3rd Floor (Storage Room A  B)"/></node><node lat="45.432048" lon="-75.691648"  id="-127"  changeset="false" ><tag k="tourism" v="artwork"/><tag k="name" v="Bywash 1832"/><tag k="name:fr" v="Bywash 1832"/><tag k="artist_name" v="CAAP Collective"/><tag k="image" v="http://ottawaxyz.ottawa.ca/wp-content/uploads/2014/03/T1999-0024a.jpg"/><tag k="start_date" v="1998"/><tag k="material" v="steel, cast glass, photography"/><tag k="source" v="City of Ottawa"/><tag k="source:date" v="2018-07-20"/><tag k="description" v="172 Guigues Avenue, Main Floor"/></node><node lat="45.406972" lon="-75.67608"  id="-128"  changeset="false" ><tag k="tourism" v="artwork"/><tag k="name" v="Main2"/><tag k="name:fr" v="Main2"/><tag k="artist_name" v="Kinmond, Stuart"/><tag k="image" v="http://ottawaxyz.ottawa.ca/wp-content/uploads/2014/03/2017-0068a.jpg"/><tag k="start_date" v="2016"/><tag k="material" v="ceramic frit on glass, aluminum, steel, and concrete"/><tag k="source" v="City of Ottawa"/><tag k="source:date" v="2018-07-20"/><tag k="description" v="223 Main Street, St. Paul’s University"/></node><node lat="45.45435" lon="-75.463712"  id="-129"  changeset="false" ><tag k="tourism" v="artwork"/><tag k="name" v="Almanac"/><tag k="name:fr" v="Almanach"/><tag k="artist_name" v="Thompson, Amy"/><tag k="image" v="http://ottawaxyz.ottawa.ca/wp-content/uploads/2014/03/2017-0065.01.jpg"/><tag k="start_date" v="2016"/><tag k="material" v="powder-coated aluminum and stainless steel"/><tag k="source" v="City of Ottawa"/><tag k="source:date" v="2018-07-20"/><tag k="description" v="2263 Portobello Boulevard, François Dupuis Pool"/></node><node lat="45.378451" lon="-75.610229"  id="-130"  changeset="false" ><tag k="tourism" v="artwork"/><tag k="name" v="Kinetic Clock"/><tag k="name:fr" v="Kinetic Clock"/><tag k="artist_name" v="Stonyer, Andrew"/><tag k="image" v="http://ottawaxyz.ottawa.ca/wp-content/uploads/2014/03/1989-0022.jpg"/><tag k="start_date" v="1989"/><tag k="material" v="steel and paint"/><tag k="source" v="City of Ottawa"/><tag k="source:date" v="2018-07-20"/><tag k="description" v="2280 Stevenage Drive, Heritage Grade Restoration"/></node><node lat="45.360051" lon="-75.793279"  id="-131"  changeset="false" ><tag k="tourism" v="artwork"/><tag k="name" v="The Olde Forge"/><tag k="name:fr" v="The Olde Forge"/><tag k="artist_name" v="Robertson, Jeannine"/><tag k="image" v="http://ottawaxyz.ottawa.ca/wp-content/uploads/2014/03/1987-0095a.jpg"/><tag k="start_date" v="1987"/><tag k="material" v="silkscreen, oil pastel on paper"/><tag k="source" v="City of Ottawa"/><tag k="source:date" v="2018-07-20"/><tag k="description" v="2730 Carling Avenue, Old Forge Community Centre"/></node><node lat="45.42192" lon="-75.654656"  id="-132"  changeset="false" ><tag k="tourism" v="artwork"/><tag k="name" v="13 Fire Axes"/><tag k="name:fr" v="13 Fire Axes"/><tag k="artist_name" v="McVeigh, Don"/><tag k="image" v="http://ottawaxyz.ottawa.ca/wp-content/uploads/2014/03/1986-0084.jpg"/><tag k="start_date" v="1986"/><tag k="material" v="terrazzo, granite, and zinc"/><tag k="source" v="City of Ottawa"/><tag k="source:date" v="2018-07-20"/><tag k="description" v="275 Coventry Road, Fire Station 56"/></node><node lat="45.379621" lon="-75.616101"  id="-133"  changeset="false" ><tag k="tourism" v="artwork"/><tag k="name" v="Stands of Time"/><tag k="name:fr" v="Stands of Time"/><tag k="artist_name" v="Kerr, Randy"/><tag k="image" v="http://ottawaxyz.ottawa.ca/wp-content/uploads/2014/03/1995-0001.jpg"/><tag k="start_date" v="1994"/><tag k="material" v="mixed media"/><tag k="source" v="City of Ottawa"/><tag k="source:date" v="2018-07-20"/><tag k="description" v="2799 Swansea Crescent, Municipal Workshops Front Lobby"/></node><node lat="45.379621" lon="-75.616101"  id="-134"  changeset="false" ><tag k="tourism" v="artwork"/><tag k="name" v="Repertoire of Reality"/><tag k="name:fr" v="Repertoire of Reality"/><tag k="artist_name" v="Cronin, Lynda"/><tag k="image" v="http://ottawaxyz.ottawa.ca/wp-content/uploads/2014/03/1995-0002.jpg"/><tag k="start_date" v="1995"/><tag k="material" v="cibachrome and steel"/><tag k="source" v="City of Ottawa"/><tag k="source:date" v="2018-07-20"/><tag k="description" v="2799 Swansea Crescent, Municipal Workshops Front Lobby"/></node><node lat="45.379621" lon="-75.616101"  id="-135"  changeset="false" ><tag k="tourism" v="artwork"/><tag k="name" v="Untitled"/><tag k="name:fr" v="Untitled"/><tag k="artist_name" v="Gilbert, Lorraine"/><tag k="image" v="http://ottawaxyz.ottawa.ca/wp-content/uploads/2014/03/1995-0003.01.jpg"/><tag k="start_date" v="1994"/><tag k="material" v="Ektachrome colour prints"/><tag k="source" v="City of Ottawa"/><tag k="source:date" v="2018-07-20"/><tag k="description" v="2799 Swansea Crescent, Municipal Workshops Front Lobby"/></node><node lat="45.379621" lon="-75.616101"  id="-136"  changeset="false" ><tag k="tourism" v="artwork"/><tag k="name" v="Maintaining"/><tag k="name:fr" v="Maintaining"/><tag k="artist_name" v="Feindel, Susan"/><tag k="image" v="http://ottawaxyz.ottawa.ca/wp-content/uploads/2014/03/1995-0004.jpg"/><tag k="start_date" v="1995"/><tag k="material" v="frescoe Bueno on galvanized steel lathing, plywood and steel support system, steel angle frame, acrylic medium"/><tag k="source" v="City of Ottawa"/><tag k="source:date" v="2018-07-20"/><tag k="description" v="2799 Swansea Crescent, Municipal Workshops Front Lobby"/></node><node lat="45.379621" lon="-75.616101"  id="-137"  changeset="false" ><tag k="tourism" v="artwork"/><tag k="name" v="History of the Municipal Workshops Past"/><tag k="name:fr" v="History of the Municipal Workshops Past"/><tag k="artist_name" v="fleury, c j"/><tag k="image" v="http://ottawaxyz.ottawa.ca/wp-content/uploads/2014/03/1995-0005.jpg"/><tag k="start_date" v="1994"/><tag k="material" v="limestone, sand, steel, wood, tripod, aluminum lunch box"/><tag k="source" v="City of Ottawa"/><tag k="source:date" v="2018-07-20"/><tag k="description" v="2799 Swansea Crescent, Municipal Workshops Front Lobby"/></node><node lat="45.379621" lon="-75.616101"  id="-138"  changeset="false" ><tag k="tourism" v="artwork"/><tag k="name" v="Retirement Suite"/><tag k="name:fr" v="Retirement Suite"/><tag k="artist_name" v="fleury, c j"/><tag k="image" v="http://ottawaxyz.ottawa.ca/wp-content/uploads/2014/03/1995-0006.jpg"/><tag k="start_date" v="1994"/><tag k="material" v="wood, steel, acrylic, plaster"/><tag k="source" v="City of Ottawa"/><tag k="source:date" v="2018-07-20"/><tag k="description" v="2799 Swansea Crescent, Municipal Workshops Front Lobby"/></node><node lat="45.391378" lon="-75.756293"  id="-139"  changeset="false" ><tag k="tourism" v="artwork"/><tag k="name" v="Winston Chandelier"/><tag k="name:fr" v="chandelier Winston"/><tag k="image" v="http://ottawaxyz.ottawa.ca/wp-content/uploads/2014/03/2017-0067a.jpg"/><tag k="start_date" v="2015"/><tag k="material" v="powder-coated aluminum"/><tag k="source" v="City of Ottawa"/><tag k="source:date" v="2018-07-20"/><tag k="description" v="399 Winston Avenue, Winston Plaza"/></node><node lat="45.516177" lon="-75.405868"  id="-140"  changeset="false" ><tag k="tourism" v="artwork"/><tag k="name" v="study for Sphere Field"/><tag k="name:fr" v="étude pour Sphere Field"/><tag k="artist_name" v="Emig, Kenneth"/><tag k="image" v="http://ottawaxyz.ottawa.ca/wp-content/uploads/2014/03/2016-0006.jpg"/><tag k="start_date" v="2015"/><tag k="material" v="mixed media"/><tag k="source" v="City of Ottawa"/><tag k="source:date" v="2018-07-20"/><tag k="description" v="Ken Emig’s studio, 532 Dunning Lane"/></node><node lat="45.34442" lon="-75.738052"  id="-141"  changeset="false" ><tag k="tourism" v="artwork"/><tag k="name" v="Ebb + Flow"/><tag k="name:fr" v="Flux + Reflux"/><tag k="artist_name" v="Kemp, Dave"/><tag k="image" v="http://ottawaxyz.ottawa.ca/wp-content/uploads/2014/03/DSC1060.jpg"/><tag k="start_date" v="2016"/><tag k="material" v="steel"/><tag k="source" v="City of Ottawa"/><tag k="source:date" v="2018-07-20"/><tag k="description" v="56 Fieldrow Street, Crestview Pool"/></node><node lat="45.265274" lon="-75.551898"  id="-142"  changeset="false" ><tag k="tourism" v="artwork"/><tag k="name" v="A CELEBRATION OF COMMUNITY"/><tag k="name:fr" v="UNE CÉLÉBRATION DE LA COMMUNAUTÉ"/><tag k="artist_name" v="desClouds, Tim"/><tag k="image" v="http://ottawaxyz.ottawa.ca/wp-content/uploads/2014/03/2016-0034.01.jpg"/><tag k="start_date" v="2015"/><tag k="material" v="powder-coated steel and stainless steel"/><tag k="source" v="City of Ottawa"/><tag k="source:date" v="2018-07-20"/><tag k="description" v="Greely Village Park 7292 Parkway Road"/></node><node lat="45.400236" lon="-75.68235"  id="-143"  changeset="false" ><tag k="tourism" v="artwork"/><tag k="name" v="Cows Fly Home on Sunday"/><tag k="name:fr" v="Cows Fly Home on Sunday"/><tag k="artist_name" v="desClouds, Tim"/><tag k="image" v="http://ottawaxyz.ottawa.ca/wp-content/uploads/2014/03/2001-0322a.jpg"/><tag k="start_date" v="1994"/><tag k="material" v="steel, copper, aluminum"/><tag k="source" v="City of Ottawa"/><tag k="source:date" v="2018-07-20"/><tag k="description" v="955 Bank Street, Lansdowne Park Complex: Aberdeen Pavilion"/></node><node lat="45.426399" lon="-75.670037"  id="-144"  changeset="false" ><tag k="tourism" v="artwork"/><tag k="name" v="A View from Two Sides"/><tag k="name:fr" v="Une vue de deux côtés"/><tag k="artist_name" v="Emig, Kenneth"/><tag k="image" v="http://ottawaxyz.ottawa.ca/wp-content/uploads/2014/03/2016-0003a.jpg"/><tag k="start_date" v="2014"/><tag k="material" v="stainless steel"/><tag k="source" v="City of Ottawa"/><tag k="source:date" v="2018-07-20"/><tag k="description" v="Adawe Crossing (Donald/Somerset at Rideau River)"/></node><node lat="45.390901" lon="-75.630215"  id="-145"  changeset="false" ><tag k="tourism" v="artwork"/><tag k="name" v="Along the boards"/><tag k="name:fr" v="Le long de la bande"/><tag k="artist_name" v="Griffin, Christopher"/><tag k="image" v="http://ottawaxyz.ottawa.ca/wp-content/uploads/2014/03/2018-0001.01.jpg"/><tag k="start_date" v="2017"/><tag k="material" v="stainless steel"/><tag k="source" v="City of Ottawa"/><tag k="source:date" v="2018-07-20"/><tag k="description" v="Jim Tubman Chevrolet SENS Rink"/></node></osm>