<?xml version="1.0" encoding="UTF-8"?><osm version="0.6" generator="https://github.com/Rub21/geojson2osm"><node lat="45.271158" lon="-75.769526"  id="-1"  changeset="false" ><tag k="amenity" v="school"/><tag k="name" v="Saint Elizabeth Ann Seton School"/><tag k="name:en" v="Saint Elizabeth Ann Seton School"/><tag k="name:fr" v="École Saint Elizabeth Ann Seton"/><tag k="phone" v="+1-613-825-3596"/><tag k="fax" v="+1-613-825-3903"/><tag k="isced:level" v="1"/><tag k="addr:street" v="Weybridge Drive"/><tag k="addr:housenumber" v="41"/><tag k="addr:postcode" v="K2J 2Z8"/><tag k="operator" v="Ottawa Catholic School Board"/></node><node lat="45.268505" lon="-75.767344"  id="-2"  changeset="false" ><tag k="amenity" v="school"/><tag k="name" v="Mary Honeywell Elementary School"/><tag k="name:en" v="Mary Honeywell Elementary School"/><tag k="name:fr" v="École élémentaire Mary Honeywell"/><tag k="phone" v="+1-613-825-4834"/><tag k="fax" v="+1-613-825-5058"/><tag k="isced:level" v="1"/><tag k="addr:street" v="Kennevale Drive"/><tag k="addr:housenumber" v="54"/><tag k="addr:postcode" v="K2J 3B2"/><tag k="operator" v="Ottawa-Carleton District School Board"/></node><node lat="45.283537" lon="-75.760833"  id="-3"  changeset="false" ><tag k="amenity" v="school"/><tag k="name" v="Saint Patrick School"/><tag k="name:en" v="Saint Patrick School"/><tag k="name:fr" v="École Saint Patrick"/><tag k="phone" v="+1-613-825-4012"/><tag k="fax" v="+1-613-825-1552"/><tag k="isced:level" v="1"/><tag k="addr:street" v="Larkin Drive"/><tag k="addr:housenumber" v="68"/><tag k="addr:postcode" v="K2J 1A9"/><tag k="operator" v="Ottawa Catholic School Board"/></node><node lat="45.281102" lon="-75.764032"  id="-4"  changeset="false" ><tag k="amenity" v="school"/><tag k="name" v="Barrhaven Public School"/><tag k="name:en" v="Barrhaven Public School"/><tag k="name:fr" v="École publique Barrhaven"/><tag k="phone" v="+1-613-825-2691"/><tag k="fax" v="+1-613-825-9307"/><tag k="isced:level" v="1"/><tag k="addr:street" v="Larkin  Drive"/><tag k="addr:housenumber" v="80"/><tag k="addr:postcode" v="K2J 1B7"/><tag k="operator" v="Ottawa-Carleton District School Board"/></node><node lat="45.279422" lon="-75.760068"  id="-5"  changeset="false" ><tag k="amenity" v="school"/><tag k="name" v="Jockvale Elementary School"/><tag k="name:en" v="Jockvale Elementary School"/><tag k="name:fr" v="École élémentaire Jockvale"/><tag k="phone" v="+1-613-825-1224"/><tag k="fax" v="+1-613-825-1219"/><tag k="isced:level" v="1"/><tag k="addr:street" v="Malvern Drive"/><tag k="addr:housenumber" v="101"/><tag k="addr:postcode" v="K2J 2S8"/><tag k="operator" v="Ottawa-Carleton District School Board"/></node><node lat="45.350685" lon="-75.806857"  id="-6"  changeset="false" ><tag k="amenity" v="school"/><tag k="name" v="Saint Rose of Lima School"/><tag k="name:en" v="Saint Rose of Lima School"/><tag k="name:fr" v="École Saint Rose of Lima"/><tag k="phone" v="+1-613-828-5158"/><tag k="fax" v="+1-613-828-0032"/><tag k="isced:level" v="1"/><tag k="addr:street" v="Bayshore Drive"/><tag k="addr:housenumber" v="50"/><tag k="addr:postcode" v="K2B 6M8"/><tag k="operator" v="Ottawa Catholic School Board"/></node><node lat="45.401618" lon="-75.697032"  id="-7"  changeset="false" ><tag k="amenity" v="school"/><tag k="name" v="Glebe Collegiate Institute"/><tag k="name:en" v="Glebe Collegiate Institute"/><tag k="name:fr" v="École secondaire supérieure Glebe"/><tag k="phone" v="+1-613-239-2424"/><tag k="fax" v="+1-613-239-2655"/><tag k="isced:level" v="2;3"/><tag k="addr:street" v="Glebe Avenue"/><tag k="addr:housenumber" v="212"/><tag k="addr:postcode" v="K1S 2C9"/><tag k="operator" v="Ottawa-Carleton District School Board"/></node><node lat="45.376132" lon="-75.659139"  id="-8"  changeset="false" ><tag k="amenity" v="school"/><tag k="name" v="Ridgemont High School"/><tag k="name:en" v="Ridgemont High School"/><tag k="name:fr" v="École secondaire Ridgemont"/><tag k="phone" v="+1-613-733-4860"/><tag k="fax" v="+1-613-521-9637"/><tag k="isced:level" v="3"/><tag k="addr:street" v="Alta Vista Drive"/><tag k="addr:housenumber" v="2597"/><tag k="addr:postcode" v="K1V 7T3"/><tag k="operator" v="Ottawa-Carleton District School Board"/></node><node lat="45.400425" lon="-75.641742"  id="-9"  changeset="false" ><tag k="amenity" v="school"/><tag k="name" v="Franco-Cité Catholic Secondary School"/><tag k="name:en" v="Franco-Cité Catholic Secondary School"/><tag k="name:fr" v="École secondaire catholique Franco-Cité"/><tag k="phone" v="+1-613-521-4999"/><tag k="fax" v="+1-613-521-8499"/><tag k="isced:level" v="2;3"/><tag k="addr:street" v="Smyth Road"/><tag k="addr:housenumber" v="623"/><tag k="addr:postcode" v="K1G 1N7"/><tag k="operator" v="Conseil des écoles catholiques du Centre-Est"/></node><node lat="45.442739" lon="-75.630311"  id="-10"  changeset="false" ><tag k="amenity" v="school"/><tag k="name" v="Samuel-Genest Cathollic Middle School"/><tag k="name:en" v="Samuel-Genest Cathollic Middle School"/><tag k="name:fr" v="Collège catholique Samuel-Genest"/><tag k="phone" v="+1-613-744-8344"/><tag k="fax" v="+1-613-744-2727"/><tag k="isced:level" v="2;3"/><tag k="addr:street" v="Carson Road"/><tag k="addr:housenumber" v="704"/><tag k="addr:postcode" v="K1K 2H3"/><tag k="operator" v="Conseil des écoles catholiques du Centre-Est"/></node><node lat="45.468859" lon="-75.444948"  id="-11"  changeset="false" ><tag k="amenity" v="school"/><tag k="name" v="Gisèle-Lalonde Public High School"/><tag k="name:en" v="Gisèle-Lalonde Public High School"/><tag k="name:fr" v="École secondaire publique Gisèle-Lalonde"/><tag k="phone" v="+1-613-833-0018"/><tag k="fax" v="+1-613-833-3030"/><tag k="isced:level" v="3"/><tag k="addr:street" v="Millenium Boulevard"/><tag k="addr:housenumber" v="500"/><tag k="addr:postcode" v="K4A 4X3"/><tag k="operator" v="Conseil des écoles publiques de l'Est de l'Ontario"/></node><node lat="45.400385" lon="-75.640274"  id="-12"  changeset="false" ><tag k="amenity" v="school"/><tag k="name" v="Le Carrefour Adult School"/><tag k="name:en" v="Le Carrefour Adult School"/><tag k="name:fr" v="Écoles des adultes Le Carrefour"/><tag k="phone" v="+1-613-731-7212"/><tag k="fax" v="+1-613-731-8730"/><tag k="isced:level" v="2;3"/><tag k="addr:street" v="Saint-Laurent Boulevard"/><tag k="addr:housenumber" v="2445"/><tag k="addr:postcode" v="K1G 6C3"/><tag k="operator" v="Conseil des écoles publiques de l'Est de l'Ontario"/></node><node lat="45.349664" lon="-75.810519"  id="-13"  changeset="false" ><tag k="amenity" v="school"/><tag k="name" v="Bayshore Public School"/><tag k="name:en" v="Bayshore Public School"/><tag k="name:fr" v="École publique Bayshore"/><tag k="phone" v="+1-613-828-8698"/><tag k="fax" v="+1-613-828-6716"/><tag k="isced:level" v="1"/><tag k="addr:street" v="Woodridge  Crescent"/><tag k="addr:housenumber" v="145"/><tag k="addr:postcode" v="K2B 7T2"/><tag k="operator" v="Ottawa-Carleton District School Board"/></node><node lat="45.332217" lon="-75.907271"  id="-14"  changeset="false" ><tag k="amenity" v="school"/><tag k="name" v="Georges Vanier Catholic School"/><tag k="name:en" v="Georges Vanier Catholic School"/><tag k="name:fr" v="École catholique Georges Vanier"/><tag k="phone" v="+1-613-592-4371"/><tag k="fax" v="+1-613-592-2738"/><tag k="isced:level" v="1"/><tag k="addr:street" v="Varley Drive"/><tag k="addr:housenumber" v="40"/><tag k="addr:postcode" v="K2K 1G5"/><tag k="operator" v="Ottawa Catholic School Board"/></node><node lat="45.32495" lon="-75.902806"  id="-15"  changeset="false" ><tag k="amenity" v="school"/><tag k="name" v="Stephen Leacock Public School"/><tag k="name:en" v="Stephen Leacock Public School"/><tag k="name:fr" v="École publique Stephen Leacock"/><tag k="phone" v="+1-613-592-2261"/><tag k="fax" v="+1-613-592-3356"/><tag k="isced:level" v="1"/><tag k="addr:street" v="Leacock Drive"/><tag k="addr:housenumber" v="25"/><tag k="addr:postcode" v="K2K 1S2"/><tag k="operator" v="Ottawa-Carleton District School Board"/></node><node lat="45.332649" lon="-75.908925"  id="-16"  changeset="false" ><tag k="amenity" v="school"/><tag k="name" v="W. Erskine Johnston Public School"/><tag k="name:en" v="W. Erskine Johnston Public School"/><tag k="name:fr" v="École publique W. Erskine Johnston"/><tag k="phone" v="+1-613-592-4492"/><tag k="fax" v="+1-613-592-6907"/><tag k="isced:level" v="1"/><tag k="addr:street" v="Varley Drive"/><tag k="addr:housenumber" v="50"/><tag k="addr:postcode" v="K2K 1G7"/><tag k="operator" v="Ottawa-Carleton District School Board"/></node><node lat="45.274779" lon="-75.931106"  id="-17"  changeset="false" ><tag k="amenity" v="school"/><tag k="name" v="Saint Stephen School"/><tag k="name:en" v="Saint Stephen School"/><tag k="name:fr" v="École Saint Stephen"/><tag k="phone" v="+1-613-831-8844"/><tag k="fax" v="+1-613-831-9185"/><tag k="isced:level" v="1"/><tag k="addr:street" v="Stittsville Main Street"/><tag k="addr:housenumber" v="1145"/><tag k="addr:postcode" v="K2S 0M5"/><tag k="operator" v="Ottawa Catholic School Board"/></node><node lat="45.292584" lon="-75.884378"  id="-18"  changeset="false" ><tag k="amenity" v="school"/><tag k="name" v="Saint Martin de Porres School"/><tag k="name:en" v="Saint Martin de Porres School"/><tag k="name:fr" v="École Saint Matin de Porres"/><tag k="phone" v="+1-613-836-4754"/><tag k="fax" v="+1-613-836-0843"/><tag k="isced:level" v="1"/><tag k="addr:street" v="Mckitrick Drive"/><tag k="addr:housenumber" v="20"/><tag k="addr:postcode" v="K2L 1T7"/><tag k="operator" v="Ottawa Catholic School Board"/></node><node lat="45.289757" lon="-75.884179"  id="-19"  changeset="false" ><tag k="amenity" v="school"/><tag k="name" v="John Young Elementary School"/><tag k="name:en" v="John Young Elementary School"/><tag k="name:fr" v="École élémentaire John Young"/><tag k="phone" v="+1-613-836-5987"/><tag k="fax" v="+1-613-836-5694"/><tag k="isced:level" v="1"/><tag k="addr:street" v="Morton Drive"/><tag k="addr:housenumber" v="5"/><tag k="addr:postcode" v="K2L 1W7"/><tag k="operator" v="Ottawa-Carleton District School Board"/></node><node lat="45.296355" lon="-75.884515"  id="-20"  changeset="false" ><tag k="amenity" v="school"/><tag k="name" v="Glen Cairn Public School"/><tag k="name:en" v="Glen Cairn Public School"/><tag k="name:fr" v="École publique Glen Cairn"/><tag k="phone" v="+1-613-836-2342"/><tag k="fax" v="+1-613-836-4620"/><tag k="isced:level" v="1"/><tag k="addr:street" v="Morrena Drive"/><tag k="addr:housenumber" v="182"/><tag k="addr:postcode" v="K2L 1E1"/><tag k="operator" v="Ottawa-Carleton District School Board"/></node><node lat="45.280876" lon="-75.728508"  id="-21"  changeset="false" ><tag k="amenity" v="school"/><tag k="name" v="Monsignor Paul Baxter School"/><tag k="name:en" v="Monsignor Paul Baxter School"/><tag k="name:fr" v="École Monsignor Paul Baxter"/><tag k="phone" v="+1-613-825-7544"/><tag k="fax" v="+1-613-825-9942"/><tag k="isced:level" v="1"/><tag k="addr:street" v="Beatrice Drive"/><tag k="addr:housenumber" v="333"/><tag k="addr:postcode" v="K2J 4W1"/><tag k="operator" v="Ottawa Catholic School Board"/></node><node lat="45.382665" lon="-75.698179"  id="-22"  changeset="false" ><tag k="amenity" v="school"/><tag k="name" v="Carleton University"/><tag k="name:en" v="Carleton University"/><tag k="name:fr" v="Unitversité Carleton"/><tag k="phone" v="+1-613-520-2600"/><tag k="fax" v="+1-null"/><tag k="isced:level" v="Unknown"/><tag k="addr:street" v="Colonel By Drive"/><tag k="addr:housenumber" v="1125"/><tag k="addr:postcode" v="K1S 5B6"/><tag k="operator" v="Private"/></node><node lat="45.424645" lon="-75.68597"  id="-23"  changeset="false" ><tag k="amenity" v="school"/><tag k="name" v="University of Ottawa"/><tag k="name:en" v="University of Ottawa"/><tag k="name:fr" v="Unitversité d'Ottawa"/><tag k="phone" v="+1-613-562-5800"/><tag k="fax" v="+1-613-562-5323"/><tag k="isced:level" v="Unknown"/><tag k="addr:street" v="Laurier Avenuenue East"/><tag k="addr:housenumber" v="75"/><tag k="addr:postcode" v="K1N 6N5"/><tag k="operator" v="Private"/></node><node lat="45.348317" lon="-75.75591"  id="-24"  changeset="false" ><tag k="amenity" v="school"/><tag k="name" v="Algonquin College"/><tag k="name:en" v="Algonquin College"/><tag k="name:fr" v="Collège Algonquin"/><tag k="phone" v="+1-613-727-4723"/><tag k="fax" v="+1-null"/><tag k="isced:level" v="Unknown"/><tag k="addr:street" v="Woodroffe Avenue"/><tag k="addr:housenumber" v="1385"/><tag k="addr:postcode" v="K2G 1V8"/><tag k="operator" v="Private"/></node><node lat="45.408394" lon="-75.676763"  id="-25"  changeset="false" ><tag k="amenity" v="school"/><tag k="name" v="Saint Paul University"/><tag k="name:en" v="Saint Paul University"/><tag k="name:fr" v="Université Saint-Paul"/><tag k="phone" v="+1-613-236-1393"/><tag k="fax" v="+1-null"/><tag k="isced:level" v="Unknown"/><tag k="addr:street" v="Main Street"/><tag k="addr:housenumber" v="223"/><tag k="addr:postcode" v="K1S 1C4"/><tag k="operator" v="Private"/></node><node lat="45.439921" lon="-75.62665"  id="-26"  changeset="false" ><tag k="amenity" v="school"/><tag k="name" v="La Cité collégiale"/><tag k="name:en" v="La Cité collégiale"/><tag k="name:fr" v="La Cité collégiale"/><tag k="phone" v="+1-613-742-2483"/><tag k="fax" v="+1-null"/><tag k="isced:level" v="Unknown"/><tag k="addr:street" v="Aviation Parkway"/><tag k="addr:housenumber" v="801"/><tag k="addr:postcode" v="K1K 4R3"/><tag k="operator" v="Private"/></node><node lat="45.40547" lon="-75.718896"  id="-27"  changeset="false" ><tag k="amenity" v="school"/><tag k="name" v="Devonshire Community Public School"/><tag k="name:en" v="Devonshire Community Public School"/><tag k="name:fr" v="École publique communautaire Devonshire"/><tag k="phone" v="+1-613-729-3169"/><tag k="fax" v="+1-613-729-8462"/><tag k="isced:level" v="1"/><tag k="addr:street" v="Breezehill Avenue"/><tag k="addr:housenumber" v="100"/><tag k="addr:postcode" v="K1Y 2H5"/><tag k="operator" v="Ottawa-Carleton District School Board"/></node><node lat="45.28461" lon="-75.877032"  id="-28"  changeset="false" ><tag k="amenity" v="school"/><tag k="name" v="Kanata Montessori School"/><tag k="name:en" v="Kanata Montessori School"/><tag k="name:fr" v="École Montessori Kanata"/><tag k="phone" v="+1-613-592-2189"/><tag k="fax" v="+1-613-592-3705"/><tag k="isced:level" v="1"/><tag k="addr:street" v="Micheal Cowpland Drive"/><tag k="addr:housenumber" v="355"/><tag k="addr:postcode" v="K2M 2C5"/><tag k="operator" v="Private"/></node><node lat="45.388397" lon="-75.690953"  id="-29"  changeset="false" ><tag k="amenity" v="school"/><tag k="name" v="Westboro Academy"/><tag k="name:en" v="Westboro Academy"/><tag k="name:fr" v="Académie Westboro"/><tag k="phone" v="+1-613-737-9543"/><tag k="fax" v="+1-613-737-7716"/><tag k="isced:level" v="1"/><tag k="addr:street" v="Brewer Way"/><tag k="addr:housenumber" v="200"/><tag k="addr:postcode" v="K1S 5R2"/><tag k="operator" v="Private"/></node><node lat="45.162692" lon="-75.941554"  id="-30"  changeset="false" ><tag k="amenity" v="school"/><tag k="name" v="Munster Elementary School"/><tag k="name:en" v="Munster Elementary School"/><tag k="name:fr" v="École élémentaire Munster"/><tag k="phone" v="+1-613-838-3133"/><tag k="fax" v="+1-613-838-4072"/><tag k="isced:level" v="1"/><tag k="addr:street" v="Bleeks Road"/><tag k="addr:housenumber" v="7816"/><tag k="addr:postcode" v="K0A 3P0"/><tag k="operator" v="Ottawa-Carleton District School Board"/></node><node lat="45.39962" lon="-75.715834"  id="-31"  changeset="false" ><tag k="amenity" v="school"/><tag k="name" v="Heritage Academy"/><tag k="name:en" v="Heritage Academy"/><tag k="name:fr" v="Académie Heritage"/><tag k="phone" v="+1-613-722-0133"/><tag k="fax" v="+1-613-722-7881"/><tag k="isced:level" v="1"/><tag k="addr:street" v="Bayswater Avenue"/><tag k="addr:housenumber" v="207"/><tag k="addr:postcode" v="K1Y 2G5"/><tag k="operator" v="Private"/></node><node lat="45.32787" lon="-75.768646"  id="-32"  changeset="false" ><tag k="amenity" v="school"/><tag k="name" v="Pope John XXIII School"/><tag k="name:en" v="Pope John XXIII School"/><tag k="name:fr" v="École Pope-John-XXIII"/><tag k="phone" v="+1-613-226-6223"/><tag k="fax" v="+1-613-226-3287"/><tag k="isced:level" v="1"/><tag k="addr:street" v="Knoxdale Road"/><tag k="addr:housenumber" v="165"/><tag k="addr:postcode" v="K2G 1B1"/><tag k="operator" v="Ottawa Catholic School Board"/></node><node lat="45.276726" lon="-75.689684"  id="-33"  changeset="false" ><tag k="amenity" v="school"/><tag k="name" v="Saint Jerome School"/><tag k="name:en" v="Saint Jerome School"/><tag k="name:fr" v="École Saint Jerome"/><tag k="phone" v="+1-613-822-1116"/><tag k="fax" v="+1-613-822-9569"/><tag k="isced:level" v="1"/><tag k="addr:street" v="Spratt Road"/><tag k="addr:housenumber" v="4330"/><tag k="addr:postcode" v="K1V 2A7"/><tag k="operator" v="Ottawa Catholic School Board"/></node><node lat="45.366727" lon="-75.790295"  id="-34"  changeset="false" ><tag k="amenity" v="school"/><tag k="name" v="Regina St Public School"/><tag k="name:en" v="Regina St Public School"/><tag k="name:fr" v="École publique de la rue Regina"/><tag k="phone" v="+1-613-829-8777"/><tag k="fax" v="+1-613-829-4412"/><tag k="isced:level" v="1"/><tag k="addr:street" v="Regina Street"/><tag k="addr:housenumber" v="2599"/><tag k="addr:postcode" v="K2B 8B6"/><tag k="operator" v="Ottawa-Carleton District School Board"/></node><node lat="45.398786" lon="-75.630897"  id="-35"  changeset="false" ><tag k="amenity" v="school"/><tag k="name" v="Marie-Curie Public Elementary School"/><tag k="name:en" v="Marie-Curie Public Elementary School"/><tag k="name:fr" v="École élémentaire publique Marie-Curie"/><tag k="phone" v="+1-613-523-4975"/><tag k="fax" v="+1-613-523-9108"/><tag k="isced:level" v="1"/><tag k="addr:street" v="Colson Avenue"/><tag k="addr:housenumber" v="860"/><tag k="addr:postcode" v="K1G 1R7"/><tag k="operator" v="Conseil des écoles publiques de l'Est de l'Ontario"/></node><node lat="45.432536" lon="-75.659832"  id="-36"  changeset="false" ><tag k="amenity" v="school"/><tag k="name" v="Horizon-Jeunesse Catholic Elementary School"/><tag k="name:en" v="Horizon-Jeunesse Catholic Elementary School"/><tag k="name:fr" v="École élémentaire catholique Horizon-Jeunesse"/><tag k="phone" v="+1-613-741-8515"/><tag k="fax" v="+1-613-741-3547"/><tag k="isced:level" v="1"/><tag k="addr:street" v="Olmstead Street"/><tag k="addr:housenumber" v="349"/><tag k="addr:postcode" v="K1L 1B1"/><tag k="operator" v="Conseil des écoles catholiques du Centre-Est"/></node><node lat="45.422558" lon="-75.601625"  id="-37"  changeset="false" ><tag k="amenity" v="school"/><tag k="name" v="John Paul II School"/><tag k="name:en" v="John Paul II School"/><tag k="name:fr" v="École John-Paul II"/><tag k="phone" v="+1-613-744-3591"/><tag k="fax" v="+1-613-744-5735"/><tag k="isced:level" v="1"/><tag k="addr:street" v="Beaverpond Drive"/><tag k="addr:housenumber" v="1500"/><tag k="addr:postcode" v="K1B 3R9"/><tag k="operator" v="Ottawa Catholic School Board"/></node><node lat="45.352026" lon="-75.767793"  id="-38"  changeset="false" ><tag k="amenity" v="school"/><tag k="name" v="Terre-des-Jeunes Catholic Elementary School"/><tag k="name:en" v="Terre-des-Jeunes Catholic Elementary School"/><tag k="name:fr" v="École élémentaire catholique Terre-des-Jeunes"/><tag k="phone" v="+1-613-820-2121"/><tag k="fax" v="+1-613-228-0627"/><tag k="isced:level" v="1"/><tag k="addr:street" v="Fellows Road"/><tag k="addr:housenumber" v="1303"/><tag k="addr:postcode" v="K2C 2V8"/><tag k="operator" v="Conseil des écoles catholiques du Centre-Est"/></node><node lat="45.192066" lon="-75.835532"  id="-39"  changeset="false" ><tag k="amenity" v="school"/><tag k="name" v="Richmond Public School"/><tag k="name:en" v="Richmond Public School"/><tag k="name:fr" v="École publique Richmond"/><tag k="phone" v="+1-613-838-2371"/><tag k="fax" v="+1-613-838-2882"/><tag k="isced:level" v="1"/><tag k="addr:street" v="McBean Street"/><tag k="addr:housenumber" v="3499"/><tag k="addr:postcode" v="K0A 2Z0"/><tag k="operator" v="Ottawa-Carleton District School Board"/></node><node lat="45.447442" lon="-75.47351"  id="-40"  changeset="false" ><tag k="amenity" v="school"/><tag k="name" v="Alain-Fortin Catholic Elementary School"/><tag k="name:en" v="Alain-Fortin Catholic Elementary School"/><tag k="name:fr" v="École élémentaire catholique Alain-Fortin"/><tag k="phone" v="+1-613-749-7454"/><tag k="fax" v="+1-613-830-7912"/><tag k="isced:level" v="1"/><tag k="addr:street" v="Lakeridge Drive"/><tag k="addr:housenumber" v="676"/><tag k="addr:postcode" v="K4A 0J8"/><tag k="operator" v="Conseil des écoles catholiques du Centre-Est"/></node><node lat="45.437523" lon="-75.529471"  id="-41"  changeset="false" ><tag k="amenity" v="school"/><tag k="name" v="Le Prélude Public Elementary School"/><tag k="name:en" v="Le Prélude Public Elementary School"/><tag k="name:fr" v="École élémentaire publique Le Prélude"/><tag k="phone" v="+1-613-834-8411"/><tag k="fax" v="+1-613-834-8683"/><tag k="isced:level" v="1"/><tag k="addr:street" v="Longleaf Drive"/><tag k="addr:housenumber" v="6025"/><tag k="addr:postcode" v="K1W 1G3"/><tag k="operator" v="Conseil des écoles publiques de l'Est de l'Ontario"/></node><node lat="45.431632" lon="-75.566017"  id="-42"  changeset="false" ><tag k="amenity" v="school"/><tag k="name" v="Sainte-Marie Catholic Elementary School"/><tag k="name:en" v="Sainte-Marie Catholic Elementary School"/><tag k="name:fr" v="École élémentaire catholique Sainte-Marie"/><tag k="phone" v="+1-613-745-2722"/><tag k="fax" v="+1-613-824-8079"/><tag k="isced:level" v="1"/><tag k="addr:street" v="Innes Road"/><tag k="addr:housenumber" v="2599"/><tag k="addr:postcode" v="K1B 3J8"/><tag k="operator" v="Conseil des écoles catholiques du Centre-Est"/></node><node lat="45.433008" lon="-75.564449"  id="-43"  changeset="false" ><tag k="amenity" v="school"/><tag k="name" v="Good Shepherd Catholic School"/><tag k="name:en" v="Good Shepherd Catholic School"/><tag k="name:fr" v="École catholique Good Shepherd"/><tag k="phone" v="+1-613-824-4531"/><tag k="fax" v="+1-613-824-1387"/><tag k="isced:level" v="1"/><tag k="addr:street" v="Bearbrook Road"/><tag k="addr:housenumber" v="101"/><tag k="addr:postcode" v="K1B 3H5"/><tag k="operator" v="Ottawa Catholic School Board"/></node><node lat="45.434702" lon="-75.570707"  id="-44"  changeset="false" ><tag k="amenity" v="school"/><tag k="name" v="Glen Ogilvie Public School"/><tag k="name:en" v="Glen Ogilvie Public School"/><tag k="name:fr" v="École publique Glen Ogilvie"/><tag k="phone" v="+1-613-824-4014"/><tag k="fax" v="+1-613-824-5519"/><tag k="isced:level" v="1"/><tag k="addr:street" v="Centre Park Drive"/><tag k="addr:housenumber" v="46"/><tag k="addr:postcode" v="K1B 3C1"/><tag k="operator" v="Ottawa-Carleton District School Board"/></node><node lat="45.237204" lon="-75.691577"  id="-45"  changeset="false" ><tag k="amenity" v="school"/><tag k="name" v="Saint Leonard School"/><tag k="name:en" v="Saint Leonard School"/><tag k="name:fr" v="École Saint Leonard"/><tag k="phone" v="+1-613-692-3521"/><tag k="fax" v="+1-613-692-4743"/><tag k="isced:level" v="1"/><tag k="addr:street" v="Long Island Road"/><tag k="addr:housenumber" v="5344"/><tag k="addr:postcode" v="K4M 1E8"/><tag k="operator" v="Ottawa Catholic School Board"/></node><node lat="45.229891" lon="-75.683148"  id="-46"  changeset="false" ><tag k="amenity" v="school"/><tag k="name" v="Manotick Public School"/><tag k="name:en" v="Manotick Public School"/><tag k="name:fr" v="École publique Manotick"/><tag k="phone" v="+1-613-692-3311"/><tag k="fax" v="+1-613-692-1659"/><tag k="isced:level" v="1"/><tag k="addr:street" v="Bridge Street"/><tag k="addr:housenumber" v="1075"/><tag k="addr:postcode" v="K4M 1H3"/><tag k="operator" v="Ottawa-Carleton District School Board"/></node><node lat="45.126245" lon="-75.719379"  id="-47"  changeset="false" ><tag k="amenity" v="school"/><tag k="name" v="North Gower/Marlborough Public School"/><tag k="name:en" v="North Gower/Marlborough Public School"/><tag k="name:fr" v="École publique North Gower/Marlborough"/><tag k="phone" v="+1-613-489-3375"/><tag k="fax" v="+1-613-489-0100"/><tag k="isced:level" v="1"/><tag k="addr:street" v="Church Street"/><tag k="addr:housenumber" v="2403"/><tag k="addr:postcode" v="K0A 2T0"/><tag k="operator" v="Ottawa-Carleton District School Board"/></node><node lat="45.185391" lon="-75.835915"  id="-48"  changeset="false" ><tag k="amenity" v="school"/><tag k="name" v="Saint Philip School"/><tag k="name:en" v="Saint Philip School"/><tag k="name:fr" v="École Saint Philip"/><tag k="phone" v="+1-613-838-2466"/><tag k="fax" v="+1-613-838-3263"/><tag k="isced:level" v="1"/><tag k="addr:street" v="Maitland Avenue"/><tag k="addr:housenumber" v="79"/><tag k="addr:postcode" v="K0A 2Z0"/><tag k="operator" v="Ottawa Catholic School Board"/></node><node lat="45.500963" lon="-75.453856"  id="-49"  changeset="false" ><tag k="amenity" v="school"/><tag k="name" v="Orléans Montessori"/><tag k="name:en" v="Orléans Montessori"/><tag k="name:fr" v="École élémentaire Orleans Wood"/><tag k="phone" v="+1-613-833-1442"/><tag k="fax" v="+1-613-833-3758"/><tag k="isced:level" v="1"/><tag k="addr:street" v="Arbuste Avenue"/><tag k="addr:housenumber" v="1212"/><tag k="addr:postcode" v="K4A 1C2"/><tag k="operator" v="Private"/></node><node lat="45.416712" lon="-75.70697"  id="-50"  changeset="false" ><tag k="amenity" v="school"/><tag k="name" v="Urban Aboriginal Alternate Program (Ottawa)"/><tag k="name:en" v="Urban Aboriginal Alternate Program (Ottawa)"/><tag k="name:fr" v="Programme alternatif autochtone urbain (Ottawa)"/><tag k="phone" v="+1-613-746-6328"/><tag k="fax" v="+1-613-746-2083"/><tag k="isced:level" v="Unknown"/><tag k="addr:street" v="Albert Street"/><tag k="addr:housenumber" v="440"/><tag k="addr:postcode" v="K1R 5B5"/><tag k="operator" v="Ottawa-Carleton District School Board"/></node><node lat="45.409568" lon="-75.70257"  id="-51"  changeset="false" ><tag k="amenity" v="school"/><tag k="name" v="Richard Pfaff Secondary Alternate Program"/><tag k="name:en" v="Richard Pfaff Secondary Alternate Program"/><tag k="name:fr" v="Programme secondaire alternatif Richard Pfaff"/><tag k="phone" v="+1-613-594-8020"/><tag k="fax" v="+1-613-239-2288"/><tag k="isced:level" v="Unknown"/><tag k="addr:street" v="Percy Street"/><tag k="addr:housenumber" v="160"/><tag k="addr:postcode" v="K1R 6E5"/><tag k="operator" v="Ottawa-Carleton District School Board"/></node><node lat="45.353211" lon="-75.737089"  id="-52"  changeset="false" ><tag k="amenity" v="school"/><tag k="name" v="Elizabeth Wyn Wood Alternate Program (Nepean)"/><tag k="name:en" v="Elizabeth Wyn Wood Alternate Program (Nepean)"/><tag k="name:fr" v="Programme alternatif Elizabeth Wyn Wood"/><tag k="phone" v="+1-613-225-8826"/><tag k="fax" v="+1-613-225-1322"/><tag k="isced:level" v="Unknown"/><tag k="addr:street" v="Rossland Avenue"/><tag k="addr:housenumber" v="20"/><tag k="addr:postcode" v="K2G 1H6"/><tag k="operator" v="Ottawa-Carleton District School Board"/></node><node lat="45.409612" lon="-75.702571"  id="-53"  changeset="false" ><tag k="amenity" v="school"/><tag k="name" v="First Place Alternate Program"/><tag k="name:en" v="First Place Alternate Program"/><tag k="name:fr" v="Programme alternatif First Place"/><tag k="phone" v="+1-613-239-2544"/><tag k="fax" v="+1-613-239-2288"/><tag k="isced:level" v="Unknown"/><tag k="addr:street" v="Percy Street"/><tag k="addr:housenumber" v="160"/><tag k="addr:postcode" v="K1R 6E5"/><tag k="operator" v="Ottawa-Carleton District School Board"/></node><node lat="45.436987" lon="-75.548861"  id="-54"  changeset="false" ><tag k="amenity" v="school"/><tag k="name" v="Norman Johnston Secondary Alternate Program"/><tag k="name:en" v="Norman Johnston Secondary Alternate Program"/><tag k="name:fr" v="Programme secondaire alternatif Norman Johnston"/><tag k="phone" v="+1-613-841-7510"/><tag k="fax" v="+1-613-841-7509"/><tag k="isced:level" v="Unknown"/><tag k="addr:street" v="Cleroux Crescent"/><tag k="addr:housenumber" v="2401"/><tag k="addr:postcode" v="K1W 1A1"/><tag k="operator" v="Ottawa-Carleton District School Board"/></node><node lat="45.260674" lon="-75.922413"  id="-55"  changeset="false" ><tag k="amenity" v="school"/><tag k="name" v="Frederick Banting Alternate Program (Stittsville)"/><tag k="name:en" v="Frederick Banting Alternate Program (Stittsville)"/><tag k="name:fr" v="Programme alternatif Frederick Banting (Stittsville)"/><tag k="phone" v="+1-613-591-7678"/><tag k="fax" v="+1-613-591-7685"/><tag k="isced:level" v="Unknown"/><tag k="addr:street" v="Stittsville Main Street"/><tag k="addr:housenumber" v="1453"/><tag k="addr:postcode" v="K1R 6E5"/><tag k="operator" v="Ottawa-Carleton District School Board"/></node><node lat="45.409654" lon="-75.702595"  id="-56"  changeset="false" ><tag k="amenity" v="school"/><tag k="name" v="Reality Check"/><tag k="name:en" v="Reality Check"/><tag k="name:fr" v="Reality Check"/><tag k="phone" v="+1-613-594-3208"/><tag k="fax" v="+1-613-239-2288"/><tag k="isced:level" v="Unknown"/><tag k="addr:street" v="Percy Street"/><tag k="addr:housenumber" v="160"/><tag k="addr:postcode" v="K1R 6E5"/><tag k="operator" v="Ottawa-Carleton District School Board"/></node><node lat="45.424204" lon="-75.579128"  id="-57"  changeset="false" ><tag k="amenity" v="school"/><tag k="name" v="Ottawa-Carleton Detention Centre"/><tag k="name:en" v="Ottawa-Carleton Detention Centre"/><tag k="name:fr" v="Centre de détention d'Ottawa-Carleton"/><tag k="phone" v="+1-613-824-6080"/><tag k="fax" v="+1-613-824-1297"/><tag k="isced:level" v="Unknown"/><tag k="addr:street" v="Innes Road"/><tag k="addr:housenumber" v="2244"/><tag k="addr:postcode" v="K1B 4C4"/><tag k="operator" v="Ottawa-Carleton District School Board"/></node><node lat="45.385173" lon="-75.369305"  id="-58"  changeset="false" ><tag k="amenity" v="school"/><tag k="name" v="Phoenix House for Youth Inc."/><tag k="name:en" v="Phoenix House for Youth Inc."/><tag k="name:fr" v="Phoenix House for Youth Inc."/><tag k="phone" v="+1-613-835-3537"/><tag k="fax" v="+1-613-835-2013"/><tag k="isced:level" v="Unknown"/><tag k="addr:street" v="Rockdale Road"/><tag k="addr:housenumber" v="4824"/><tag k="addr:postcode" v="K4B 1J1"/><tag k="operator" v="Ottawa-Carleton District School Board"/></node><node lat="45.404322" lon="-75.710434"  id="-59"  changeset="false" ><tag k="amenity" v="school"/><tag k="name" v="Family Reception Centre"/><tag k="name:en" v="Family Reception Centre"/><tag k="name:fr" v="Centre d'accueil des familles"/><tag k="phone" v="+1-613-239-2416"/><tag k="fax" v="+1-613-239-5990"/><tag k="isced:level" v="Unknown"/><tag k="addr:street" v="Rochester Street"/><tag k="addr:housenumber" v="300"/><tag k="addr:postcode" v="K1R 7N4"/><tag k="operator" v="Ottawa-Carleton District School Board"/></node><node lat="45.379796" lon="-75.655077"  id="-60"  changeset="false" ><tag k="amenity" v="school"/><tag k="name" v="Queen of Angels Adult School"/><tag k="name:en" v="Queen of Angels Adult School"/><tag k="name:fr" v="École pour adultes Queen of Angels"/><tag k="phone" v="+1-613-731-3237"/><tag k="fax" v="+1-613-731-6636"/><tag k="isced:level" v="Unknown"/><tag k="addr:street" v="Heron Road"/><tag k="addr:housenumber" v="1461"/><tag k="addr:postcode" v="K1V 6A6"/><tag k="operator" v="Ottawa Catholic School Board"/></node><node lat="45.434231" lon="-75.658791"  id="-61"  changeset="false" ><tag k="amenity" v="school"/><tag k="name" v="Saint Joseph's Adult School"/><tag k="name:en" v="Saint Joseph's Adult School"/><tag k="name:fr" v="École pour adultes Saint Joseph's"/><tag k="phone" v="+1-613-741-6808"/><tag k="fax" v="+1-613-741-8553"/><tag k="isced:level" v="Unknown"/><tag k="addr:street" v="Lajoie Street"/><tag k="addr:housenumber" v="330"/><tag k="addr:postcode" v="K1L 7H4"/><tag k="operator" v="Ottawa Catholic School Board"/></node><node lat="45.416889" lon="-75.706419"  id="-62"  changeset="false" ><tag k="amenity" v="school"/><tag k="name" v="Continuing Education"/><tag k="name:en" v="Continuing Education"/><tag k="name:fr" v="Éducation continue"/><tag k="phone" v="+1-613-239-2325"/><tag k="fax" v="+1-613-239-2324"/><tag k="isced:level" v="Unknown"/><tag k="addr:street" v="Albert Street"/><tag k="addr:housenumber" v="440"/><tag k="addr:postcode" v="K1R 5B5"/><tag k="operator" v="Ottawa-Carleton District School Board"/></node><node lat="45.415709" lon="-75.701226"  id="-63"  changeset="false" ><tag k="amenity" v="school"/><tag k="name" v="Saint Patrick's Adult School"/><tag k="name:en" v="Saint Patrick's Adult School"/><tag k="name:fr" v="École pour adultes Saint Patrick's"/><tag k="phone" v="+1-613-594-5773"/><tag k="fax" v="+1-613-594-8768"/><tag k="isced:level" v="Unknown"/><tag k="addr:street" v="Nepean Street"/><tag k="addr:housenumber" v="290"/><tag k="addr:postcode" v="K1R 5G3"/><tag k="operator" v="Ottawa Catholic School Board"/></node><node lat="45.39921" lon="-75.715203"  id="-64"  changeset="false" ><tag k="amenity" v="school"/><tag k="name" v="Saint Ambrose Training Centre of Excellence"/><tag k="name:en" v="Saint Ambrose Training Centre of Excellence"/><tag k="name:fr" v="Centre de formation en excellence Saint Ambrose"/><tag k="phone" v="+1-613-228-6908"/><tag k="fax" v="+1-613-228-9551"/><tag k="isced:level" v="Unknown"/><tag k="addr:street" v="Beech Street"/><tag k="addr:housenumber" v="175"/><tag k="addr:postcode" v="K1Y 3T1"/><tag k="operator" v="Ottawa Catholic School Board"/></node><node lat="45.406387" lon="-75.685455"  id="-65"  changeset="false" ><tag k="amenity" v="school"/><tag k="name" v="First Avenue Public School"/><tag k="name:en" v="First Avenue Public School"/><tag k="name:fr" v="École publique de l'avenue First"/><tag k="phone" v="+1-613-239-2261"/><tag k="fax" v="+1-613-563-8424"/><tag k="isced:level" v="1"/><tag k="addr:street" v="First Avenue"/><tag k="addr:housenumber" v="73"/><tag k="addr:postcode" v="K1S 2G1"/><tag k="operator" v="Ottawa-Carleton District School Board"/></node><node lat="45.401471" lon="-75.69093"  id="-66"  changeset="false" ><tag k="amenity" v="school"/><tag k="name" v="Corpus Christi School"/><tag k="name:en" v="Corpus Christi School"/><tag k="name:fr" v="École Corpus Christi"/><tag k="phone" v="+1-613-232-9743"/><tag k="fax" v="+1-613-230-7848"/><tag k="isced:level" v="1"/><tag k="addr:street" v="Lyon Street South"/><tag k="addr:housenumber" v="798"/><tag k="addr:postcode" v="K1S 5H5"/><tag k="operator" v="Ottawa Catholic School Board"/></node><node lat="45.4009" lon="-75.690698"  id="-67"  changeset="false" ><tag k="amenity" v="school"/><tag k="name" v="Mutchmor Public School"/><tag k="name:en" v="Mutchmor Public School"/><tag k="name:fr" v="École publique Mutchmor"/><tag k="phone" v="+1-613-239-2267"/><tag k="fax" v="+1-613-239-2743"/><tag k="isced:level" v="1"/><tag k="addr:street" v="Fifth Avenue"/><tag k="addr:housenumber" v="185"/><tag k="addr:postcode" v="K1S 2N1"/><tag k="operator" v="Ottawa-Carleton District School Board"/></node><node lat="45.367592" lon="-75.625743"  id="-68"  changeset="false" ><tag k="amenity" v="school"/><tag k="name" v="Saint Marguerite d'Youville School"/><tag k="name:en" v="Saint Marguerite d'Youville School"/><tag k="name:fr" v="École Saint Margureite d'Youville"/><tag k="phone" v="+1-613-737-1141"/><tag k="fax" v="+1-613-737-6450"/><tag k="isced:level" v="1"/><tag k="addr:street" v="Lorry Greenberg Drive"/><tag k="addr:housenumber" v="89"/><tag k="addr:postcode" v="K1T 3J6"/><tag k="operator" v="Ottawa Catholic School Board"/></node><node lat="45.365847" lon="-75.627464"  id="-69"  changeset="false" ><tag k="amenity" v="school"/><tag k="name" v="Roberta Bondar Public School"/><tag k="name:en" v="Roberta Bondar Public School"/><tag k="name:fr" v="École publique Roberta Bondar"/><tag k="phone" v="+1-613-736-7334"/><tag k="fax" v="+1-613-736-6532"/><tag k="isced:level" v="1"/><tag k="addr:street" v="Lorry Greenberg Drive"/><tag k="addr:housenumber" v="159"/><tag k="addr:postcode" v="K1T 3J6"/><tag k="operator" v="Ottawa-Carleton District School Board"/></node><node lat="45.394817" lon="-75.61505"  id="-70"  changeset="false" ><tag k="amenity" v="school"/><tag k="name" v="Saint Luke School"/><tag k="name:en" v="Saint Luke School"/><tag k="name:fr" v="École Saint Luke (Nepean)"/><tag k="phone" v="+1-613-731-3541"/><tag k="fax" v="+1-613-731-1387"/><tag k="isced:level" v="1"/><tag k="addr:street" v="Dwight Crescent"/><tag k="addr:housenumber" v="2485"/><tag k="addr:postcode" v="K1G 1C7"/><tag k="operator" v="Ottawa Catholic School Board"/></node><node lat="45.402462" lon="-75.723805"  id="-71"  changeset="false" ><tag k="amenity" v="school"/><tag k="name" v="Saint-François-d'Assise Catholic Elementary School"/><tag k="name:en" v="Saint-François-d'Assise Catholic Elementary School"/><tag k="name:fr" v="École élémentaire catholique Saint-François-dAssise"/><tag k="phone" v="+1-613-729-1463"/><tag k="fax" v="+1-613-729-2291"/><tag k="isced:level" v="1"/><tag k="addr:street" v="Melrose Avenue"/><tag k="addr:housenumber" v="35"/><tag k="addr:postcode" v="K1Y 1T8"/><tag k="operator" v="Conseil des écoles catholiques du Centre-Est"/></node><node lat="45.400678" lon="-75.726342"  id="-72"  changeset="false" ><tag k="amenity" v="school"/><tag k="name" v="Connaught Public School"/><tag k="name:en" v="Connaught Public School"/><tag k="name:fr" v="École publique Connaught"/><tag k="phone" v="+1-613-728-4671"/><tag k="fax" v="+1-613-728-9761"/><tag k="isced:level" v="1"/><tag k="addr:street" v="Gladstone Avenue"/><tag k="addr:housenumber" v="1149"/><tag k="addr:postcode" v="K1Y 3H7"/><tag k="operator" v="Ottawa-Carleton District School Board"/></node><node lat="45.334817" lon="-75.667354"  id="-73"  changeset="false" ><tag k="amenity" v="school"/><tag k="name" v="Uplands Catholic School"/><tag k="name:en" v="Uplands Catholic School"/><tag k="name:fr" v="École catholique Uplands"/><tag k="phone" v="+1-613-523-5807"/><tag k="fax" v="+1-613-523-5778"/><tag k="isced:level" v="1"/><tag k="addr:street" v="De Niverville Priv"/><tag k="addr:housenumber" v="17"/><tag k="addr:postcode" v="K1V 7N9"/><tag k="operator" v="Ottawa Catholic School Board"/></node><node lat="45.377456" lon="-75.773448"  id="-74"  changeset="false" ><tag k="amenity" v="school"/><tag k="name" v="Our Lady Of Fatima School"/><tag k="name:en" v="Our Lady Of Fatima School"/><tag k="name:fr" v="École Our Lady of Fatima"/><tag k="phone" v="+1-613-722-4075"/><tag k="fax" v="+1-613-722-0453"/><tag k="isced:level" v="1"/><tag k="addr:street" v="Knightsbridge Road"/><tag k="addr:housenumber" v="2135"/><tag k="addr:postcode" v="K2A 0R3"/><tag k="operator" v="Ottawa Catholic School Board"/></node><node lat="45.374381" lon="-75.772453"  id="-75"  changeset="false" ><tag k="amenity" v="school"/><tag k="name" v="Woodroffe Avenue Public School"/><tag k="name:en" v="Woodroffe Avenue Public School"/><tag k="name:fr" v="École publique de l'avenue Woodroffe"/><tag k="phone" v="+1-613-722-6585"/><tag k="fax" v="+1-613-722-7951"/><tag k="isced:level" v="1"/><tag k="addr:street" v="Woodroffe Avenue"/><tag k="addr:housenumber" v="235"/><tag k="addr:postcode" v="K2A 3V3"/><tag k="operator" v="Ottawa-Carleton District School Board"/></node><node lat="45.390323" lon="-75.753871"  id="-76"  changeset="false" ><tag k="amenity" v="school"/><tag k="name" v="Churchill Alternative School"/><tag k="name:en" v="Churchill Alternative School"/><tag k="name:fr" v="École Alternative Churchill"/><tag k="phone" v="+1-613-722-4474"/><tag k="fax" v="+1-613-722-5655"/><tag k="isced:level" v="1"/><tag k="addr:street" v="Ravenhill Avenue"/><tag k="addr:housenumber" v="345"/><tag k="addr:postcode" v="K2A 0J5"/><tag k="operator" v="Ottawa-Carleton District School Board"/></node><node lat="45.376322" lon="-75.753012"  id="-77"  changeset="false" ><tag k="amenity" v="school"/><tag k="name" v="Rambam (Maimonides) Day School"/><tag k="name:en" v="Rambam (Maimonides) Day School"/><tag k="name:fr" v="École de jour Rambam (Maimonides)"/><tag k="phone" v="+1-613-820-9484"/><tag k="fax" v="+1-613-820-0029"/><tag k="isced:level" v="1"/><tag k="addr:street" v="Nadolny Sachs Private"/><tag k="addr:housenumber" v="31"/><tag k="addr:postcode" v="K1Z 1A2"/><tag k="operator" v="Private"/></node><node lat="45.374681" lon="-75.66008"  id="-78"  changeset="false" ><tag k="amenity" v="school"/><tag k="name" v="Charles H. Hulse Public School"/><tag k="name:en" v="Charles H. Hulse Public School"/><tag k="name:fr" v="École publique Charles H. Hulse"/><tag k="phone" v="+1-613-521-8535"/><tag k="fax" v="+1-613-521-1477"/><tag k="isced:level" v="1"/><tag k="addr:street" v="Alta Vista Drive"/><tag k="addr:housenumber" v="2605"/><tag k="addr:postcode" v="K1V 7T3"/><tag k="operator" v="Ottawa-Carleton District School Board"/></node><node lat="45.373746" lon="-75.645513"  id="-79"  changeset="false" ><tag k="amenity" v="school"/><tag k="name" v="Prince Of Peace School"/><tag k="name:en" v="Prince Of Peace School"/><tag k="name:fr" v="École Prince-Of-Peace"/><tag k="phone" v="+1-613-731-4733"/><tag k="fax" v="+1-613-731-8696"/><tag k="isced:level" v="1"/><tag k="addr:street" v="Heatherington Road"/><tag k="addr:housenumber" v="1620"/><tag k="addr:postcode" v="K1V 9P5"/><tag k="operator" v="Ottawa Catholic School Board"/></node><node lat="45.371588" lon="-75.656653"  id="-80"  changeset="false" ><tag k="amenity" v="school"/><tag k="name" v="Marius-Barbeau Catholic Elementary School"/><tag k="name:en" v="Marius-Barbeau Catholic Elementary School"/><tag k="name:fr" v="École élémentaire catholique Marius-Barbeau"/><tag k="phone" v="+1-613-737-4404"/><tag k="fax" v="+1-613-737-3168"/><tag k="isced:level" v="1"/><tag k="addr:street" v="Nottinghill Avenue"/><tag k="addr:housenumber" v="1345"/><tag k="addr:postcode" v="K1V 6T3"/><tag k="operator" v="Conseil des écoles catholiques du Centre-Est"/></node><node lat="45.405759" lon="-75.654804"  id="-81"  changeset="false" ><tag k="amenity" v="school"/><tag k="name" v="Riverview Alternative"/><tag k="name:en" v="Riverview Alternative"/><tag k="name:fr" v="École alternative Riverview"/><tag k="phone" v="+1-613-733-6898"/><tag k="fax" v="+1-613-733-0483"/><tag k="isced:level" v="1"/><tag k="addr:street" v="Knox Crescent"/><tag k="addr:housenumber" v="260"/><tag k="addr:postcode" v="K1G 0K8"/><tag k="operator" v="Ottawa-Carleton District School Board"/></node><node lat="45.400566" lon="-75.636654"  id="-82"  changeset="false" ><tag k="amenity" v="school"/><tag k="name" v="Vincent Massey Public School"/><tag k="name:en" v="Vincent Massey Public School"/><tag k="name:fr" v="École publique Vincent-Massey"/><tag k="phone" v="+1-613-733-5955"/><tag k="fax" v="+1-613-733-0925"/><tag k="isced:level" v="1"/><tag k="addr:street" v="Smyth Road"/><tag k="addr:housenumber" v="745"/><tag k="addr:postcode" v="K1G 1N9"/><tag k="operator" v="Ottawa-Carleton District School Board"/></node><node lat="45.405671" lon="-75.663671"  id="-83"  changeset="false" ><tag k="amenity" v="school"/><tag k="name" v="Lycée Claudel (École)"/><tag k="name:en" v="Lycée Claudel (École)"/><tag k="name:fr" v="Lycée Claudel"/><tag k="phone" v="+1-613-733-8522"/><tag k="fax" v="+1-613-733-3782"/><tag k="isced:level" v="1"/><tag k="addr:street" v="Riverside Drive"/><tag k="addr:housenumber" v="1635"/><tag k="addr:postcode" v="K1G 0E5"/><tag k="operator" v="Private"/></node><node lat="45.434673" lon="-75.635828"  id="-84"  changeset="false" ><tag k="amenity" v="school"/><tag k="name" v="Our Lady Of Mount Carmel School"/><tag k="name:en" v="Our Lady Of Mount Carmel School"/><tag k="name:fr" v="École Our-Lady-Of-Mount-Carmel"/><tag k="phone" v="+1-613-745-4884"/><tag k="fax" v="+1-613-745-3828"/><tag k="isced:level" v="1"/><tag k="addr:street" v="Gardenvale Road"/><tag k="addr:housenumber" v="675"/><tag k="addr:postcode" v="K1K 1C9"/><tag k="operator" v="Ottawa Catholic School Board"/></node><node lat="45.363299" lon="-75.685012"  id="-85"  changeset="false" ><tag k="amenity" v="school"/><tag k="name" v="Holy Cross School"/><tag k="name:en" v="Holy Cross School"/><tag k="name:fr" v="École Holy Cross"/><tag k="phone" v="+1-613-733-5887"/><tag k="fax" v="+1-613-733-1831"/><tag k="isced:level" v="1"/><tag k="addr:street" v="Springland Drive"/><tag k="addr:housenumber" v="2820"/><tag k="addr:postcode" v="K1V 6M4"/><tag k="operator" v="Ottawa Catholic School Board"/></node><node lat="45.456609" lon="-75.532682"  id="-86"  changeset="false" ><tag k="amenity" v="school"/><tag k="name" v="L'Étoile-de-l'Est Catholic Elementary School"/><tag k="name:en" v="L'Étoile-de-l'Est Catholic Elementary School"/><tag k="name:fr" v="École élémentaire catholique l'Étoile-de-l'Est"/><tag k="phone" v="+1-613-744-5713"/><tag k="fax" v="+1-613-837-6766"/><tag k="isced:level" v="1"/><tag k="addr:street" v="Beauséjour Drive"/><tag k="addr:housenumber" v="6220"/><tag k="addr:postcode" v="K1C 8E4"/><tag k="operator" v="Conseil des écoles catholiques du Centre-Est"/></node><node lat="45.451927" lon="-75.540469"  id="-87"  changeset="false" ><tag k="amenity" v="school"/><tag k="name" v="Chapel Hill Catholic School"/><tag k="name:en" v="Chapel Hill Catholic School"/><tag k="name:fr" v="École catholique Chapel Hill"/><tag k="phone" v="+1-613-837-3773"/><tag k="fax" v="+1-613-837-1453"/><tag k="isced:level" v="1"/><tag k="addr:street" v="Forest Valley Drive"/><tag k="addr:housenumber" v="1534"/><tag k="addr:postcode" v="K1C 6G9"/><tag k="operator" v="Ottawa Catholic School Board"/></node><node lat="45.248897" lon="-75.906215"  id="-88"  changeset="false" ><tag k="amenity" v="school"/><tag k="name" v="Guardian Angels School"/><tag k="name:en" v="Guardian Angels School"/><tag k="name:fr" v="École Guardian Angels"/><tag k="phone" v="+1-613-836-7423"/><tag k="fax" v="+1-n/a"/><tag k="isced:level" v="1"/><tag k="addr:street" v="Baywood Drive"/><tag k="addr:housenumber" v="4"/><tag k="addr:postcode" v="K2S 1K5"/><tag k="operator" v="Ottawa Catholic School Board"/></node><node lat="45.271015" lon="-75.908521"  id="-89"  changeset="false" ><tag k="amenity" v="school"/><tag k="name" v="Stittsville Public School"/><tag k="name:en" v="Stittsville Public School"/><tag k="name:fr" v="École publique Stittsville"/><tag k="phone" v="+1-613-836-2818"/><tag k="fax" v="+1-613-836-1806"/><tag k="isced:level" v="1"/><tag k="addr:street" v="Granite Ridge Drive"/><tag k="addr:housenumber" v="40"/><tag k="addr:postcode" v="K2S 1Y9"/><tag k="operator" v="Ottawa-Carleton District School Board"/></node><node lat="45.270433" lon="-75.903152"  id="-90"  changeset="false" ><tag k="amenity" v="school"/><tag k="name" v="Jean-Paul II Catholic Elementary School"/><tag k="name:en" v="Jean-Paul II Catholic Elementary School"/><tag k="name:fr" v="École élémentaire catholique Jean-Paul II"/><tag k="phone" v="+1-613-521-7858"/><tag k="fax" v="+1-613-836-3078"/><tag k="isced:level" v="1"/><tag k="addr:street" v="Abbott Street East"/><tag k="addr:housenumber" v="5473"/><tag k="addr:postcode" v="K2S 0A8"/><tag k="operator" v="Conseil des écoles catholiques du Centre-Est"/></node><node lat="45.43822" lon="-75.644389"  id="-91"  changeset="false" ><tag k="amenity" v="school"/><tag k="name" v="Queen Elizabeth Public School"/><tag k="name:en" v="Queen Elizabeth Public School"/><tag k="name:fr" v="École publique Queen Elizabeth"/><tag k="phone" v="+1-613-746-3246"/><tag k="fax" v="+1-613-746-3508"/><tag k="isced:level" v="1"/><tag k="addr:street" v="Saint Laurent Boulevard"/><tag k="addr:housenumber" v="689"/><tag k="addr:postcode" v="K1K 3A6"/><tag k="operator" v="Ottawa-Carleton District School Board"/></node><node lat="45.322623" lon="-75.71811"  id="-92"  changeset="false" ><tag k="amenity" v="school"/><tag k="name" v="Saint Monica School"/><tag k="name:en" v="Saint Monica School"/><tag k="name:fr" v="École Saint Monica"/><tag k="phone" v="+1-613-226-5174"/><tag k="fax" v="+1-613-226-5157"/><tag k="isced:level" v="1"/><tag k="addr:street" v="Merivale Road"/><tag k="addr:housenumber" v="2000"/><tag k="addr:postcode" v="K2G 1G6"/><tag k="operator" v="Ottawa Catholic School Board"/></node><node lat="45.454146" lon="-75.604347"  id="-93"  changeset="false" ><tag k="amenity" v="school"/><tag k="name" v="Thomas D'Arcy McGee Catholic School"/><tag k="name:en" v="Thomas D'Arcy McGee Catholic School"/><tag k="name:fr" v="École catholique D'Arcy McGee"/><tag k="phone" v="+1-613-749-2251"/><tag k="fax" v="+1-613-749-3314"/><tag k="isced:level" v="1"/><tag k="addr:street" v="La Verendrye Drive"/><tag k="addr:housenumber" v="635"/><tag k="addr:postcode" v="K1J 7C2"/><tag k="operator" v="Ottawa Catholic School Board"/></node><node lat="45.449661" lon="-75.60273"  id="-94"  changeset="false" ><tag k="amenity" v="school"/><tag k="name" v="Le Phare Elementary School"/><tag k="name:en" v="Le Phare Elementary School"/><tag k="name:fr" v="École élémentaire Le Phare"/><tag k="phone" v="+1-613-744-2597"/><tag k="fax" v="+1-613-744-1215"/><tag k="isced:level" v="1"/><tag k="addr:street" v="Naskapi Drive"/><tag k="addr:housenumber" v="1965"/><tag k="addr:postcode" v="K1J 8M9"/><tag k="operator" v="Ottawa-Carleton District School Board"/></node><node lat="45.457063" lon="-75.604544"  id="-95"  changeset="false" ><tag k="amenity" v="school"/><tag k="name" v="Robert Hopkins Public School"/><tag k="name:en" v="Robert Hopkins Public School"/><tag k="name:fr" v="École publique Robert Hopkins"/><tag k="phone" v="+1-613-745-2119"/><tag k="fax" v="+1-613-745-9944"/><tag k="isced:level" v="1"/><tag k="addr:street" v="Glenfern Avenue"/><tag k="addr:housenumber" v="2011"/><tag k="addr:postcode" v="K1J 6H2"/><tag k="operator" v="Ottawa-Carleton District School Board"/></node><node lat="45.452506" lon="-75.592656"  id="-96"  changeset="false" ><tag k="amenity" v="school"/><tag k="name" v="Séraphin-Marion Public Elementary School"/><tag k="name:en" v="Séraphin-Marion Public Elementary School"/><tag k="name:fr" v="École élémentaire publique Séraphin-Marion"/><tag k="phone" v="+1-613-748-7636"/><tag k="fax" v="+1-613-748-6346"/><tag k="isced:level" v="1"/><tag k="addr:street" v="Loyola Avenue"/><tag k="addr:housenumber" v="2147"/><tag k="addr:postcode" v="K1J 7W3"/><tag k="operator" v="Conseil des écoles publiques de l'Est de l'Ontario"/></node><node lat="45.486565" lon="-75.513392"  id="-97"  changeset="false" ><tag k="amenity" v="school"/><tag k="name" v="Divine Infant School"/><tag k="name:en" v="Divine Infant School"/><tag k="name:fr" v="École Divine Infant"/><tag k="phone" v="+1-613-824-1060"/><tag k="fax" v="+1-613-830-3624"/><tag k="isced:level" v="1"/><tag k="addr:street" v="Jeanne D'arc Boulevard"/><tag k="addr:housenumber" v="8100"/><tag k="addr:postcode" v="K1E 2E1"/><tag k="operator" v="Ottawa Catholic School Board"/></node><node lat="45.284271" lon="-76.100928"  id="-98"  changeset="false" ><tag k="amenity" v="school"/><tag k="name" v="Saint Michael, Corkery School"/><tag k="name:en" v="Saint Michael, Corkery School"/><tag k="name:fr" v="École Saint Michael Corkery"/><tag k="phone" v="+1-613-256-3672"/><tag k="fax" v="+1-613-256-7060"/><tag k="isced:level" v="1"/><tag k="addr:street" v="Corkery Road"/><tag k="addr:housenumber" v="1572"/><tag k="addr:postcode" v="K0A 1L0"/><tag k="operator" v="Ottawa Catholic School Board"/></node><node lat="45.34607" lon="-76.030477"  id="-99"  changeset="false" ><tag k="amenity" v="school"/><tag k="name" v="Huntley Centennial Public School"/><tag k="name:en" v="Huntley Centennial Public School"/><tag k="name:fr" v="École publique Huntley Centennial"/><tag k="phone" v="+1-613-839-2020"/><tag k="fax" v="+1-613-839-1963"/><tag k="isced:level" v="1"/><tag k="addr:street" v="Langstaff Drive"/><tag k="addr:housenumber" v="118"/><tag k="addr:postcode" v="K0A 1L0"/><tag k="operator" v="Ottawa-Carleton District School Board"/></node><node lat="45.366318" lon="-75.949237"  id="-100"  changeset="false" ><tag k="amenity" v="school"/><tag k="name" v="Saint Isidore School"/><tag k="name:en" v="Saint Isidore School"/><tag k="name:fr" v="École Saint Isidore"/><tag k="phone" v="+1-613-592-1798"/><tag k="fax" v="+1-613-592-0929"/><tag k="isced:level" v="1"/><tag k="addr:street" v="March Road"/><tag k="addr:housenumber" v="1105"/><tag k="addr:postcode" v="K2K 1X7"/><tag k="operator" v="Ottawa Catholic School Board"/></node><node lat="45.263872" lon="-75.925929"  id="-101"  changeset="false" ><tag k="amenity" v="school"/><tag k="name" v="Holy Spirit School"/><tag k="name:en" v="Holy Spirit School"/><tag k="name:fr" v="École Holy Spirit"/><tag k="phone" v="+1-613-831-1853"/><tag k="fax" v="+1-613-831-3162"/><tag k="isced:level" v="1"/><tag k="addr:street" v="Stittsville Main Street"/><tag k="addr:housenumber" v="1383"/><tag k="addr:postcode" v="K2S 1A6"/><tag k="operator" v="Ottawa Catholic School Board"/></node><node lat="45.348885" lon="-75.936822"  id="-102"  changeset="false" ><tag k="amenity" v="school"/><tag k="name" v="Kanata Public Elementary School"/><tag k="name:en" v="Kanata Public Elementary School"/><tag k="name:fr" v="École élémentaire publique Kanata"/><tag k="phone" v="+1-613-270-1043"/><tag k="fax" v="+1-613-270-1066"/><tag k="isced:level" v="1"/><tag k="addr:street" v="Halton Terrace"/><tag k="addr:housenumber" v="1385"/><tag k="addr:postcode" v="K2K 2P9"/><tag k="operator" v="Conseil des écoles publiques de l'Est de l'Ontario"/></node><node lat="45.353649" lon="-75.941806"  id="-103"  changeset="false" ><tag k="amenity" v="school"/><tag k="name" v="Jack Donohue Public School"/><tag k="name:en" v="Jack Donohue Public School"/><tag k="name:fr" v="École publique Jack Donohue"/><tag k="phone" v="+1-613-271-9776"/><tag k="fax" v="+1-613-271-7331"/><tag k="isced:level" v="1"/><tag k="addr:street" v="Penrith Street"/><tag k="addr:housenumber" v="101"/><tag k="addr:postcode" v="K2W 1H4"/><tag k="operator" v="Ottawa-Carleton District School Board"/></node><node lat="45.357561" lon="-75.927523"  id="-104"  changeset="false" ><tag k="amenity" v="school"/><tag k="name" v="South March Public School"/><tag k="name:en" v="South March Public School"/><tag k="name:fr" v="École publique South March"/><tag k="phone" v="+1-613-595-0543"/><tag k="fax" v="+1-613-595-0605"/><tag k="isced:level" v="1"/><tag k="addr:street" v="Klondike Road"/><tag k="addr:housenumber" v="1032"/><tag k="addr:postcode" v="K2K 1X7"/><tag k="operator" v="Ottawa-Carleton District School Board"/></node><node lat="45.35477" lon="-75.927087"  id="-105"  changeset="false" ><tag k="amenity" v="school"/><tag k="name" v="March Academy"/><tag k="name:en" v="March Academy"/><tag k="name:fr" v="Académie March"/><tag k="phone" v="+1-613-592-3398"/><tag k="fax" v="+1-null"/><tag k="isced:level" v="1"/><tag k="addr:street" v="Sandhill Road"/><tag k="addr:housenumber" v="325"/><tag k="addr:postcode" v="K2K 1X7"/><tag k="operator" v="Private"/></node><node lat="45.363733" lon="-75.672739"  id="-106"  changeset="false" ><tag k="amenity" v="school"/><tag k="name" v="George-Étienne-Cartier Catholic Elementary School"/><tag k="name:en" v="George-Étienne-Cartier Catholic Elementary School"/><tag k="name:fr" v="École élémentaire catholique George-Étienne-Cartier"/><tag k="phone" v="+1-613-731-6007"/><tag k="fax" v="+1-613-731-6016"/><tag k="isced:level" v="1"/><tag k="addr:street" v="Thorndale Drive"/><tag k="addr:housenumber" v="880"/><tag k="addr:postcode" v="K1V 6Y3"/><tag k="operator" v="Conseil des écoles catholiques du Centre-Est"/></node><node lat="45.362042" lon="-75.677895"  id="-107"  changeset="false" ><tag k="amenity" v="school"/><tag k="name" v="Fielding Dr Public School"/><tag k="name:en" v="Fielding Dr Public School"/><tag k="name:fr" v="École publique de la promenade Fielding"/><tag k="phone" v="+1-613-731-4928"/><tag k="fax" v="+1-613-733-0928"/><tag k="isced:level" v="1"/><tag k="addr:street" v="Fielding Drive"/><tag k="addr:housenumber" v="777"/><tag k="addr:postcode" v="K1V 7G1"/><tag k="operator" v="Ottawa-Carleton District School Board"/></node><node lat="45.342468" lon="-76.00318"  id="-108"  changeset="false" ><tag k="amenity" v="school"/><tag k="name" v="Venta Preparatory School"/><tag k="name:en" v="Venta Preparatory School"/><tag k="name:fr" v="École préparatoire Venta"/><tag k="phone" v="+1-613-839-2175"/><tag k="fax" v="+1-613-839-1956"/><tag k="isced:level" v="1"/><tag k="addr:street" v="Old Carp Road"/><tag k="addr:housenumber" v="2013"/><tag k="addr:postcode" v="K0A 1L0"/><tag k="operator" v="Private"/></node><node lat="45.299273" lon="-75.857448"  id="-109"  changeset="false" ><tag k="amenity" v="school"/><tag k="name" v="W.O. Mitchell Elementary School"/><tag k="name:en" v="W.O. Mitchell Elementary School"/><tag k="name:fr" v="École élémentaire W.O. Mitchell"/><tag k="phone" v="+1-613-271-1806"/><tag k="fax" v="+1-613-271-1813"/><tag k="isced:level" v="1"/><tag k="addr:street" v="Steeple Chase Drive"/><tag k="addr:housenumber" v="80"/><tag k="addr:postcode" v="K2M 2A6"/><tag k="operator" v="Ottawa-Carleton District School Board"/></node><node lat="45.287269" lon="-75.846671"  id="-110"  changeset="false" ><tag k="amenity" v="school"/><tag k="name" v="Élisabeth-Bruyère Catholic Elementary School"/><tag k="name:en" v="Élisabeth-Bruyère Catholic Elementary School"/><tag k="name:fr" v="École élémentaire catholique Élisabeth-Bruyère"/><tag k="phone" v="+1-613-521-0176"/><tag k="fax" v="+1-613-271-1558"/><tag k="isced:level" v="1"/><tag k="addr:street" v="Stonehaven Drive"/><tag k="addr:housenumber" v="100"/><tag k="addr:postcode" v="K2M 2H4"/><tag k="operator" v="Conseil des écoles catholiques du Centre-Est"/></node><node lat="45.253732" lon="-75.732436"  id="-111"  changeset="false" ><tag k="amenity" v="school"/><tag k="name" v="Saint Cecilia School"/><tag k="name:en" v="Saint Cecilia School"/><tag k="name:fr" v="École Saint Cecilia"/><tag k="phone" v="+1-613-692-6164"/><tag k="fax" v="+1-613-692-0073"/><tag k="isced:level" v="1"/><tag k="addr:street" v="Cambrian Road"/><tag k="addr:housenumber" v="3490"/><tag k="addr:postcode" v="K2J 0V1"/><tag k="operator" v="Ottawa Catholic School Board"/></node><node lat="45.245859" lon="-75.73618"  id="-112"  changeset="false" ><tag k="amenity" v="school"/><tag k="name" v="Catholic Elementary School Saint Kateri"/><tag k="name:en" v="Catholic Elementary School Saint Kateri"/><tag k="name:fr" v="École élémentaire catholique Sainte-Kateri"/><tag k="phone" v="+1-613-741-6754"/><tag k="fax" v="+1-613-692-1591"/><tag k="isced:level" v="1"/><tag k="addr:street" v="River Mist Road"/><tag k="addr:housenumber" v="2450"/><tag k="addr:postcode" v="K2J 5W5"/><tag k="operator" v="Conseil des écoles catholiques du Centre-Est"/></node><node lat="45.432128" lon="-75.509199"  id="-113"  changeset="false" ><tag k="amenity" v="school"/><tag k="name" v="Catholic Elementary School Notre-Dame-des-Champs"/><tag k="name:en" v="Catholic Elementary School Notre-Dame-des-Champs"/><tag k="name:fr" v="École élémentaire catholique Notre-Dame-des-Champs"/><tag k="phone" v="+1-613-741-5813"/><tag k="fax" v="+1-613-837-4823"/><tag k="isced:level" v="1"/><tag k="addr:street" v="Renaud Road"/><tag k="addr:housenumber" v="6280"/><tag k="addr:postcode" v="K1W 0H7"/><tag k="operator" v="Conseil des écoles catholiques du Centre-Est"/></node><node lat="45.429159" lon="-75.648554"  id="-114"  changeset="false" ><tag k="amenity" v="school"/><tag k="name" v="M.F. McHugh Education Centre"/><tag k="name:en" v="M.F. McHugh Education Centre"/><tag k="name:fr" v="Centre éducatif M.F. McHugh"/><tag k="phone" v="+1-613-747-6885"/><tag k="fax" v="+1-613-747-0258"/><tag k="isced:level" v="Unknown"/><tag k="addr:street" v="Donald Street"/><tag k="addr:housenumber" v="437"/><tag k="addr:postcode" v="K1K 1L8"/><tag k="operator" v="Ottawa Catholic School Board"/></node><node lat="45.384138" lon="-75.728705"  id="-115"  changeset="false" ><tag k="amenity" v="school"/><tag k="name" v="Saint Nicholas Virtual Academy"/><tag k="name:en" v="Saint Nicholas Virtual Academy"/><tag k="name:fr" v="Académie virtuelle Saint Nicholas"/><tag k="phone" v="+1-613-723-7757"/><tag k="fax" v="+1-613-228-9967"/><tag k="isced:level" v="Unknown"/><tag k="addr:street" v="Admiral Avenue"/><tag k="addr:housenumber" v="893"/><tag k="addr:postcode" v="K1Z 6L6"/><tag k="operator" v="Ottawa Catholic School Board"/></node><node lat="45.471406" lon="-76.216077"  id="-116"  changeset="false" ><tag k="amenity" v="school"/><tag k="name" v="Saint Michael, Fitzroy School"/><tag k="name:en" v="Saint Michael, Fitzroy School"/><tag k="name:fr" v="École Saint Michael, Fitzroy"/><tag k="phone" v="+1-613-623-3114"/><tag k="fax" v="+1-613-623-1984"/><tag k="isced:level" v="1"/><tag k="addr:street" v="Kedey Street"/><tag k="addr:housenumber" v="159"/><tag k="addr:postcode" v="K0A 1X0"/><tag k="operator" v="Ottawa Catholic School Board"/></node><node lat="45.146161" lon="-75.605333"  id="-117"  changeset="false" ><tag k="amenity" v="school"/><tag k="name" v="Osgoode Public School"/><tag k="name:en" v="Osgoode Public School"/><tag k="name:fr" v="École publique Osgoode"/><tag k="phone" v="+1-613-826-2550"/><tag k="fax" v="+1-613-826-1139"/><tag k="isced:level" v="1"/><tag k="addr:street" v="Osgoode Main Street"/><tag k="addr:housenumber" v="5590"/><tag k="addr:postcode" v="K0A 2W0"/><tag k="operator" v="Ottawa-Carleton District School Board"/></node><node lat="45.232851" lon="-75.470397"  id="-118"  changeset="false" ><tag k="amenity" v="school"/><tag k="name" v="Saint Catherine School"/><tag k="name:en" v="Saint Catherine School"/><tag k="name:fr" v="École Saint Catherine"/><tag k="phone" v="+1-613-821-1002"/><tag k="fax" v="+1-613-821-5088"/><tag k="isced:level" v="1"/><tag k="addr:street" v="8th Line Road"/><tag k="addr:housenumber" v="2717"/><tag k="addr:postcode" v="K0A 2P0"/><tag k="operator" v="Ottawa Catholic School Board"/></node><node lat="45.21636" lon="-75.517719"  id="-119"  changeset="false" ><tag k="amenity" v="school"/><tag k="name" v="Castor Valley Elementary School"/><tag k="name:en" v="Castor Valley Elementary School"/><tag k="name:fr" v="École élémentaire Castor Valley"/><tag k="phone" v="+1-613-821-1272"/><tag k="fax" v="+1-613-821-7937"/><tag k="isced:level" v="1"/><tag k="addr:street" v="Greys Crescenteek Road"/><tag k="addr:housenumber" v="2630"/><tag k="addr:postcode" v="K4P 1N2"/><tag k="operator" v="Ottawa-Carleton District School Board"/></node><node lat="45.233477" lon="-75.470848"  id="-120"  changeset="false" ><tag k="amenity" v="school"/><tag k="name" v="Metcalfe Public School"/><tag k="name:en" v="Metcalfe Public School"/><tag k="name:fr" v="École publique Metcalfe"/><tag k="phone" v="+1-613-821-2261"/><tag k="fax" v="+1-613-821-7801"/><tag k="isced:level" v="1"/><tag k="addr:street" v="8th Line Road"/><tag k="addr:housenumber" v="2701"/><tag k="addr:postcode" v="K0A 2P0"/><tag k="operator" v="Ottawa-Carleton District School Board"/></node><node lat="45.181873" lon="-75.354637"  id="-121"  changeset="false" ><tag k="amenity" v="school"/><tag k="name" v="Sainte-Thérèse-d'Avila Catholic Elementary School"/><tag k="name:en" v="Sainte-Thérèse-d'Avila Catholic Elementary School"/><tag k="name:fr" v="École élémentaire catholique Sainte-Thérèse-d'Avila"/><tag k="phone" v="+1-613-745-0282"/><tag k="fax" v="+1-613-445-0565"/><tag k="isced:level" v="1"/><tag k="addr:street" v="Marionville Road"/><tag k="addr:housenumber" v="9575"/><tag k="addr:postcode" v="K4R 1E5"/><tag k="operator" v="Conseil des écoles catholiques du Centre-Est"/></node><node lat="45.350413" lon="-75.624216"  id="-122"  changeset="false" ><tag k="amenity" v="school"/><tag k="name" v="Blossom Park Public School"/><tag k="name:en" v="Blossom Park Public School"/><tag k="name:fr" v="École publique Blossom Park"/><tag k="phone" v="+1-613-521-4299"/><tag k="fax" v="+1-613-521-9654"/><tag k="isced:level" v="1"/><tag k="addr:street" v="Sixth Street"/><tag k="addr:housenumber" v="3810"/><tag k="addr:postcode" v="K1T 1K6"/><tag k="operator" v="Ottawa-Carleton District School Board"/></node><node lat="45.349529" lon="-75.633525"  id="-123"  changeset="false" ><tag k="amenity" v="school"/><tag k="name" v="Sawmill Creek Elementary School"/><tag k="name:en" v="Sawmill Creek Elementary School"/><tag k="name:fr" v="École élémentaire Sawmill Creek"/><tag k="phone" v="+1-613-521-5922"/><tag k="fax" v="+1-613-521-8003"/><tag k="isced:level" v="1"/><tag k="addr:street" v="DAoust Avenue"/><tag k="addr:housenumber" v="3400"/><tag k="addr:postcode" v="K1T 1R5"/><tag k="operator" v="Ottawa-Carleton District School Board"/></node><node lat="45.352334" lon="-75.71252"  id="-124"  changeset="false" ><tag k="amenity" v="school"/><tag k="name" v="Laurier-Carrière Catholic Elementary School"/><tag k="name:en" v="Laurier-Carrière Catholic Elementary School"/><tag k="name:fr" v="École élémentaire catholique Laurier-Carrière"/><tag k="phone" v="+1-613-224-3211"/><tag k="fax" v="+1-613-225-3783"/><tag k="isced:level" v="1"/><tag k="addr:street" v="Four Seasons Drive"/><tag k="addr:housenumber" v="14"/><tag k="addr:postcode" v="K2E 7P8"/><tag k="operator" v="Conseil des écoles catholiques du Centre-Est"/></node><node lat="45.360071" lon="-75.710983"  id="-125"  changeset="false" ><tag k="amenity" v="school"/><tag k="name" v="Saint Rita School"/><tag k="name:en" v="Saint Rita School"/><tag k="name:fr" v="École Saint Rita"/><tag k="phone" v="+1-613-224-6341"/><tag k="fax" v="+1-613-224-6344"/><tag k="isced:level" v="1"/><tag k="addr:street" v="Inverness Avenue"/><tag k="addr:housenumber" v="1"/><tag k="addr:postcode" v="K2E 6N6"/><tag k="operator" v="Ottawa Catholic School Board"/></node><node lat="45.348497" lon="-75.721238"  id="-126"  changeset="false" ><tag k="amenity" v="school"/><tag k="name" v="Century Public School"/><tag k="name:en" v="Century Public School"/><tag k="name:fr" v="École publique Century"/><tag k="phone" v="+1-613-224-4903"/><tag k="fax" v="+1-613-224-1089"/><tag k="isced:level" v="1"/><tag k="addr:street" v="Redpine Drive"/><tag k="addr:housenumber" v="8"/><tag k="addr:postcode" v="K2E 6S9"/><tag k="operator" v="Ottawa-Carleton District School Board"/></node><node lat="45.354471" lon="-75.76307"  id="-127"  changeset="false" ><tag k="amenity" v="school"/><tag k="name" v="Saint Daniel School"/><tag k="name:en" v="Saint Daniel School"/><tag k="name:fr" v="École Saint Daniel"/><tag k="phone" v="+1-613-225-4603"/><tag k="fax" v="+1-613-225-4705"/><tag k="isced:level" v="1"/><tag k="addr:street" v="Field Street"/><tag k="addr:housenumber" v="1313"/><tag k="addr:postcode" v="K2C 2P9"/><tag k="operator" v="Ottawa Catholic School Board"/></node><node lat="45.436931" lon="-75.622743"  id="-128"  changeset="false" ><tag k="amenity" v="school"/><tag k="name" v="Carson Grove Elementary School"/><tag k="name:en" v="Carson Grove Elementary School"/><tag k="name:fr" v="École élémentaire Carson Grove"/><tag k="phone" v="+1-613-745-0195"/><tag k="fax" v="+1-613-745-0291"/><tag k="isced:level" v="1"/><tag k="addr:street" v="Matheson Road"/><tag k="addr:housenumber" v="1401"/><tag k="addr:postcode" v="K1J 8B5"/><tag k="operator" v="Ottawa-Carleton District School Board"/></node><node lat="45.365176" lon="-75.769647"  id="-129"  changeset="false" ><tag k="amenity" v="school"/><tag k="name" v="D. Roy Kennedy Public School"/><tag k="name:en" v="D. Roy Kennedy Public School"/><tag k="name:fr" v="École publique D. Roy Kennedy"/><tag k="phone" v="+1-613-728-1993"/><tag k="fax" v="+1-613-722-5858"/><tag k="isced:level" v="1"/><tag k="addr:street" v="Woodroffe Avenue"/><tag k="addr:housenumber" v="919"/><tag k="addr:postcode" v="K2A 3G9"/><tag k="operator" v="Ottawa-Carleton District School Board"/></node><node lat="45.440631" lon="-75.630311"  id="-130"  changeset="false" ><tag k="amenity" v="school"/><tag k="name" v="Montfort Catholic Elementary School"/><tag k="name:en" v="Montfort Catholic Elementary School"/><tag k="name:fr" v="École élémentaire catholique Montfort"/><tag k="phone" v="+1-613-745-3310"/><tag k="fax" v="+1-613-746-6785"/><tag k="isced:level" v="1"/><tag k="addr:street" v="Den Haag Road"/><tag k="addr:housenumber" v="350"/><tag k="addr:postcode" v="K1K 0W9"/><tag k="operator" v="Conseil des écoles catholiques du Centre-Est"/></node><node lat="45.414989" lon="-75.70456"  id="-131"  changeset="false" ><tag k="amenity" v="school"/><tag k="name" v="Centennial Public School"/><tag k="name:en" v="Centennial Public School"/><tag k="name:fr" v="École publique Centennial"/><tag k="phone" v="+1-613-239-2277"/><tag k="fax" v="+1-613-239-5979"/><tag k="isced:level" v="1"/><tag k="addr:street" v="Gloucester Street"/><tag k="addr:housenumber" v="376"/><tag k="addr:postcode" v="K1R 5E8"/><tag k="operator" v="Ottawa-Carleton District School Board"/></node><node lat="45.415623" lon="-75.689934"  id="-132"  changeset="false" ><tag k="amenity" v="school"/><tag k="name" v="Elgin St Public School"/><tag k="name:en" v="Elgin St Public School"/><tag k="name:fr" v="École publique de la rue Elgin"/><tag k="phone" v="+1-613-239-2231"/><tag k="fax" v="+1-613-239-2408"/><tag k="isced:level" v="1"/><tag k="addr:street" v="Elgin Street"/><tag k="addr:housenumber" v="310"/><tag k="addr:postcode" v="K2P 1M4"/><tag k="operator" v="Ottawa-Carleton District School Board"/></node><node lat="45.34351" lon="-75.727636"  id="-133"  changeset="false" ><tag k="amenity" v="school"/><tag k="name" v="Merivale High School"/><tag k="name:en" v="Merivale High School"/><tag k="name:fr" v="École secondaire Merivale"/><tag k="phone" v="+1-613-224-1807"/><tag k="fax" v="+1-613-224-1416"/><tag k="isced:level" v="3"/><tag k="addr:street" v="Merivale Road"/><tag k="addr:housenumber" v="1755"/><tag k="addr:postcode" v="K2G 1E2"/><tag k="operator" v="Ottawa-Carleton District School Board"/></node><node lat="45.439744" lon="-75.62738"  id="-134"  changeset="false" ><tag k="amenity" v="school"/><tag k="name" v="Minto Professional and Technical Centre"/><tag k="name:en" v="Minto Professional and Technical Centre"/><tag k="name:fr" v="Centre professionnel et technique Minto"/><tag k="phone" v="+1-613-842-5319"/><tag k="fax" v="+1-613-842-5118"/><tag k="isced:level" v="2;3"/><tag k="addr:street" v="Aviation Parkway"/><tag k="addr:housenumber" v="801"/><tag k="addr:postcode" v="K1K 4R3"/><tag k="operator" v="Conseil des écoles catholiques du Centre-Est"/></node><node lat="45.346929" lon="-75.765785"  id="-135"  changeset="false" ><tag k="amenity" v="school"/><tag k="name" v="Sir Guy Carleton Secondary School"/><tag k="name:en" v="Sir Guy Carleton Secondary School"/><tag k="name:fr" v="École secondaire Sir Guy Carleton"/><tag k="phone" v="+1-613-723-5136"/><tag k="fax" v="+1-613-723-8497"/><tag k="isced:level" v="2;3"/><tag k="addr:street" v="Centrepointe Drive"/><tag k="addr:housenumber" v="55"/><tag k="addr:postcode" v="K2G 5L4"/><tag k="operator" v="Ottawa-Carleton District School Board"/></node><node lat="45.42089" lon="-75.687988"  id="-136"  changeset="false" ><tag k="amenity" v="school"/><tag k="name" v="Lisgar Collegiate Institute"/><tag k="name:en" v="Lisgar Collegiate Institute"/><tag k="name:fr" v="Institut collégial Lisgar"/><tag k="phone" v="+1-613-239-2696"/><tag k="fax" v="+1-613-235-7497"/><tag k="isced:level" v="2;3"/><tag k="addr:street" v="Lisgar Street"/><tag k="addr:housenumber" v="29"/><tag k="addr:postcode" v="K2P 0B9"/><tag k="operator" v="Ottawa-Carleton District School Board"/></node><node lat="45.434645" lon="-75.641733"  id="-137"  changeset="false" ><tag k="amenity" v="school"/><tag k="name" v="Rideau High School"/><tag k="name:en" v="Rideau High School"/><tag k="name:fr" v="École secondaire Rideau"/><tag k="phone" v="+1-613-746-8196"/><tag k="fax" v="+1-613-746-7834"/><tag k="isced:level" v="3"/><tag k="addr:street" v="Saint-Laurent Boulevard"/><tag k="addr:housenumber" v="815"/><tag k="addr:postcode" v="K1K 3A7"/><tag k="operator" v="Ottawa-Carleton District School Board"/></node><node lat="45.455068" lon="-75.600254"  id="-138"  changeset="false" ><tag k="amenity" v="school"/><tag k="name" v="Colonel By Secondary School"/><tag k="name:en" v="Colonel By Secondary School"/><tag k="name:fr" v="École secondaire Colonel By"/><tag k="phone" v="+1-613-745-9411"/><tag k="fax" v="+1-613-745-4680"/><tag k="isced:level" v="2;3"/><tag k="addr:street" v="Ogilvie Road"/><tag k="addr:housenumber" v="2381"/><tag k="addr:postcode" v="K1J 7N4"/><tag k="operator" v="Ottawa-Carleton District School Board"/></node><node lat="45.263682" lon="-75.910118"  id="-139"  changeset="false" ><tag k="amenity" v="school"/><tag k="name" v="Sacred Heart High School"/><tag k="name:en" v="Sacred Heart High School"/><tag k="name:fr" v="École secondaire Sacred Heart"/><tag k="phone" v="+1-613-831-6643"/><tag k="fax" v="+1-613-831-6647"/><tag k="isced:level" v="3"/><tag k="addr:street" v="Abbott Street"/><tag k="addr:housenumber" v="5870"/><tag k="addr:postcode" v="K2S 1X4"/><tag k="operator" v="Ottawa Catholic School Board"/></node><node lat="45.321484" lon="-75.924697"  id="-140"  changeset="false" ><tag k="amenity" v="school"/><tag k="name" v="All Saints High School"/><tag k="name:en" v="All Saints High School"/><tag k="name:fr" v="École secondaire All Saints"/><tag k="phone" v="+1-613-271-4254"/><tag k="fax" v="+1-613-591-8127"/><tag k="isced:level" v="3"/><tag k="addr:street" v="Kanata Avenue"/><tag k="addr:housenumber" v="5115"/><tag k="addr:postcode" v="K2K 3K5"/><tag k="operator" v="Ottawa Catholic School Board"/></node><node lat="45.473199" lon="-75.493882"  id="-141"  changeset="false" ><tag k="amenity" v="school"/><tag k="name" v="Sir Wilfrid Laurier Secondary School"/><tag k="name:en" v="Sir Wilfrid Laurier Secondary School"/><tag k="name:fr" v="École secondaire Sir Wilfrid Laurier"/><tag k="phone" v="+1-613-834-4500"/><tag k="fax" v="+1-613-834-4511"/><tag k="isced:level" v="2;3"/><tag k="addr:street" v="Tenth Line Road"/><tag k="addr:housenumber" v="1515"/><tag k="addr:postcode" v="K1E 3E8"/><tag k="operator" v="Ottawa-Carleton District School Board"/></node><node lat="45.468109" lon="-75.457962"  id="-142"  changeset="false" ><tag k="amenity" v="school"/><tag k="name" v="Béatrice-Desloges Catholic High School"/><tag k="name:en" v="Béatrice-Desloges Catholic High School"/><tag k="name:fr" v="École secondaire catholique Béatrice-Desloges"/><tag k="phone" v="+1-613-820-3391"/><tag k="fax" v="+1-613-830-5457"/><tag k="isced:level" v="3"/><tag k="addr:street" v="Provence Avenue"/><tag k="addr:housenumber" v="1999"/><tag k="addr:postcode" v="K4A 3Y6"/><tag k="operator" v="Conseil des écoles catholiques du Centre-Est"/></node><node lat="45.186578" lon="-75.828075"  id="-143"  changeset="false" ><tag k="amenity" v="school"/><tag k="name" v="South Carleton High School"/><tag k="name:en" v="South Carleton High School"/><tag k="name:fr" v="École secondaire South Carleton"/><tag k="phone" v="+1-613-838-2212"/><tag k="fax" v="+1-613-838-5694"/><tag k="isced:level" v="3"/><tag k="addr:street" v="McBean Street"/><tag k="addr:housenumber" v="3673"/><tag k="addr:postcode" v="K0A 2Z0"/><tag k="operator" v="Ottawa-Carleton District School Board"/></node><node lat="45.380444" lon="-75.653201"  id="-144"  changeset="false" ><tag k="amenity" v="school"/><tag k="name" v="Saint Patrick's Intermediate School"/><tag k="name:en" v="Saint Patrick's Intermediate School"/><tag k="name:fr" v="École intermédiaire Saint Patrick's"/><tag k="phone" v="+1-613-733-3736"/><tag k="fax" v="+1-613-733-2125"/><tag k="isced:level" v="2"/><tag k="addr:street" v="Heron Road"/><tag k="addr:housenumber" v="1485"/><tag k="addr:postcode" v="K1V 6A6"/><tag k="operator" v="Ottawa Catholic School Board"/></node><node lat="45.434456" lon="-75.56262"  id="-145"  changeset="false" ><tag k="amenity" v="school"/><tag k="name" v="Emily Carr Middle School"/><tag k="name:en" v="Emily Carr Middle School"/><tag k="name:fr" v="École intermédiaire Emily Carr"/><tag k="phone" v="+1-613-824-5455"/><tag k="fax" v="+1-613-824-0487"/><tag k="isced:level" v="2"/><tag k="addr:street" v="Innes Road"/><tag k="addr:housenumber" v="2681"/><tag k="addr:postcode" v="K1B 3J7"/><tag k="operator" v="Ottawa-Carleton District School Board"/></node><node lat="45.310746" lon="-75.825746"  id="-146"  changeset="false" ><tag k="amenity" v="school"/><tag k="name" v="D. Aubrey Moodie Intermediate School"/><tag k="name:en" v="D. Aubrey Moodie Intermediate School"/><tag k="name:fr" v="École intermédiaire D. Aubrey Moodie"/><tag k="phone" v="+1-613-829-4080"/><tag k="fax" v="+1-613-828-1569"/><tag k="isced:level" v="2"/><tag k="addr:street" v="Moodie Drive"/><tag k="addr:housenumber" v="595"/><tag k="addr:postcode" v="K2H 8A8"/><tag k="operator" v="Ottawa-Carleton District School Board"/></node><node lat="45.439728" lon="-75.682008"  id="-147"  changeset="false" ><tag k="amenity" v="school"/><tag k="name" v="MacDonald-Cartier Academy"/><tag k="name:en" v="MacDonald-Cartier Academy"/><tag k="name:fr" v="Académie MacDonald-Cartier"/><tag k="phone" v="+1-613-744-8898"/><tag k="fax" v="+1-613-744-2150"/><tag k="isced:level" v="2"/><tag k="addr:street" v="Crichton Street"/><tag k="addr:housenumber" v="272"/><tag k="addr:postcode" v="K1M 1W4"/><tag k="operator" v="Private"/></node><node lat="45.32817" lon="-75.781512"  id="-148"  changeset="false" ><tag k="amenity" v="school"/><tag k="name" v="Greenbank Middle School"/><tag k="name:en" v="Greenbank Middle School"/><tag k="name:fr" v="École intermédiaire Greenbank"/><tag k="phone" v="+1-613-828-4587"/><tag k="fax" v="+1-613-828-8975"/><tag k="isced:level" v="2"/><tag k="addr:street" v="Greenbank Road"/><tag k="addr:housenumber" v="168"/><tag k="addr:postcode" v="K2H 5V2"/><tag k="operator" v="Ottawa-Carleton District School Board"/></node><node lat="45.395254" lon="-75.730759"  id="-149"  changeset="false" ><tag k="amenity" v="school"/><tag k="name" v="Fisher Park Public School / Summit Alternate School"/><tag k="name:en" v="Fisher Park Public School / Summit Alternate School"/><tag k="name:fr" v="Fisher Parc L'école publique / Sommet Alternative école"/><tag k="phone" v="+1-613-729-5054"/><tag k="fax" v="+1-613-729-5698"/><tag k="isced:level" v="2"/><tag k="addr:street" v="Holland Avenue"/><tag k="addr:housenumber" v="250"/><tag k="addr:postcode" v="K1Y 0Y6"/><tag k="operator" v="Ottawa-Carleton District School Board"/></node><node lat="45.354241" lon="-75.728371"  id="-150"  changeset="false" ><tag k="amenity" v="school"/><tag k="name" v="Sir Winston Churchill Public School"/><tag k="name:en" v="Sir Winston Churchill Public School"/><tag k="name:fr" v="École publique Sir Winston Churchill"/><tag k="phone" v="+1-613-224-2336"/><tag k="fax" v="+1-613-224-2544"/><tag k="isced:level" v="2"/><tag k="addr:street" v="Mulvagh Avenue"/><tag k="addr:housenumber" v="49"/><tag k="addr:postcode" v="K2E 6M7"/><tag k="operator" v="Ottawa-Carleton District School Board"/></node><node lat="45.351726" lon="-75.722264"  id="-151"  changeset="false" ><tag k="amenity" v="school"/><tag k="name" v="Frank Ryan Catholic Senior Elementary"/><tag k="name:en" v="Frank Ryan Catholic Senior Elementary"/><tag k="name:fr" v="École catholique du second cycle du primaire Frank Ryan"/><tag k="phone" v="+1-613-224-8833"/><tag k="fax" v="+1-613-224-0799"/><tag k="isced:level" v="2"/><tag k="addr:street" v="Chesterton Drive"/><tag k="addr:housenumber" v="128"/><tag k="addr:postcode" v="K2E 5T8"/><tag k="operator" v="Ottawa Catholic School Board"/></node><node lat="45.364149" lon="-75.76112"  id="-152"  changeset="false" ><tag k="amenity" v="school"/><tag k="name" v="J. H. Putman Middle School"/><tag k="name:en" v="J. H. Putman Middle School"/><tag k="name:fr" v="École intermédiaire J. H. Putman"/><tag k="phone" v="+1-613-225-4646"/><tag k="fax" v="+1-613-727-8389"/><tag k="isced:level" v="2"/><tag k="addr:street" v="Bel-Air Drive"/><tag k="addr:housenumber" v="2051"/><tag k="addr:postcode" v="K2C 0X2"/><tag k="operator" v="Ottawa-Carleton District School Board"/></node><node lat="45.230189" lon="-75.901657"  id="-153"  changeset="false" ><tag k="amenity" v="school"/><tag k="name" v="Goulbourn Middle School"/><tag k="name:en" v="Goulbourn Middle School"/><tag k="name:fr" v="École intermédiaire Goulbourn"/><tag k="phone" v="+1-613-836-1312"/><tag k="fax" v="+1-613-836-3558"/><tag k="isced:level" v="2"/><tag k="addr:street" v="Huntley Drive"/><tag k="addr:housenumber" v="2176"/><tag k="addr:postcode" v="K2S 1B8"/><tag k="operator" v="Ottawa-Carleton District School Board"/></node><node lat="45.457847" lon="-75.59668"  id="-154"  changeset="false" ><tag k="amenity" v="school"/><tag k="name" v="Henry Munro Middle School"/><tag k="name:en" v="Henry Munro Middle School"/><tag k="name:fr" v="École intermédiaire Henry Munro"/><tag k="phone" v="+1-613-748-0060"/><tag k="fax" v="+1-613-749-3187"/><tag k="isced:level" v="2"/><tag k="addr:street" v="Kender Avenue"/><tag k="addr:housenumber" v="2105"/><tag k="addr:postcode" v="K1J 6J7"/><tag k="operator" v="Ottawa-Carleton District School Board"/></node><node lat="45.273271" lon="-75.737005"  id="-155"  changeset="false" ><tag k="amenity" v="school"/><tag k="name" v="Pierre-Savard Catholic Secondary School"/><tag k="name:en" v="Pierre-Savard Catholic Secondary School"/><tag k="name:fr" v="École secondaire catholique Pierre-Savard"/><tag k="phone" v="+1-613-820-7293"/><tag k="fax" v="+1-613-823-9767"/><tag k="isced:level" v="2"/><tag k="addr:street" v="Longfields Drive"/><tag k="addr:housenumber" v="1110"/><tag k="addr:postcode" v="K2J 0H9"/><tag k="operator" v="Conseil des écoles catholiques du Centre-Est"/></node><node lat="45.152444" lon="-75.650498"  id="-156"  changeset="false" ><tag k="amenity" v="school"/><tag k="name" v="Kars on the Rideau Public School"/><tag k="name:en" v="Kars on the Rideau Public School"/><tag k="name:fr" v="École publique Kars on the Rideau"/><tag k="phone" v="+1-613-489-2024"/><tag k="fax" v="+1-613-489-4254"/><tag k="isced:level" v="1"/><tag k="addr:street" v="Dorack Drive"/><tag k="addr:housenumber" v="6680"/><tag k="addr:postcode" v="K0A 2E0"/><tag k="operator" v="Ottawa-Carleton District School Board"/></node><node lat="45.473516" lon="-75.552625"  id="-157"  changeset="false" ><tag k="amenity" v="school"/><tag k="name" v="Des Voyageurs Catholic Elementary School"/><tag k="name:en" v="Des Voyageurs Catholic Elementary School"/><tag k="name:fr" v="École élémentaire catholique des Voyageurs"/><tag k="phone" v="+1-613-744-8345"/><tag k="fax" v="+1-613-837-9081"/><tag k="isced:level" v="1"/><tag k="addr:street" v="Voyageur Drive"/><tag k="addr:housenumber" v="6030"/><tag k="addr:postcode" v="K1C 2T1"/><tag k="operator" v="Conseil des écoles catholiques du Centre-Est"/></node><node lat="45.483382" lon="-75.528397"  id="-158"  changeset="false" ><tag k="amenity" v="school"/><tag k="name" v="Orleans Wood Elementary School"/><tag k="name:en" v="Orleans Wood Elementary School"/><tag k="name:fr" v="Montessori Orléans"/><tag k="phone" v="+1-613-837-4622"/><tag k="fax" v="+1-613-837-0375"/><tag k="isced:level" v="1"/><tag k="addr:street" v="Decarie Drive"/><tag k="addr:housenumber" v="7859"/><tag k="addr:postcode" v="K1C 2J4"/><tag k="operator" v="Ottawa-Carleton District School Board"/></node><node lat="45.468467" lon="-75.535888"  id="-159"  changeset="false" ><tag k="amenity" v="school"/><tag k="name" v="L'Odyssée Public Elementary School"/><tag k="name:en" v="L'Odyssée Public Elementary School"/><tag k="name:fr" v="École élémentaire publique L'Odyssée"/><tag k="phone" v="+1-613-834-2097"/><tag k="fax" v="+1-613-834-3614"/><tag k="isced:level" v="1"/><tag k="addr:street" v="Grey Nuns Drive"/><tag k="addr:housenumber" v="1770"/><tag k="addr:postcode" v="K1C 1C3"/><tag k="operator" v="Conseil des écoles publiques de l'Est de l'Ontario"/></node><node lat="45.469864" lon="-75.536546"  id="-160"  changeset="false" ><tag k="amenity" v="school"/><tag k="name" v="Convent Glen Elementary School"/><tag k="name:en" v="Convent Glen Elementary School"/><tag k="name:fr" v="École élémentaire Convent Glen"/><tag k="phone" v="+1-613-824-8177"/><tag k="fax" v="+1-613-824-1714"/><tag k="isced:level" v="1"/><tag k="addr:street" v="Grey Nuns Drive"/><tag k="addr:housenumber" v="1708"/><tag k="addr:postcode" v="K1C 1C1"/><tag k="operator" v="Ottawa-Carleton District School Board"/></node><node lat="45.430829" lon="-75.564536"  id="-161"  changeset="false" ><tag k="amenity" v="school"/><tag k="name" v="Life Christian Academy"/><tag k="name:en" v="Life Christian Academy"/><tag k="name:fr" v="Académie chrétienne Life"/><tag k="phone" v="+1-613-800-9368"/><tag k="fax" v="+1-613-834-6589"/><tag k="isced:level" v="1"/><tag k="addr:street" v="Glen Park Drive"/><tag k="addr:housenumber" v="209"/><tag k="addr:postcode" v="K1C 5B8"/><tag k="operator" v="Private"/></node><node lat="45.374138" lon="-75.606089"  id="-162"  changeset="false" ><tag k="amenity" v="school"/><tag k="name" v="Saint Thomas More School"/><tag k="name:en" v="Saint Thomas More School"/><tag k="name:fr" v="École Saint Thomas More"/><tag k="phone" v="+1-613-739-7131"/><tag k="fax" v="+1-613-739-1937"/><tag k="isced:level" v="1"/><tag k="addr:street" v="Blohm Drive"/><tag k="addr:housenumber" v="1620"/><tag k="addr:postcode" v="K1G 5N6"/><tag k="operator" v="Ottawa Catholic School Board"/></node><node lat="45.368569" lon="-75.620622"  id="-163"  changeset="false" ><tag k="amenity" v="school"/><tag k="name" v="Robert Bateman Public School"/><tag k="name:en" v="Robert Bateman Public School"/><tag k="name:fr" v="École publique Robert Bateman"/><tag k="phone" v="+1-613-737-3169"/><tag k="fax" v="+1-613-737-4651"/><tag k="isced:level" v="1"/><tag k="addr:street" v="Blohm Drive"/><tag k="addr:housenumber" v="1250"/><tag k="addr:postcode" v="K1G 5R8"/><tag k="operator" v="Ottawa-Carleton District School Board"/></node><node lat="45.390206" lon="-75.631153"  id="-164"  changeset="false" ><tag k="amenity" v="school"/><tag k="name" v="Sainte-Geneviève Catholic Elementary School"/><tag k="name:en" v="Sainte-Geneviève Catholic Elementary School"/><tag k="name:fr" v="École élémentaire catholique Sainte-Geneviève"/><tag k="phone" v="+1-613-733-9729"/><tag k="fax" v="+1-613-733-3451"/><tag k="isced:level" v="1"/><tag k="addr:street" v="Arch Street"/><tag k="addr:housenumber" v="2198"/><tag k="addr:postcode" v="K1G 2H7"/><tag k="operator" v="Conseil des écoles catholiques du Centre-Est"/></node><node lat="45.391843" lon="-75.630183"  id="-165"  changeset="false" ><tag k="amenity" v="school"/><tag k="name" v="Arch St Public School"/><tag k="name:en" v="Arch St Public School"/><tag k="name:fr" v="École publique de la rue Arch"/><tag k="phone" v="+1-613-733-0205"/><tag k="fax" v="+1-613-733-5862"/><tag k="isced:level" v="1"/><tag k="addr:street" v="Arch Street"/><tag k="addr:housenumber" v="2129"/><tag k="addr:postcode" v="K1G 2H5"/><tag k="operator" v="Ottawa-Carleton District School Board"/></node><node lat="45.392298" lon="-75.620265"  id="-166"  changeset="false" ><tag k="amenity" v="school"/><tag k="name" v="Hawthorne Public School"/><tag k="name:en" v="Hawthorne Public School"/><tag k="name:fr" v="École publique Hawthorne"/><tag k="phone" v="+1-613-733-6221"/><tag k="fax" v="+1-613-521-1765"/><tag k="isced:level" v="1"/><tag k="addr:street" v="Saint Laurent Boulevard"/><tag k="addr:housenumber" v="2158"/><tag k="addr:postcode" v="K1G 1A9"/><tag k="operator" v="Ottawa-Carleton District School Board"/></node><node lat="45.42162" lon="-75.604771"  id="-167"  changeset="false" ><tag k="amenity" v="school"/><tag k="name" v="Des Pins Catholic Elementary School"/><tag k="name:en" v="Des Pins Catholic Elementary School"/><tag k="name:fr" v="École élémentaire catholique des Pins"/><tag k="phone" v="+1-613-741-2354"/><tag k="fax" v="+1-613-741-6839"/><tag k="isced:level" v="1"/><tag k="addr:street" v="Ridgebrook Drive"/><tag k="addr:housenumber" v="1487"/><tag k="addr:postcode" v="K1B 4K6"/><tag k="operator" v="Conseil des écoles catholiques du Centre-Est"/></node><node lat="45.386739" lon="-75.646697"  id="-168"  changeset="false" ><tag k="amenity" v="school"/><tag k="name" v="Saint Gemma School"/><tag k="name:en" v="Saint Gemma School"/><tag k="name:fr" v="École Saint Gemma"/><tag k="phone" v="+1-613-731-8841"/><tag k="fax" v="+1-613-731-8842"/><tag k="isced:level" v="1"/><tag k="addr:street" v="McMaster Avenue"/><tag k="addr:housenumber" v="1760"/><tag k="addr:postcode" v="K1H 6R8"/><tag k="operator" v="Ottawa Catholic School Board"/></node><node lat="45.383851" lon="-75.64591"  id="-169"  changeset="false" ><tag k="amenity" v="school"/><tag k="name" v="Featherston Dr Public School"/><tag k="name:en" v="Featherston Dr Public School"/><tag k="name:fr" v="École publique de la promenade Featherstone"/><tag k="phone" v="+1-613-731-3357"/><tag k="fax" v="+1-613-731-6353"/><tag k="isced:level" v="1"/><tag k="addr:street" v="Featherston Drive"/><tag k="addr:housenumber" v="1801"/><tag k="addr:postcode" v="K1H 6P4"/><tag k="operator" v="Ottawa-Carleton District School Board"/></node><node lat="45.39263" lon="-75.646276"  id="-170"  changeset="false" ><tag k="amenity" v="school"/><tag k="name" v="Pleasant Park Public School"/><tag k="name:en" v="Pleasant Park Public School"/><tag k="name:fr" v="École publique du Pleasant Park"/><tag k="phone" v="+1-613-733-5253"/><tag k="fax" v="+1-613-733-2375"/><tag k="isced:level" v="1"/><tag k="addr:street" v="Pleasant Park Road"/><tag k="addr:housenumber" v="564"/><tag k="addr:postcode" v="K1H 5N1"/><tag k="operator" v="Ottawa-Carleton District School Board"/></node><node lat="45.341376" lon="-75.798819"  id="-171"  changeset="false" ><tag k="amenity" v="school"/><tag k="name" v="Académie de la Capitale"/><tag k="name:en" v="Académie de la Capitale"/><tag k="name:fr" v="Académie de la Capitale"/><tag k="phone" v="+1-613-721-3872"/><tag k="fax" v="+1-613-820-7392"/><tag k="isced:level" v="1"/><tag k="addr:street" v="Morrison Drive"/><tag k="addr:housenumber" v="1010"/><tag k="addr:postcode" v="K2H 8K7"/><tag k="operator" v="Private"/></node><node lat="45.342236" lon="-75.790961"  id="-172"  changeset="false" ><tag k="amenity" v="school"/><tag k="name" v="Grant Alternative School"/><tag k="name:en" v="Grant Alternative School"/><tag k="name:fr" v="École alternative Grant"/><tag k="phone" v="+1-613-596-0188"/><tag k="fax" v="+1-613-596-5581"/><tag k="isced:level" v="1"/><tag k="addr:street" v="Draper Avenue"/><tag k="addr:housenumber" v="2625"/><tag k="addr:postcode" v="K2H 7A1"/><tag k="operator" v="Ottawa-Carleton District School Board"/></node><node lat="45.472546" lon="-75.508214"  id="-173"  changeset="false" ><tag k="amenity" v="school"/><tag k="name" v="La Source Individualized Instruction Catholic Elementary School"/><tag k="name:en" v="La Source Individualized Instruction Catholic Elementary School"/><tag k="name:fr" v="École élémentaire catholique d'enseignement personnalisé La Source"/><tag k="phone" v="+1-613-744-8346"/><tag k="fax" v="+1-613-841-2372"/><tag k="isced:level" v="1"/><tag k="addr:street" v="Duford Drive"/><tag k="addr:housenumber" v="1445"/><tag k="addr:postcode" v="K1E 1E8"/><tag k="operator" v="Conseil des écoles catholiques du Centre-Est"/></node><node lat="45.467605" lon="-75.500955"  id="-174"  changeset="false" ><tag k="amenity" v="school"/><tag k="name" v="Our Lady Of Wisdom School"/><tag k="name:en" v="Our Lady Of Wisdom School"/><tag k="name:fr" v="École Our Lady Of Wisdom"/><tag k="phone" v="+1-613-824-9700"/><tag k="fax" v="+1-613-824-9010"/><tag k="isced:level" v="1"/><tag k="addr:street" v="Saint George Street"/><tag k="addr:housenumber" v="1565"/><tag k="addr:postcode" v="K1E 1R2"/><tag k="operator" v="Ottawa Catholic School Board"/></node><node lat="45.466856" lon="-75.498666"  id="-175"  changeset="false" ><tag k="amenity" v="school"/><tag k="name" v="Dunning-Foubert Elementary School"/><tag k="name:en" v="Dunning-Foubert Elementary School"/><tag k="name:fr" v="École élémentaire Dunning-Foubert"/><tag k="phone" v="+1-613-824-5800"/><tag k="fax" v="+1-613-824-6934"/><tag k="isced:level" v="1"/><tag k="addr:street" v="Prestwick Drive"/><tag k="addr:housenumber" v="1610"/><tag k="addr:postcode" v="K1E 2N1"/><tag k="operator" v="Ottawa-Carleton District School Board"/></node><node lat="45.471892" lon="-75.509563"  id="-176"  changeset="false" ><tag k="amenity" v="school"/><tag k="name" v="Reine-des-Bois Catholic Elementary School"/><tag k="name:en" v="Reine-des-Bois Catholic Elementary School"/><tag k="name:fr" v="École élémentaire catholique Reine-des-Bois"/><tag k="phone" v="+1-613-744-8647"/><tag k="fax" v="+1-613-824-5596"/><tag k="isced:level" v="1"/><tag k="addr:street" v="Duford Street"/><tag k="addr:housenumber" v="1450"/><tag k="addr:postcode" v="K1E 1E6"/><tag k="operator" v="Conseil des écoles catholiques du Centre-Est"/></node><node lat="45.367688" lon="-75.674622"  id="-177"  changeset="false" ><tag k="amenity" v="school"/><tag k="name" v="General Vanier Public School"/><tag k="name:en" v="General Vanier Public School"/><tag k="name:fr" v="École publique Général Vanier"/><tag k="phone" v="+1-613-731-3631"/><tag k="fax" v="+1-613-521-5597"/><tag k="isced:level" v="1"/><tag k="addr:street" v="Harkness Avenue"/><tag k="addr:housenumber" v="1025"/><tag k="addr:postcode" v="K1V 6N9"/><tag k="operator" v="Ottawa-Carleton District School Board"/></node><node lat="45.434434" lon="-76.034642"  id="-178"  changeset="false" ><tag k="amenity" v="school"/><tag k="name" v="West Carleton Secondary School"/><tag k="name:en" v="West Carleton Secondary School"/><tag k="name:fr" v="École secondaire West Carleton"/><tag k="phone" v="+1-613-832-2773"/><tag k="fax" v="+1-613-832-0412"/><tag k="isced:level" v="2;3"/><tag k="addr:street" v="Dunrobin Road"/><tag k="addr:housenumber" v="3088"/><tag k="addr:postcode" v="K0A 1T0"/><tag k="operator" v="Ottawa-Carleton District School Board"/></node><node lat="45.228826" lon="-75.470067"  id="-179"  changeset="false" ><tag k="amenity" v="school"/><tag k="name" v="Osgoode Township High School"/><tag k="name:en" v="Osgoode Township High School"/><tag k="name:fr" v="École secondaire du Canton d'Osgoode"/><tag k="phone" v="+1-613-821-2241"/><tag k="fax" v="+1-613-821-0684"/><tag k="isced:level" v="3"/><tag k="addr:street" v="Line Road"/><tag k="addr:housenumber" v="2800"/><tag k="addr:postcode" v="K0A 2P0"/><tag k="operator" v="Ottawa-Carleton District School Board"/></node><node lat="45.279162" lon="-75.763068"  id="-180"  changeset="false" ><tag k="amenity" v="school"/><tag k="name" v="John McCrae Secondary School"/><tag k="name:en" v="John McCrae Secondary School"/><tag k="name:fr" v="École secondaire John McCrae"/><tag k="phone" v="+1-613-823-0367"/><tag k="fax" v="+1-613-823-3755"/><tag k="isced:level" v="2;3"/><tag k="addr:street" v="Malvern Drive"/><tag k="addr:housenumber" v="103"/><tag k="addr:postcode" v="K2J 4T2"/><tag k="operator" v="Ottawa-Carleton District School Board"/></node><node lat="45.438752" lon="-75.598864"  id="-181"  changeset="false" ><tag k="amenity" v="school"/><tag k="name" v="Gloucester High School"/><tag k="name:en" v="Gloucester High School"/><tag k="name:fr" v="École secondaire Gloucester"/><tag k="phone" v="+1-613-745-7176"/><tag k="fax" v="+1-613-745-5756"/><tag k="isced:level" v="3"/><tag k="addr:street" v="Ogilvie Road"/><tag k="addr:housenumber" v="2060"/><tag k="addr:postcode" v="K1J  7N8"/><tag k="operator" v="Ottawa-Carleton District School Board"/></node><node lat="45.322527" lon="-75.894043"  id="-182"  changeset="false" ><tag k="amenity" v="school"/><tag k="name" v="Earl Of March Secondary School"/><tag k="name:en" v="Earl Of March Secondary School"/><tag k="name:fr" v="École secondaire Earl Of March"/><tag k="phone" v="+1-613-592-3361"/><tag k="fax" v="+1-613-592-9501"/><tag k="isced:level" v="2;3"/><tag k="addr:street" v="The Parkway"/><tag k="addr:housenumber" v="4"/><tag k="addr:postcode" v="K2K 1Y4"/><tag k="operator" v="Ottawa-Carleton District School Board"/></node><node lat="45.295124" lon="-75.879875"  id="-183"  changeset="false" ><tag k="amenity" v="school"/><tag k="name" v="A.Y. Jackson Secondary School"/><tag k="name:en" v="A.Y. Jackson Secondary School"/><tag k="name:fr" v="École secondaire A.Y. Jackson"/><tag k="phone" v="+1-613-836-2527"/><tag k="fax" v="+1-613-836-5672"/><tag k="isced:level" v="2;3"/><tag k="addr:street" v="Abbeyhill Drive"/><tag k="addr:housenumber" v="150"/><tag k="addr:postcode" v="K2L 1H7"/><tag k="operator" v="Ottawa-Carleton District School Board"/></node><node lat="45.262602" lon="-75.73966"  id="-184"  changeset="false" ><tag k="amenity" v="school"/><tag k="name" v="Saint Joseph High School"/><tag k="name:en" v="Saint Joseph High School"/><tag k="name:fr" v="École secondaire Saint Joseph"/><tag k="phone" v="+1-613-823-4797"/><tag k="fax" v="+1-613-823-9573"/><tag k="isced:level" v="3"/><tag k="addr:street" v="Greenbank Road"/><tag k="addr:housenumber" v="3333"/><tag k="addr:postcode" v="K2J 4J1"/><tag k="operator" v="Ottawa Catholic School Board"/></node><node lat="45.41147" lon="-75.681057"  id="-185"  changeset="false" ><tag k="amenity" v="school"/><tag k="name" v="Saint Nicholas Adult High School (Central Campus)"/><tag k="name:en" v="Saint Nicholas Adult High School (Central Campus)"/><tag k="name:fr" v="École secondaire pour adultes St, Nicholas (Campus Centre)"/><tag k="phone" v="+1-613-234-2768"/><tag k="fax" v="+1-613-234-8125"/><tag k="isced:level" v="3"/><tag k="addr:street" v="Graham Avenue"/><tag k="addr:housenumber" v="20"/><tag k="addr:postcode" v="K1S 0B7"/><tag k="operator" v="Ottawa Catholic School Board"/></node><node lat="45.410267" lon="-75.679416"  id="-186"  changeset="false" ><tag k="amenity" v="school"/><tag k="name" v="Immaculata High School"/><tag k="name:en" v="Immaculata High School"/><tag k="name:fr" v="École secondaire Immaculata"/><tag k="phone" v="+1-613-237-2001"/><tag k="fax" v="+1-613-563-8884"/><tag k="isced:level" v="3"/><tag k="addr:street" v="Main Street"/><tag k="addr:housenumber" v="140"/><tag k="addr:postcode" v="K1S 5P4"/><tag k="operator" v="Ottawa Catholic School Board"/></node><node lat="45.404548" lon="-75.709709"  id="-187"  changeset="false" ><tag k="amenity" v="school"/><tag k="name" v="Adult High School"/><tag k="name:en" v="Adult High School"/><tag k="name:fr" v="École secondaire pour adultes"/><tag k="phone" v="+1-613-239-2707"/><tag k="fax" v="+1-613-232-1616"/><tag k="isced:level" v="3"/><tag k="addr:street" v="Rochester Street"/><tag k="addr:housenumber" v="300"/><tag k="addr:postcode" v="K1R 7N4"/><tag k="operator" v="Ottawa-Carleton District School Board"/></node><node lat="45.362381" lon="-75.780265"  id="-188"  changeset="false" ><tag k="amenity" v="school"/><tag k="name" v="Woodroffe High School"/><tag k="name:en" v="Woodroffe High School"/><tag k="name:fr" v="École secondaire Woodroffe"/><tag k="phone" v="+1-613-820-7186"/><tag k="fax" v="+1-613-820-5993"/><tag k="isced:level" v="3"/><tag k="addr:street" v="Georgina Drive"/><tag k="addr:housenumber" v="2410"/><tag k="addr:postcode" v="K2B 7M8"/><tag k="operator" v="Ottawa-Carleton District School Board"/></node><node lat="45.332234" lon="-75.781386"  id="-189"  changeset="false" ><tag k="amenity" v="school"/><tag k="name" v="Sir Robert Borden High School"/><tag k="name:en" v="Sir Robert Borden High School"/><tag k="name:fr" v="École secondaire Sir Robert Borden"/><tag k="phone" v="+1-613-829-5320"/><tag k="fax" v="+1-613-829-1287"/><tag k="isced:level" v="3"/><tag k="addr:street" v="Greenbank Road"/><tag k="addr:housenumber" v="131"/><tag k="addr:postcode" v="K2H 8R1"/><tag k="operator" v="Ottawa-Carleton District School Board"/></node><node lat="45.510386" lon="-75.424987"  id="-190"  changeset="false" ><tag k="amenity" v="school"/><tag k="name" v="Collège Sphere College"/><tag k="name:en" v="Collège Sphere College"/><tag k="name:fr" v="Collège Sphere"/><tag k="phone" v="+1-613-842-9111"/><tag k="fax" v="+1-613-744-3681"/><tag k="isced:level" v="2;3"/><tag k="addr:street" v="Quigley Hill Road"/><tag k="addr:housenumber" v="1095"/><tag k="addr:postcode" v="K4C 1H2"/><tag k="operator" v="Private"/></node><node lat="45.349348" lon="-75.844176"  id="-191"  changeset="false" ><tag k="amenity" v="school"/><tag k="name" v="Crystal Bay Centre for Special Education"/><tag k="name:en" v="Crystal Bay Centre for Special Education"/><tag k="name:fr" v="Centre d'éducation spéciale Crystal Bay"/><tag k="phone" v="+1-613-828-5376"/><tag k="fax" v="+1-613-828-0713"/><tag k="isced:level" v="Unknown"/><tag k="addr:street" v="Moodie Drive"/><tag k="addr:housenumber" v="31"/><tag k="addr:postcode" v="K2H 8G1"/><tag k="operator" v="Ottawa-Carleton District School Board"/></node><node lat="45.367693" lon="-75.656877"  id="-192"  changeset="false" ><tag k="amenity" v="school"/><tag k="name" v="Clifford Bowey Public School"/><tag k="name:en" v="Clifford Bowey Public School"/><tag k="name:fr" v="École publique Clifford Bowey"/><tag k="phone" v="+1-613-737-4401"/><tag k="fax" v="+1-613-737-7548"/><tag k="isced:level" v="Unknown"/><tag k="addr:street" v="Kitchener Avenue"/><tag k="addr:housenumber" v="1300"/><tag k="addr:postcode" v="K1V 6W2"/><tag k="operator" v="Ottawa-Carleton District School Board"/></node><node lat="45.422471" lon="-75.63932"  id="-193"  changeset="false" ><tag k="amenity" v="school"/><tag k="name" v="Storefront School"/><tag k="name:en" v="Storefront School"/><tag k="name:fr" v="École Storefront"/><tag k="phone" v="+1-613-749-9550"/><tag k="fax" v="+1-613-749-9174"/><tag k="isced:level" v="Unknown"/><tag k="addr:street" v="St Laurent Boulevard"/><tag k="addr:housenumber" v="1400"/><tag k="addr:postcode" v="K1K 4H4"/><tag k="operator" v="Ottawa-Carleton District School Board"/></node><node lat="45.406314" lon="-75.708412"  id="-194"  changeset="false" ><tag k="amenity" v="school"/><tag k="name" v="Saint Anthony School"/><tag k="name:en" v="Saint Anthony School"/><tag k="name:fr" v="École Saint Anthony"/><tag k="phone" v="+1-613-235-0340"/><tag k="fax" v="+1-613-236-9466"/><tag k="isced:level" v="1"/><tag k="addr:street" v="Booth Street"/><tag k="addr:housenumber" v="391"/><tag k="addr:postcode" v="K1R 7K5"/><tag k="operator" v="Ottawa Catholic School Board"/></node><node lat="45.407893" lon="-75.705172"  id="-195"  changeset="false" ><tag k="amenity" v="school"/><tag k="name" v="Cambridge St Community Public School"/><tag k="name:en" v="Cambridge St Community Public School"/><tag k="name:fr" v="École publique communautaire de la rue Cambridge"/><tag k="phone" v="+1-613-239-2216"/><tag k="fax" v="+1-613-239-5981"/><tag k="isced:level" v="1"/><tag k="addr:street" v="Cambridge Street North"/><tag k="addr:housenumber" v="250"/><tag k="addr:postcode" v="K1R 7B2"/><tag k="operator" v="Ottawa-Carleton District School Board"/></node><node lat="45.395279" lon="-75.744479"  id="-196"  changeset="false" ><tag k="amenity" v="school"/><tag k="name" v="Hilson Avenue Public School"/><tag k="name:en" v="Hilson Avenue Public School"/><tag k="name:fr" v="École publique de l'avenue Hilson"/><tag k="phone" v="+1-613-728-4607"/><tag k="fax" v="+1-613-729-0826"/><tag k="isced:level" v="1"/><tag k="addr:street" v="Hillson Avenue"/><tag k="addr:housenumber" v="407"/><tag k="addr:postcode" v="K1Z 6B9"/><tag k="operator" v="Ottawa-Carleton District School Board"/></node><node lat="45.399002" lon="-75.752942"  id="-197"  changeset="false" ><tag k="amenity" v="school"/><tag k="name" v="Centre Jules Léger"/><tag k="name:en" v="Centre Jules Léger"/><tag k="name:fr" v="Centre Jules Léger"/><tag k="phone" v="+1-613-761-9300"/><tag k="fax" v="+1-613-761-9301"/><tag k="isced:level" v="1"/><tag k="addr:street" v="Lanark Street"/><tag k="addr:housenumber" v="281"/><tag k="addr:postcode" v="K1Z 6R8"/><tag k="operator" v="Private"/></node><node lat="45.357182" lon="-75.78342"  id="-198"  changeset="false" ><tag k="amenity" v="school"/><tag k="name" v="Severn Avenue Public School"/><tag k="name:en" v="Severn Avenue Public School"/><tag k="name:fr" v="École publique de l'avenue Severn"/><tag k="phone" v="+1-613-829-8082"/><tag k="fax" v="+1-613-596-6063"/><tag k="isced:level" v="1"/><tag k="addr:street" v="Severn Avenue"/><tag k="addr:housenumber" v="2553"/><tag k="addr:postcode" v="K2B 7V8"/><tag k="operator" v="Ottawa-Carleton District School Board"/></node><node lat="45.362828" lon="-75.77698"  id="-199"  changeset="false" ><tag k="amenity" v="school"/><tag k="name" v="Édouard-Bond Individualized Instruction Catholic Elementary School"/><tag k="name:en" v="Édouard-Bond Individualized Instruction Catholic Elementary School"/><tag k="name:fr" v="École élémentaire catholique d'enseignement personnalisé Édouard-Bond"/><tag k="phone" v="+1-613-820-4045"/><tag k="fax" v="+1-613-820-5771"/><tag k="isced:level" v="1"/><tag k="addr:street" v="Parkhaven Avenue"/><tag k="addr:housenumber" v="920"/><tag k="addr:postcode" v="K2B 5K3"/><tag k="operator" v="Conseil des écoles catholiques du Centre-Est"/></node><node lat="45.344026" lon="-75.739887"  id="-200"  changeset="false" ><tag k="amenity" v="school"/><tag k="name" v="Abraar School"/><tag k="name:en" v="Abraar School"/><tag k="name:fr" v="École Abraar"/><tag k="phone" v="+1-613-226-1396"/><tag k="fax" v="+1-613-226-2745"/><tag k="isced:level" v="1"/><tag k="addr:street" v="Fieldrow Street"/><tag k="addr:housenumber" v="70"/><tag k="addr:postcode" v="K2B 8L7"/><tag k="operator" v="Private"/></node><node lat="45.328667" lon="-75.759985"  id="-201"  changeset="false" ><tag k="amenity" v="school"/><tag k="name" v="Manordale Public School"/><tag k="name:en" v="Manordale Public School"/><tag k="name:fr" v="École publique Manordale"/><tag k="phone" v="+1-613-226-6393"/><tag k="fax" v="+1-613-226-8625"/><tag k="isced:level" v="1"/><tag k="addr:street" v="Carola Street"/><tag k="addr:housenumber" v="16"/><tag k="addr:postcode" v="K2G 0Y1"/><tag k="operator" v="Ottawa-Carleton District School Board"/></node><node lat="45.450021" lon="-75.67818"  id="-202"  changeset="false" ><tag k="amenity" v="school"/><tag k="name" v="Rockcliffe Park Public School"/><tag k="name:en" v="Rockcliffe Park Public School"/><tag k="name:fr" v="École publique Rockcliffe Park"/><tag k="phone" v="+1-613-749-5387"/><tag k="fax" v="+1-613-749-6333"/><tag k="isced:level" v="1"/><tag k="addr:street" v="Buena Vista Road"/><tag k="addr:housenumber" v="350"/><tag k="addr:postcode" v="K1M 1C1"/><tag k="operator" v="Ottawa-Carleton District School Board"/></node><node lat="45.447871" lon="-75.675654"  id="-203"  changeset="false" ><tag k="amenity" v="school"/><tag k="name" v="Ashbury College"/><tag k="name:en" v="Ashbury College"/><tag k="name:fr" v="Collège Asbury"/><tag k="phone" v="+1-613-749-5954"/><tag k="fax" v="+1-613-749-9724"/><tag k="isced:level" v="1"/><tag k="addr:street" v="Mariposa Avenue"/><tag k="addr:housenumber" v="362"/><tag k="addr:postcode" v="K1M 0T3"/><tag k="operator" v="Private"/></node><node lat="45.451294" lon="-75.679887"  id="-204"  changeset="false" ><tag k="amenity" v="school"/><tag k="name" v="Elmwood School"/><tag k="name:en" v="Elmwood School"/><tag k="name:fr" v="École Elmwood"/><tag k="phone" v="+1-613-749-6761"/><tag k="fax" v="+1-613-741-8210"/><tag k="isced:level" v="1"/><tag k="addr:street" v="Buena Vista Road"/><tag k="addr:housenumber" v="261"/><tag k="addr:postcode" v="K1M 0V9"/><tag k="operator" v="Private"/></node><node lat="45.449977" lon="-75.656018"  id="-205"  changeset="false" ><tag k="amenity" v="school"/><tag k="name" v="Manor Park Public School"/><tag k="name:en" v="Manor Park Public School"/><tag k="name:fr" v="École publique Manor Park"/><tag k="phone" v="+1-613-746-8131"/><tag k="fax" v="+1-613-746-2817"/><tag k="isced:level" v="1"/><tag k="addr:street" v="Braemar Street"/><tag k="addr:housenumber" v="100"/><tag k="addr:postcode" v="K1K 3C9"/><tag k="operator" v="Ottawa-Carleton District School Board"/></node><node lat="45.306929" lon="-75.584898"  id="-206"  changeset="false" ><tag k="amenity" v="school"/><tag k="name" v="Leitrim Montessori Preschool"/><tag k="name:en" v="Leitrim Montessori Preschool"/><tag k="name:fr" v="Centre préscolaire Montessori Leitrim"/><tag k="phone" v="+1-613-822-6848"/><tag k="fax" v="+1-613-822-6424"/><tag k="isced:level" v="1"/><tag k="addr:street" v="Bank Street"/><tag k="addr:housenumber" v="4861"/><tag k="addr:postcode" v="K1X 1G6"/><tag k="operator" v="Private"/></node><node lat="45.35549" lon="-75.353887"  id="-207"  changeset="false" ><tag k="amenity" v="school"/><tag k="name" v="Saint-Guillaume Catholic Elementary Schoolol"/><tag k="name:en" v="Saint-Guillaume Catholic Elementary Schoolol"/><tag k="name:fr" v="École élémentaire catholique Saint-Guillaume"/><tag k="phone" v="+1-613-745-5981"/><tag k="fax" v="+1-613-835-2999"/><tag k="isced:level" v="1"/><tag k="addr:street" v="Buckland Road"/><tag k="addr:housenumber" v="5750"/><tag k="addr:postcode" v="K0A 3H0"/><tag k="operator" v="Conseil des écoles catholiques du Centre-Est"/></node><node lat="45.421504" lon="-75.416545"  id="-208"  changeset="false" ><tag k="amenity" v="school"/><tag k="name" v="Heritage Public School"/><tag k="name:en" v="Heritage Public School"/><tag k="name:fr" v="École publique Heritage"/><tag k="phone" v="+1-613-835-1700"/><tag k="fax" v="+1-613-835-1799"/><tag k="isced:level" v="1"/><tag k="addr:street" v="Colonial Road"/><tag k="addr:housenumber" v="1375"/><tag k="addr:postcode" v="K4B 1N1"/><tag k="operator" v="Ottawa-Carleton District School Board"/></node><node lat="45.288738" lon="-75.716562"  id="-209"  changeset="false" ><tag k="amenity" v="school"/><tag k="name" v="Adrienne Clarkson Public School"/><tag k="name:en" v="Adrienne Clarkson Public School"/><tag k="name:fr" v="École publique Adrienne Clarkson"/><tag k="phone" v="+1-613-825-8600"/><tag k="fax" v="+1-613-825-6872"/><tag k="isced:level" v="1"/><tag k="addr:street" v="Stoneway Drive."/><tag k="addr:housenumber" v="170"/><tag k="addr:postcode" v="K2G 6R2"/><tag k="operator" v="Ottawa-Carleton District School Board"/></node><node lat="45.284411" lon="-75.708792"  id="-210"  changeset="false" ><tag k="amenity" v="school"/><tag k="name" v="Saint Andrew School"/><tag k="name:en" v="Saint Andrew School"/><tag k="name:fr" v="École Saint Andrew"/><tag k="phone" v="+1-613-843-0050"/><tag k="fax" v="+1-613-843-0303"/><tag k="isced:level" v="1"/><tag k="addr:street" v="Crestway Drive"/><tag k="addr:housenumber" v="201"/><tag k="addr:postcode" v="K2G 6Z3"/><tag k="operator" v="Ottawa Catholic School Board"/></node><node lat="45.281758" lon="-75.708389"  id="-211"  changeset="false" ><tag k="amenity" v="school"/><tag k="name" v="Farley Mowat Public School"/><tag k="name:en" v="Farley Mowat Public School"/><tag k="name:fr" v="École publique Farley Mowat"/><tag k="phone" v="+1-613-825-3006"/><tag k="fax" v="+1-613-825-6455"/><tag k="isced:level" v="1"/><tag k="addr:street" v="Waterbridge Drive"/><tag k="addr:housenumber" v="75"/><tag k="addr:postcode" v="K2G 6T3"/><tag k="operator" v="Ottawa-Carleton District School Board"/></node><node lat="45.287963" lon="-75.726321"  id="-212"  changeset="false" ><tag k="amenity" v="school"/><tag k="name" v="Michaëlle-Jean Public Elementary School"/><tag k="name:en" v="Michaëlle-Jean Public Elementary School"/><tag k="name:fr" v="École élémentaire publique Michaëlle-Jean"/><tag k="phone" v="+1-613-823-2288"/><tag k="fax" v="+1-613-823-5989"/><tag k="isced:level" v="1"/><tag k="addr:street" v="Claridge Road"/><tag k="addr:housenumber" v="11"/><tag k="addr:postcode" v="K2J 5A3"/><tag k="operator" v="Conseil des écoles publiques de l'Est de l'Ontario"/></node><node lat="45.281506" lon="-75.685425"  id="-213"  changeset="false" ><tag k="amenity" v="school"/><tag k="name" v="Steve MacLean Public School"/><tag k="name:en" v="Steve MacLean Public School"/><tag k="name:fr" v="École publique Steve MacLean"/><tag k="phone" v="+1-613-822- 0341"/><tag k="fax" v="+1-613-822-7874"/><tag k="isced:level" v="1"/><tag k="addr:street" v="Spratt Road"/><tag k="addr:housenumber" v="4175"/><tag k="addr:postcode" v="K1V 1T6"/><tag k="operator" v="Ottawa-Carleton District School Board"/></node><node lat="45.480347" lon="-75.532542"  id="-214"  changeset="false" ><tag k="amenity" v="school"/><tag k="name" v="Saint Matthew High School"/><tag k="name:en" v="Saint Matthew High School"/><tag k="name:fr" v="École secondaire Saint Matthew"/><tag k="phone" v="+1-613-837-3161"/><tag k="fax" v="+1-613-830-8333"/><tag k="isced:level" v="3"/><tag k="addr:street" v="Bilberry Drive"/><tag k="addr:housenumber" v="6550"/><tag k="addr:postcode" v="K1C 2S9"/><tag k="operator" v="Ottawa Catholic School Board"/></node><node lat="45.474907" lon="-75.475909"  id="-215"  changeset="false" ><tag k="amenity" v="school"/><tag k="name" v="Saint Peter High School"/><tag k="name:en" v="Saint Peter High School"/><tag k="name:fr" v="École secondaire Saint Peter"/><tag k="phone" v="+1-613-837-9377"/><tag k="fax" v="+1-613-837-7235"/><tag k="isced:level" v="3"/><tag k="addr:street" v="Charlemagne Boulevard"/><tag k="addr:housenumber" v="750"/><tag k="addr:postcode" v="K4A 3M4"/><tag k="operator" v="Ottawa Catholic School Board"/></node><node lat="45.439768" lon="-75.670859"  id="-216"  changeset="false" ><tag k="amenity" v="school"/><tag k="name" v="Le Transit School"/><tag k="name:en" v="Le Transit School"/><tag k="name:fr" v="École Le Transit"/><tag k="phone" v="+1-613-747-3838"/><tag k="fax" v="+1-613-747-3844"/><tag k="isced:level" v="Unknown"/><tag k="addr:street" v="Alice Street Suite 200"/><tag k="addr:housenumber" v="135"/><tag k="addr:postcode" v="K1L 7X5"/><tag k="operator" v="Conseil des écoles publiques de l'Est de l'Ontario"/></node><node lat="45.341733" lon="-75.792666"  id="-217"  changeset="false" ><tag k="amenity" v="school"/><tag k="name" v="Saint Paul High School"/><tag k="name:en" v="Saint Paul High School"/><tag k="name:fr" v="École secondaire Saint Paul"/><tag k="phone" v="+1-613-820-9705"/><tag k="fax" v="+1-613-820-9390"/><tag k="isced:level" v="3"/><tag k="addr:street" v="Draper Av"/><tag k="addr:housenumber" v="2675"/><tag k="addr:postcode" v="K2H 7A1"/><tag k="operator" v="Ottawa Catholic School Board"/></node><node lat="45.308055" lon="-75.902488"  id="-218"  changeset="false" ><tag k="amenity" v="school"/><tag k="name" v="Holy Trinity Catholic High School"/><tag k="name:en" v="Holy Trinity Catholic High School"/><tag k="name:fr" v="École secondaire catholique Holy Trinity"/><tag k="phone" v="+1-613-591-9955"/><tag k="fax" v="+1-613-592-4839"/><tag k="isced:level" v="3"/><tag k="addr:street" v="Katimavik Road"/><tag k="addr:housenumber" v="180"/><tag k="addr:postcode" v="K2L 4A7"/><tag k="operator" v="Ottawa Catholic School Board"/></node><node lat="45.329434" lon="-75.814153"  id="-219"  changeset="false" ><tag k="amenity" v="school"/><tag k="name" v="Tancook Bell School"/><tag k="name:en" v="Tancook Bell School"/><tag k="name:fr" v="École Tancook Bell"/><tag k="phone" v="+1-613-730-3970"/><tag k="fax" v="+1-null"/><tag k="isced:level" v="Unknown"/><tag k="addr:street" v="Northside Road"/><tag k="addr:housenumber" v="28"/><tag k="addr:postcode" v="K2C 2C2"/><tag k="operator" v="Private"/></node><node lat="45.365514" lon="-75.712524"  id="-220"  changeset="false" ><tag k="amenity" v="school"/><tag k="name" v="Saint Pius X Catholic Elementary School  High School"/><tag k="name:en" v="Saint Pius X Catholic Elementary School  High School"/><tag k="name:fr" v="École élémentaire et école secondaire catholique Saint Pius X"/><tag k="phone" v="+1-613-225-8105"/><tag k="fax" v="+1-613-225-9105"/><tag k="isced:level" v="3"/><tag k="addr:street" v="Fisher Avenue"/><tag k="addr:housenumber" v="1481"/><tag k="addr:postcode" v="K2C 1X4"/><tag k="operator" v="Ottawa Catholic School Board"/></node><node lat="45.443482" lon="-75.595936"  id="-221"  changeset="false" ><tag k="amenity" v="school"/><tag k="name" v="Lester B. Pearson Catholic High School"/><tag k="name:en" v="Lester B. Pearson Catholic High School"/><tag k="name:fr" v="École secondaire catholique Lester B. Pearson"/><tag k="phone" v="+1-613-741-4525"/><tag k="fax" v="+1-613-741-9593"/><tag k="isced:level" v="3"/><tag k="addr:street" v="Jasmine  Crescent"/><tag k="addr:housenumber" v="2072"/><tag k="addr:postcode" v="K1J 8M5"/><tag k="operator" v="Ottawa Catholic School Board"/></node><node lat="45.284987" lon="-75.739417"  id="-222"  changeset="false" ><tag k="amenity" v="school"/><tag k="name" v="Mother Teresa High School"/><tag k="name:en" v="Mother Teresa High School"/><tag k="name:fr" v="École secondaire Mother Teresa"/><tag k="phone" v="+1-613-823-1663"/><tag k="fax" v="+1-613-823-4365"/><tag k="isced:level" v="3"/><tag k="addr:street" v="Longfields Drive"/><tag k="addr:housenumber" v="440"/><tag k="addr:postcode" v="K2J 4T1"/><tag k="operator" v="Ottawa Catholic School Board"/></node><node lat="45.24411" lon="-75.648372"  id="-223"  changeset="false" ><tag k="amenity" v="school"/><tag k="name" v="Saint Mark High School"/><tag k="name:en" v="Saint Mark High School"/><tag k="name:fr" v="École secondaire Saint Mark"/><tag k="phone" v="+1-613-692-2551"/><tag k="fax" v="+1-613-692-2447"/><tag k="isced:level" v="3"/><tag k="addr:street" v="Dozois Road"/><tag k="addr:housenumber" v="1040"/><tag k="addr:postcode" v="K4M 1B2"/><tag k="operator" v="Ottawa Catholic School Board"/></node><node lat="45.409528" lon="-75.693254"  id="-224"  changeset="false" ><tag k="amenity" v="school"/><tag k="name" v="Glashan Public School"/><tag k="name:en" v="Glashan Public School"/><tag k="name:fr" v="École publique Glashan"/><tag k="phone" v="+1-613-239-2264"/><tag k="fax" v="+1-613-563-2955"/><tag k="isced:level" v="2"/><tag k="addr:street" v="Arlington Avenue"/><tag k="addr:housenumber" v="28"/><tag k="addr:postcode" v="K2P 1C2"/><tag k="operator" v="Ottawa-Carleton District School Board"/></node><node lat="45.277288" lon="-75.780219"  id="-225"  changeset="false" ><tag k="amenity" v="school"/><tag k="name" v="Cedarview Middle School"/><tag k="name:en" v="Cedarview Middle School"/><tag k="name:fr" v="École intermédiaire Cedarview"/><tag k="phone" v="+1-613-825-2185"/><tag k="fax" v="+1-613-825-4882"/><tag k="isced:level" v="2"/><tag k="addr:street" v="Cedarview Road"/><tag k="addr:housenumber" v="2760"/><tag k="addr:postcode" v="K2J 4J2"/><tag k="operator" v="Ottawa-Carleton District School Board"/></node><node lat="45.279732" lon="-75.740399"  id="-226"  changeset="false" ><tag k="amenity" v="school"/><tag k="name" v="Longfields-Davidson Heights Secondary School"/><tag k="name:en" v="Longfields-Davidson Heights Secondary School"/><tag k="name:fr" v="École secondaire Longfields-Davidson Heights"/><tag k="phone" v="+1-613-843-7722"/><tag k="fax" v="+1-613-843-7741"/><tag k="isced:level" v="2;3"/><tag k="addr:street" v="Berrigan Drive"/><tag k="addr:housenumber" v="149"/><tag k="addr:postcode" v="K2J 5C6"/><tag k="operator" v="Ottawa-Carleton District School Board"/></node><node lat="45.384036" lon="-75.728706"  id="-227"  changeset="false" ><tag k="amenity" v="school"/><tag k="name" v="Saint Nicholas Adult High School (West Campus)"/><tag k="name:en" v="Saint Nicholas Adult High School (West Campus)"/><tag k="name:fr" v="École secondaire pour adultes Saint Nicholas (Campus Ouest)"/><tag k="phone" v="+1-613-228-8888"/><tag k="fax" v="+1-613-228-9967"/><tag k="isced:level" v="3"/><tag k="addr:street" v="Admiral Avenue"/><tag k="addr:housenumber" v="893"/><tag k="addr:postcode" v="K1Z 6L6"/><tag k="operator" v="Ottawa Catholic School Board"/></node><node lat="45.290579" lon="-75.668949"  id="-228"  changeset="false" ><tag k="amenity" v="school"/><tag k="name" v="Saint Francis Xavier High School"/><tag k="name:en" v="Saint Francis Xavier High School"/><tag k="name:fr" v="École Saint Francis-of-Assisi"/><tag k="phone" v="+1-613-822-7900"/><tag k="fax" v="+1-613-822-0214"/><tag k="isced:level" v="3"/><tag k="addr:street" v="Spratt Road"/><tag k="addr:housenumber" v="3470"/><tag k="addr:postcode" v="K1V 2M1"/><tag k="operator" v="Ottawa Catholic School Board"/></node><node lat="45.441547" lon="-75.571528"  id="-229"  changeset="false" ><tag k="amenity" v="school"/><tag k="name" v="Louis-Riel Public High School"/><tag k="name:en" v="Louis-Riel Public High School"/><tag k="name:fr" v="École secondaire publique Louis-Riel"/><tag k="phone" v="+1-613-590-2233"/><tag k="fax" v="+1-613-837-6069"/><tag k="isced:level" v="3"/><tag k="addr:street" v="Bearbrook Road"/><tag k="addr:housenumber" v="1655"/><tag k="addr:postcode" v="K1B 4N3"/><tag k="operator" v="Conseil des écoles publiques de l'Est de l'Ontario"/></node><node lat="45.482355" lon="-75.539941"  id="-230"  changeset="false" ><tag k="amenity" v="school"/><tag k="name" v="Cairine Wilson Secondary School"/><tag k="name:en" v="Cairine Wilson Secondary School"/><tag k="name:fr" v="École secondaire Cairine-Wilson"/><tag k="phone" v="+1-613-824-4411"/><tag k="fax" v="+1-613-824-5679"/><tag k="isced:level" v="2;3"/><tag k="addr:street" v="Orléans Boulevard"/><tag k="addr:housenumber" v="975"/><tag k="addr:postcode" v="K1C 2Z5"/><tag k="operator" v="Ottawa-Carleton District School Board"/></node><node lat="45.346786" lon="-75.709833"  id="-231"  changeset="false" ><tag k="amenity" v="school"/><tag k="name" v="Redeemer Christian High School"/><tag k="name:en" v="Redeemer Christian High School"/><tag k="name:fr" v="École secondaire chrétienne Redeemer"/><tag k="phone" v="+1-613-723-9262"/><tag k="fax" v="+1-613-723-9321"/><tag k="isced:level" v="3"/><tag k="addr:street" v="Colonnade Road North"/><tag k="addr:housenumber" v="82"/><tag k="addr:postcode" v="K2E 7L2"/><tag k="operator" v="Private"/></node><node lat="45.398345" lon="-75.63914"  id="-232"  changeset="false" ><tag k="amenity" v="school"/><tag k="name" v="Hillcrest High School"/><tag k="name:en" v="Hillcrest High School"/><tag k="name:fr" v="École secondaire Hillcrest's"/><tag k="phone" v="+1-613-733-1755"/><tag k="fax" v="+1-613-733-6126"/><tag k="isced:level" v="3"/><tag k="addr:street" v="Dauphin Road"/><tag k="addr:housenumber" v="1900"/><tag k="addr:postcode" v="K1G 2L7"/><tag k="operator" v="Ottawa-Carleton District School Board"/></node><node lat="45.388032" lon="-75.626014"  id="-233"  changeset="false" ><tag k="amenity" v="school"/><tag k="name" v="Canterbury High School"/><tag k="name:en" v="Canterbury High School"/><tag k="name:fr" v="École secondaire Canterbury"/><tag k="phone" v="+1-613-731-1191"/><tag k="fax" v="+1-613-731-5210"/><tag k="isced:level" v="3"/><tag k="addr:street" v="Canterbury Avenue"/><tag k="addr:housenumber" v="900"/><tag k="addr:postcode" v="K1G 3A7"/><tag k="operator" v="Ottawa-Carleton District School Board"/></node><node lat="45.371538" lon="-75.684612"  id="-234"  changeset="false" ><tag k="amenity" v="school"/><tag k="name" v="Brookfield High School"/><tag k="name:en" v="Brookfield High School"/><tag k="name:fr" v="École secondaire Brookfield"/><tag k="phone" v="+1-613-733-0610"/><tag k="fax" v="+1-613-733-8452"/><tag k="isced:level" v="3"/><tag k="addr:street" v="Brookfield Road"/><tag k="addr:housenumber" v="824"/><tag k="addr:postcode" v="K1V 6J3"/><tag k="operator" v="Ottawa-Carleton District School Board"/></node><node lat="45.434862" lon="-75.685071"  id="-235"  changeset="false" ><tag k="amenity" v="school"/><tag k="name" v="De la Salle Public High School"/><tag k="name:en" v="De la Salle Public High School"/><tag k="name:fr" v="École secondaire publique De la Salle"/><tag k="phone" v="+1-613-789-0053"/><tag k="fax" v="+1-613-789-1545"/><tag k="isced:level" v="3"/><tag k="addr:street" v="Old Saint Patrick Street"/><tag k="addr:housenumber" v="501"/><tag k="addr:postcode" v="K1N 8R3"/><tag k="operator" v="Conseil des écoles publiques de l'Est de l'Ontario"/></node><node lat="45.431582" lon="-75.680887"  id="-236"  changeset="false" ><tag k="amenity" v="school"/><tag k="name" v="Ottawa Torah Institute High School"/><tag k="name:en" v="Ottawa Torah Institute High School"/><tag k="name:fr" v="École secondaire Ottawa Torah Institute"/><tag k="phone" v="+1-613-244 9119"/><tag k="fax" v="+1-613-244 3939"/><tag k="isced:level" v="3"/><tag k="addr:street" v="Chapel Street"/><tag k="addr:housenumber" v="151"/><tag k="addr:postcode" v="K1N 7Y2"/><tag k="operator" v="Private"/></node><node lat="45.465078" lon="-75.525067"  id="-237"  changeset="false" ><tag k="amenity" v="school"/><tag k="name" v="Garneau Catholic High School"/><tag k="name:en" v="Garneau Catholic High School"/><tag k="name:fr" v="École secondaire catholique Garneau"/><tag k="phone" v="+1-613-820-1750"/><tag k="fax" v="+1-613-824-5789"/><tag k="isced:level" v="3"/><tag k="addr:street" v="Carrière Street"/><tag k="addr:housenumber" v="6588"/><tag k="addr:postcode" v="K1C 1J4"/><tag k="operator" v="Conseil des écoles catholiques du Centre-Est"/></node><node lat="45.381021" lon="-75.626119"  id="-238"  changeset="false" ><tag k="amenity" v="school"/><tag k="name" v="L'Alternative Public High School"/><tag k="name:en" v="L'Alternative Public High School"/><tag k="name:fr" v="École secondaire publique L'Alternative"/><tag k="phone" v="+1-613-745-0369"/><tag k="fax" v="+1-613-745-1263"/><tag k="isced:level" v="3"/><tag k="addr:street" v="Saint-Laurent Boulevard"/><tag k="addr:housenumber" v="2445"/><tag k="addr:postcode" v="K1G 6C3"/><tag k="operator" v="Conseil des écoles publiques de l'Est de l'Ontario"/></node><node lat="45.427724" lon="-75.661288"  id="-239"  changeset="false" ><tag k="amenity" v="school"/><tag k="name" v="Continuing Education"/><tag k="name:en" v="Continuing Education"/><tag k="name:fr" v="Éducation permanente"/><tag k="phone" v="+1-613-741-2304"/><tag k="fax" v="+1-613-741-2191"/><tag k="isced:level" v="2;3"/><tag k="addr:street" v="Donald Street"/><tag k="addr:housenumber" v="181"/><tag k="addr:postcode" v="K1K 1N1"/><tag k="operator" v="Conseil des écoles catholiques du Centre-Est"/></node><node lat="45.429542" lon="-75.646347"  id="-240"  changeset="false" ><tag k="amenity" v="school"/><tag k="name" v="Ottawa Technical Secondary School"/><tag k="name:en" v="Ottawa Technical Secondary School"/><tag k="name:fr" v="École secondaire technique d'Ottawa"/><tag k="phone" v="+1-613-745-0347"/><tag k="fax" v="+1-613-745-8234"/><tag k="isced:level" v="2;3"/><tag k="addr:street" v="Donald Street"/><tag k="addr:housenumber" v="485"/><tag k="addr:postcode" v="K1K 1L8"/><tag k="operator" v="Ottawa-Carleton District School Board"/></node><node lat="45.37824" lon="-75.660059"  id="-241"  changeset="false" ><tag k="amenity" v="school"/><tag k="name" v="Saint Patrick's High School"/><tag k="name:en" v="Saint Patrick's High School"/><tag k="name:fr" v="École secondaire Saint Patrick's"/><tag k="phone" v="+1-613-733-0501"/><tag k="fax" v="+1-613-526-3198"/><tag k="isced:level" v="3"/><tag k="addr:street" v="Alta Vista Drive"/><tag k="addr:housenumber" v="2525"/><tag k="addr:postcode" v="K1V 7T3"/><tag k="operator" v="Ottawa Catholic School Board"/></node><node lat="45.380242" lon="-75.73894"  id="-242"  changeset="false" ><tag k="amenity" v="school"/><tag k="name" v="Machon Sarah High School"/><tag k="name:en" v="Machon Sarah High School"/><tag k="name:fr" v="Centre éducatif à l'extérieur McSkimming"/><tag k="phone" v="+1-613-729-4172"/><tag k="fax" v="+1-n/a"/><tag k="isced:level" v="3"/><tag k="addr:street" v="Coldrey Avenue"/><tag k="addr:housenumber" v="1400"/><tag k="addr:postcode" v="K1Z 7P9"/><tag k="operator" v="Private"/></node><node lat="45.378704" lon="-75.756232"  id="-243"  changeset="false" ><tag k="amenity" v="school"/><tag k="name" v="Notre Dame High School"/><tag k="name:en" v="Notre Dame High School"/><tag k="name:fr" v="École secondaire Notre-Dame"/><tag k="phone" v="+1-613-722-6565"/><tag k="fax" v="+1-613-722-7471"/><tag k="isced:level" v="3"/><tag k="addr:street" v="Broadview Avenue"/><tag k="addr:housenumber" v="710"/><tag k="addr:postcode" v="K2A 2M2"/><tag k="operator" v="Ottawa Catholic School Board"/></node><node lat="45.38378" lon="-75.759128"  id="-244"  changeset="false" ><tag k="amenity" v="school"/><tag k="name" v="Nepean High School"/><tag k="name:en" v="Nepean High School"/><tag k="name:fr" v="École secondaire Nepean"/><tag k="phone" v="+1-613-722-6551"/><tag k="fax" v="+1-613-722-5983"/><tag k="isced:level" v="3"/><tag k="addr:street" v="Broadview Avenue"/><tag k="addr:housenumber" v="574"/><tag k="addr:postcode" v="K2A 3V8"/><tag k="operator" v="Ottawa-Carleton District School Board"/></node><node lat="45.326414" lon="-75.809512"  id="-245"  changeset="false" ><tag k="amenity" v="school"/><tag k="name" v="Bell High School"/><tag k="name:en" v="Bell High School"/><tag k="name:fr" v="École secondaire Bell"/><tag k="phone" v="+1-613-828-9101"/><tag k="fax" v="+1-613-828-9022"/><tag k="isced:level" v="3"/><tag k="addr:street" v="Cassidy Road"/><tag k="addr:housenumber" v="40"/><tag k="addr:postcode" v="K2H 6K1"/><tag k="operator" v="Ottawa-Carleton District School Board"/></node><node lat="45.400735" lon="-75.65286"  id="-246"  changeset="false" ><tag k="amenity" v="school"/><tag k="name" v="Ottawa Children's Treatment Centre"/><tag k="name:en" v="Ottawa Children's Treatment Centre"/><tag k="name:fr" v="Centre de traitement pour enfants d'Ottawa"/><tag k="phone" v="+1-613-737-0871"/><tag k="fax" v="+1-613-523-5167"/><tag k="isced:level" v="Unknown"/><tag k="addr:street" v="Smyth Road"/><tag k="addr:housenumber" v="395"/><tag k="addr:postcode" v="K1H 8L2"/><tag k="operator" v="Ottawa-Carleton District School Board"/></node><node lat="45.314717" lon="-75.833915"  id="-247"  changeset="false" ><tag k="amenity" v="school"/><tag k="name" v="Saint Nicholas Adult High School (West Campus)"/><tag k="name:en" v="Saint Nicholas Adult High School (West Campus)"/><tag k="name:fr" v="Collège catholique Franco-Ouest"/><tag k="phone" v="+1-613-820-2920"/><tag k="fax" v="+1-613-820-7593"/><tag k="isced:level" v="3"/><tag k="addr:street" v="Seyton Drive"/><tag k="addr:housenumber" v="411"/><tag k="addr:postcode" v="K2H 8X1"/><tag k="operator" v="Conseil des écoles catholiques du Centre-Est"/></node><node lat="45.350043" lon="-75.716582"  id="-248"  changeset="false" ><tag k="amenity" v="school"/><tag k="name" v="Omer-Deslauriers Public High School"/><tag k="name:en" v="Omer-Deslauriers Public High School"/><tag k="name:fr" v="École secondaire publique Omer-Deslauriers"/><tag k="phone" v="+1-613-820-0992"/><tag k="fax" v="+1-613-820-9012"/><tag k="isced:level" v="3"/><tag k="addr:street" v="Chesterton Drive"/><tag k="addr:housenumber" v="159"/><tag k="addr:postcode" v="K2E 7E6"/><tag k="operator" v="Conseil des écoles publiques de l'Est de l'Ontario"/></node><node lat="45.420427" lon="-75.675244"  id="-249"  changeset="false" ><tag k="amenity" v="school"/><tag k="name" v="Viscount Alexander Public School"/><tag k="name:en" v="Viscount Alexander Public School"/><tag k="name:fr" v="École publique Viscount Alexander"/><tag k="phone" v="+1-613-239-2213"/><tag k="fax" v="+1-613-239-5978"/><tag k="isced:level" v="1"/><tag k="addr:street" v="Mann Avenue"/><tag k="addr:housenumber" v="55"/><tag k="addr:postcode" v="K1N 6Y7"/><tag k="operator" v="Ottawa-Carleton District School Board"/></node><node lat="45.424491" lon="-75.680421"  id="-250"  changeset="false" ><tag k="amenity" v="school"/><tag k="name" v="Francojeunesse Public Elementary School"/><tag k="name:en" v="Francojeunesse Public Elementary School"/><tag k="name:fr" v="École élémentaire publique Francojeunesse"/><tag k="phone" v="+1-613-232-0020"/><tag k="fax" v="+1-613-565-1546"/><tag k="isced:level" v="1"/><tag k="addr:street" v="Osgoode Street"/><tag k="addr:housenumber" v="119"/><tag k="addr:postcode" v="K1N 6S3"/><tag k="operator" v="Conseil des écoles publiques de l'Est de l'Ontario"/></node><node lat="45.327419" lon="-75.781592"  id="-251"  changeset="false" ><tag k="amenity" v="school"/><tag k="name" v="Knoxdale Public School"/><tag k="name:en" v="Knoxdale Public School"/><tag k="name:fr" v="École publique Knoxdale"/><tag k="phone" v="+1-613-828-0010"/><tag k="fax" v="+1-613-828-2973"/><tag k="isced:level" v="1"/><tag k="addr:street" v="Greenbank Road"/><tag k="addr:housenumber" v="170"/><tag k="addr:postcode" v="K2H 5V2"/><tag k="operator" v="Ottawa-Carleton District School Board"/></node><node lat="45.360947" lon="-75.649969"  id="-252"  changeset="false" ><tag k="amenity" v="school"/><tag k="name" v="Dunlop Public School"/><tag k="name:en" v="Dunlop Public School"/><tag k="name:fr" v="École publique Dunlop"/><tag k="phone" v="+1-613-521-4611"/><tag k="fax" v="+1-613-521-4652"/><tag k="isced:level" v="1"/><tag k="addr:street" v="Pebble Road"/><tag k="addr:housenumber" v="1310"/><tag k="addr:postcode" v="K1V 7R8"/><tag k="operator" v="Ottawa-Carleton District School Board"/></node><node lat="45.434859" lon="-75.660314"  id="-253"  changeset="false" ><tag k="amenity" v="school"/><tag k="name" v="Assumption School"/><tag k="name:en" v="Assumption School"/><tag k="name:fr" v="École Assumption"/><tag k="phone" v="+1-613-746-4822"/><tag k="fax" v="+1-613-741-0683"/><tag k="isced:level" v="1"/><tag k="addr:street" v="Lévis Street"/><tag k="addr:housenumber" v="236"/><tag k="addr:postcode" v="K1L 6H8"/><tag k="operator" v="Ottawa Catholic School Board"/></node><node lat="45.4327" lon="-75.651156"  id="-254"  changeset="false" ><tag k="amenity" v="school"/><tag k="name" v="Robert E. Wilson Public School"/><tag k="name:en" v="Robert E. Wilson Public School"/><tag k="name:fr" v="École publique Robert E. Wilson"/><tag k="phone" v="+1-613-745-9480"/><tag k="fax" v="+1-613-745-9489"/><tag k="isced:level" v="1"/><tag k="addr:street" v="McArthur Avenue"/><tag k="addr:housenumber" v="373"/><tag k="addr:postcode" v="K1L 6N5"/><tag k="operator" v="Ottawa-Carleton District School Board"/></node><node lat="45.432556" lon="-75.681973"  id="-255"  changeset="false" ><tag k="amenity" v="school"/><tag k="name" v="Sainte-Anne Catholic Elementary School"/><tag k="name:en" v="Sainte-Anne Catholic Elementary School"/><tag k="name:fr" v="École élémentaire catholique Sainte-Anne"/><tag k="phone" v="+1-613-789-3933"/><tag k="fax" v="+1-613-789-1265"/><tag k="isced:level" v="1"/><tag k="addr:street" v="Beausoleil Drive"/><tag k="addr:housenumber" v="235"/><tag k="addr:postcode" v="K1N 8X8"/><tag k="operator" v="Conseil des écoles catholiques du Centre-Est"/></node><node lat="45.432042" lon="-75.683029"  id="-256"  changeset="false" ><tag k="amenity" v="school"/><tag k="name" v="York St Public School"/><tag k="name:en" v="York St Public School"/><tag k="name:fr" v="École publique de la rue York"/><tag k="phone" v="+1-613-239-2214"/><tag k="fax" v="+1-613-789-4443"/><tag k="isced:level" v="1"/><tag k="addr:street" v="York Street"/><tag k="addr:housenumber" v="310"/><tag k="addr:postcode" v="K1N 5V3"/><tag k="operator" v="Ottawa-Carleton District School Board"/></node><node lat="45.458456" lon="-75.523126"  id="-257"  changeset="false" ><tag k="amenity" v="school"/><tag k="name" v="Saint Kateri Tekakwitha School"/><tag k="name:en" v="Saint Kateri Tekakwitha School"/><tag k="name:fr" v="École Saint Kateri Tekakwitha"/><tag k="phone" v="+1-613-830-2454"/><tag k="fax" v="+1-613-830-1436"/><tag k="isced:level" v="1"/><tag k="addr:street" v="Beausejour Drive"/><tag k="addr:housenumber" v="6400"/><tag k="addr:postcode" v="K1C 4W2"/><tag k="operator" v="Ottawa Catholic School Board"/></node><node lat="45.465751" lon="-75.521615"  id="-258"  changeset="false" ><tag k="amenity" v="school"/><tag k="name" v="Saint-Joseph d'Orléans Catholic Elementary School"/><tag k="name:en" v="Saint-Joseph d'Orléans Catholic Elementary School"/><tag k="name:fr" v="École élémentaire catholique Saint-Joseph d'Orléans"/><tag k="phone" v="+1-613-745-7968"/><tag k="fax" v="+1-613-824-6695"/><tag k="isced:level" v="1"/><tag k="addr:street" v="Carrière Street"/><tag k="addr:housenumber" v="6664"/><tag k="addr:postcode" v="K1C 1J4"/><tag k="operator" v="Conseil des écoles catholiques du Centre-Est"/></node><node lat="45.460211" lon="-75.512594"  id="-259"  changeset="false" ><tag k="amenity" v="school"/><tag k="name" v="Henry Larsen Elementary School"/><tag k="name:en" v="Henry Larsen Elementary School"/><tag k="name:fr" v="École élémentaire Henry Larsen"/><tag k="phone" v="+1-613-830-4634"/><tag k="fax" v="+1-613-830-4275"/><tag k="isced:level" v="1"/><tag k="addr:street" v="Sunview Drive"/><tag k="addr:housenumber" v="1750"/><tag k="addr:postcode" v="K1C 5B3"/><tag k="operator" v="Ottawa-Carleton District School Board"/></node><node lat="45.440652" lon="-75.669697"  id="-260"  changeset="false" ><tag k="amenity" v="school"/><tag k="name" v="Trille-des-Bois Public Elementary School"/><tag k="name:en" v="Trille-des-Bois Public Elementary School"/><tag k="name:fr" v="École élémentaire publique Trille des Bois"/><tag k="phone" v="+1-613-746-6911"/><tag k="fax" v="+1-null"/><tag k="isced:level" v="1"/><tag k="addr:street" v="Genest Street"/><tag k="addr:housenumber" v="140"/><tag k="addr:postcode" v="K1L 7Y9"/><tag k="operator" v="Conseil des écoles publiques de l'Est de l'Ontario"/></node><node lat="45.473294" lon="-75.547525"  id="-261"  changeset="false" ><tag k="amenity" v="school"/><tag k="name" v="Convent Glen Catholic School"/><tag k="name:en" v="Convent Glen Catholic School"/><tag k="name:fr" v="École catholique Convent Glen"/><tag k="phone" v="+1-613-824-8541"/><tag k="fax" v="+1-613-824-5223"/><tag k="isced:level" v="1"/><tag k="addr:street" v="Jeanne D'arc Boulevard"/><tag k="addr:housenumber" v="6212"/><tag k="addr:postcode" v="K1C 2M4"/><tag k="operator" v="Ottawa Catholic School Board"/></node><node lat="45.42916" lon="-75.648618"  id="-262"  changeset="false" ><tag k="amenity" v="school"/><tag k="name" v="Saint Michael School"/><tag k="name:en" v="Saint Michael School"/><tag k="name:fr" v="École Saint Michael"/><tag k="phone" v="+1-613-749-1642"/><tag k="fax" v="+1-613-749-1710"/><tag k="isced:level" v="1"/><tag k="addr:street" v="Donald Street"/><tag k="addr:housenumber" v="437"/><tag k="addr:postcode" v="K1K 1L8"/><tag k="operator" v="Ottawa Catholic School Board"/></node><node lat="45.426282" lon="-75.642409"  id="-263"  changeset="false" ><tag k="amenity" v="school"/><tag k="name" v="Queen Mary St Public School"/><tag k="name:en" v="Queen Mary St Public School"/><tag k="name:fr" v="École publique de la rue Queen Mary"/><tag k="phone" v="+1-613-749-1692"/><tag k="fax" v="+1-613-749-6184"/><tag k="isced:level" v="1"/><tag k="addr:street" v="Queen Mary Street"/><tag k="addr:housenumber" v="557"/><tag k="addr:postcode" v="K1K 1V9"/><tag k="operator" v="Ottawa-Carleton District School Board"/></node><node lat="45.334071" lon="-75.666216"  id="-264"  changeset="false" ><tag k="amenity" v="school"/><tag k="name" v="Elizabeth Park Public School"/><tag k="name:en" v="Elizabeth Park Public School"/><tag k="name:fr" v="École publique Elizabeth Park"/><tag k="phone" v="+1-613-523-5406"/><tag k="fax" v="+1-613-523-7458"/><tag k="isced:level" v="1"/><tag k="addr:street" v="DeNiverville Drive"/><tag k="addr:housenumber" v="15"/><tag k="addr:postcode" v="K1V 7N9"/><tag k="operator" v="Ottawa-Carleton District School Board"/></node><node lat="45.353531" lon="-75.663238"  id="-265"  changeset="false" ><tag k="amenity" v="school"/><tag k="name" v="Holy Family School"/><tag k="name:en" v="Holy Family School"/><tag k="name:fr" v="École Holy Family"/><tag k="phone" v="+1-613-521-0475"/><tag k="fax" v="+1-613-521-0798"/><tag k="isced:level" v="1"/><tag k="addr:street" v="Owl Drive"/><tag k="addr:housenumber" v="245"/><tag k="addr:postcode" v="K1V 9K3"/><tag k="operator" v="Ottawa Catholic School Board"/></node><node lat="45.355276" lon="-75.665612"  id="-266"  changeset="false" ><tag k="amenity" v="school"/><tag k="name" v="Bayview Public School"/><tag k="name:en" v="Bayview Public School"/><tag k="name:fr" v="École publique Bayview"/><tag k="phone" v="+1-613-733-4726"/><tag k="fax" v="+1-613-733-8509"/><tag k="isced:level" v="1"/><tag k="addr:street" v="Owl Drive"/><tag k="addr:housenumber" v="185"/><tag k="addr:postcode" v="K1V 9K3"/><tag k="operator" v="Ottawa-Carleton District School Board"/></node><node lat="45.440287" lon="-75.677898"  id="-267"  changeset="false" ><tag k="amenity" v="school"/><tag k="name" v="Fernhill School"/><tag k="name:en" v="Fernhill School"/><tag k="name:fr" v="École Fenhill"/><tag k="phone" v="+1-613-746-0255"/><tag k="fax" v="+1-613-749-7514"/><tag k="isced:level" v="1"/><tag k="addr:street" v="Vaughan Street"/><tag k="addr:housenumber" v="50"/><tag k="addr:postcode" v="K1M 1X1"/><tag k="operator" v="Private"/></node><node lat="45.349844" lon="-75.779939"  id="-268"  changeset="false" ><tag k="amenity" v="school"/><tag k="name" v="Our Lady Of Victory School"/><tag k="name:en" v="Our Lady Of Victory School"/><tag k="name:fr" v="École Our Lady Of Victory"/><tag k="phone" v="+1-613-828-5594"/><tag k="fax" v="+1-613-828-5236"/><tag k="isced:level" v="1"/><tag k="addr:street" v="Soderlind Street"/><tag k="addr:housenumber" v="1175"/><tag k="addr:postcode" v="K2C 3B3"/><tag k="operator" v="Ottawa Catholic School Board"/></node><node lat="45.432721" lon="-75.667254"  id="-269"  changeset="false" ><tag k="amenity" v="school"/><tag k="name" v="Le Trillium Public Elementary School"/><tag k="name:en" v="Le Trillium Public Elementary School"/><tag k="name:fr" v="École élémentaire publique Le Trillium"/><tag k="phone" v="+1-613-744-8523"/><tag k="fax" v="+1-613-744-6759"/><tag k="isced:level" v="1"/><tag k="addr:street" v="Montgomery Street"/><tag k="addr:housenumber" v="307"/><tag k="addr:postcode" v="K1N 7W8"/><tag k="operator" v="Conseil des écoles publiques de l'Est de l'Ontario"/></node><node lat="45.344064" lon="-75.785091"  id="-270"  changeset="false" ><tag k="amenity" v="school"/><tag k="name" v="Pinecrest Public School"/><tag k="name:en" v="Pinecrest Public School"/><tag k="name:fr" v="École publique Pinecrest"/><tag k="phone" v="+1-613-828-5115"/><tag k="fax" v="+1-613-596-3821"/><tag k="isced:level" v="1"/><tag k="addr:street" v="Pinecrest Road"/><tag k="addr:housenumber" v="1281"/><tag k="addr:postcode" v="K2C 3E7"/><tag k="operator" v="Ottawa-Carleton District School Board"/></node><node lat="45.29115" lon="-75.735137"  id="-271"  changeset="false" ><tag k="amenity" v="school"/><tag k="name" v="Saint Luke School, (Nepean)"/><tag k="name:en" v="Saint Luke School, (Nepean)"/><tag k="name:fr" v="École Saint Luke (Nepean)"/><tag k="phone" v="+1-613-825-2520"/><tag k="fax" v="+1-613-825-4170"/><tag k="isced:level" v="1"/><tag k="addr:street" v="Mountshannon Drive"/><tag k="addr:housenumber" v="60"/><tag k="addr:postcode" v="K2J 4B8"/><tag k="operator" v="Ottawa Catholic School Board"/></node><node lat="45.285621" lon="-75.744101"  id="-272"  changeset="false" ><tag k="amenity" v="school"/><tag k="name" v="Pierre-Elliott-Trudeau Catholic Elementary School"/><tag k="name:en" v="Pierre-Elliott-Trudeau Catholic Elementary School"/><tag k="name:fr" v="École élémentaire catholique Pierre-Elliott-Trudeau"/><tag k="phone" v="+1-613-521-1560"/><tag k="fax" v="+1-613-823-5431"/><tag k="isced:level" v="1"/><tag k="addr:street" v="Longfields Drive"/><tag k="addr:housenumber" v="601"/><tag k="addr:postcode" v="K2J 4X1"/><tag k="operator" v="Conseil des écoles catholiques du Centre-Est"/></node><node lat="45.280378" lon="-75.738428"  id="-273"  changeset="false" ><tag k="amenity" v="school"/><tag k="name" v="Berrigan Elementary School"/><tag k="name:en" v="Berrigan Elementary School"/><tag k="name:fr" v="École élémentaire Berrigan"/><tag k="phone" v="+1-613-825-0092"/><tag k="fax" v="+1-613-825-5733"/><tag k="isced:level" v="1"/><tag k="addr:street" v="Berrigan Drive"/><tag k="addr:housenumber" v="199"/><tag k="addr:postcode" v="K2J 5C6"/><tag k="operator" v="Ottawa-Carleton District School Board"/></node><node lat="45.271299" lon="-75.724256"  id="-274"  changeset="false" ><tag k="amenity" v="school"/><tag k="name" v="Saint Emily School"/><tag k="name:en" v="Saint Emily School"/><tag k="name:fr" v="École St.Emily"/><tag k="phone" v="+1-613-825-4300"/><tag k="fax" v="+1-613-825-1924"/><tag k="isced:level" v="1"/><tag k="addr:street" v="Chapman Mills Drive"/><tag k="addr:housenumber" v="500"/><tag k="addr:postcode" v="K2J 0J2"/><tag k="operator" v="Ottawa Catholic School Board"/></node><node lat="45.261243" lon="-75.765565"  id="-275"  changeset="false" ><tag k="amenity" v="school"/><tag k="name" v="Ottawa Christian School"/><tag k="name:en" v="Ottawa Christian School"/><tag k="name:fr" v="École chrétienne d'Ottawa"/><tag k="phone" v="+1-613-727-5066"/><tag k="fax" v="+1-613-722-5836"/><tag k="isced:level" v="1"/><tag k="addr:street" v="Tartan Drive"/><tag k="addr:housenumber" v="255"/><tag k="addr:postcode" v="K2E 5Z6"/><tag k="operator" v="Private"/></node><node lat="45.270659" lon="-75.731773"  id="-276"  changeset="false" ><tag k="amenity" v="school"/><tag k="name" v="Jean-Robert-Gauthier Catholic Elementary School"/><tag k="name:en" v="Jean-Robert-Gauthier Catholic Elementary School"/><tag k="name:fr" v="École élémentaire catholique Jean-Robert-Gauthier"/><tag k="phone" v="+1-613-820-0757"/><tag k="fax" v="+1-613-440-4023"/><tag k="isced:level" v="1"/><tag k="addr:street" v="Chapman Mills Drive"/><tag k="addr:housenumber" v="651"/><tag k="addr:postcode" v="K2J 0W7"/><tag k="operator" v="Conseil des écoles catholiques du Centre-Est"/></node><node lat="45.365594" lon="-75.721285"  id="-277"  changeset="false" ><tag k="amenity" v="school"/><tag k="name" v="Ottawa Islamic School"/><tag k="name:en" v="Ottawa Islamic School"/><tag k="name:fr" v="École islamique d'Otatwa"/><tag k="phone" v="+1-613-727-5066"/><tag k="fax" v="+1-613-727-8486"/><tag k="isced:level" v="1"/><tag k="addr:street" v="Coral Street"/><tag k="addr:housenumber" v="10"/><tag k="addr:postcode" v="K2E 5Z6"/><tag k="operator" v="Private"/></node><node lat="45.403508" lon="-75.692488"  id="-278"  changeset="false" ><tag k="amenity" v="school"/><tag k="name" v="Glebe Montessori School"/><tag k="name:en" v="Glebe Montessori School"/><tag k="name:fr" v="École Montessori du Glebe"/><tag k="phone" v="+1-613-237-3824"/><tag k="fax" v="+1-613-237-4962"/><tag k="isced:level" v="1"/><tag k="addr:street" v="Lyon Street"/><tag k="addr:housenumber" v="650"/><tag k="addr:postcode" v="K1S 3Z7"/><tag k="operator" v="Private"/></node><node lat="45.393593" lon="-75.68374"  id="-279"  changeset="false" ><tag k="amenity" v="school"/><tag k="name" v="Hopewell Avenue Public School"/><tag k="name:en" v="Hopewell Avenue Public School"/><tag k="name:fr" v="École publique de l'avenue Hopewell"/><tag k="phone" v="+1-613-239-2348"/><tag k="fax" v="+1-613-566-7354"/><tag k="isced:level" v="1"/><tag k="addr:street" v="Hopewell Avenue"/><tag k="addr:housenumber" v="17"/><tag k="addr:postcode" v="K1S 2Y7"/><tag k="operator" v="Ottawa-Carleton District School Board"/></node><node lat="45.411779" lon="-75.67848"  id="-280"  changeset="false" ><tag k="amenity" v="school"/><tag k="name" v="Lady Evelyn Alternative School"/><tag k="name:en" v="Lady Evelyn Alternative School"/><tag k="name:fr" v="École alternative Lady Evelyn"/><tag k="phone" v="+1-613-239-2404"/><tag k="fax" v="+1-613-563-7775"/><tag k="isced:level" v="1"/><tag k="addr:street" v="Evelyn Avenue"/><tag k="addr:housenumber" v="63"/><tag k="addr:postcode" v="K1S 0C6"/><tag k="operator" v="Ottawa-Carleton District School Board"/></node><node lat="45.324662" lon="-75.930513"  id="-281"  changeset="false" ><tag k="amenity" v="school"/><tag k="name" v="Saint Gabriel School"/><tag k="name:en" v="Saint Gabriel School"/><tag k="name:fr" v="École St.Gabriel"/><tag k="phone" v="+1-613-271-6181"/><tag k="fax" v="+1-613-271-8040"/><tag k="isced:level" v="1"/><tag k="addr:street" v="Keyrock Drive"/><tag k="addr:housenumber" v="400"/><tag k="addr:postcode" v="K2T 0G6"/><tag k="operator" v="Ottawa Catholic School Board"/></node><node lat="45.327509" lon="-75.922609"  id="-282"  changeset="false" ><tag k="amenity" v="school"/><tag k="name" v="Saint-Rémi Catholic Elementary School"/><tag k="name:en" v="Saint-Rémi Catholic Elementary School"/><tag k="name:fr" v="École élémentaire catholique Saint-Rémi"/><tag k="phone" v="+1-613-741-2360"/><tag k="fax" v="+1-613-271-1494"/><tag k="isced:level" v="1"/><tag k="addr:street" v="Walden Drive"/><tag k="addr:housenumber" v="100"/><tag k="addr:postcode" v="K2K 0G8"/><tag k="operator" v="Conseil des écoles catholiques du Centre-Est"/></node><node lat="45.246764" lon="-75.907076"  id="-283"  changeset="false" ><tag k="amenity" v="school"/><tag k="name" v="Westwind Public School"/><tag k="name:en" v="Westwind Public School"/><tag k="name:fr" v="École publique Westwind"/><tag k="phone" v="+1-613-831-7840"/><tag k="fax" v="+1-613-831-5699"/><tag k="isced:level" v="1"/><tag k="addr:street" v="Hartsmere Drive"/><tag k="addr:housenumber" v="111"/><tag k="addr:postcode" v="K2S 2B7"/><tag k="operator" v="Ottawa-Carleton District School Board"/></node><node lat="45.268946" lon="-75.730678"  id="-284"  changeset="false" ><tag k="amenity" v="school"/><tag k="name" v="Chapman Mills Public School"/><tag k="name:en" v="Chapman Mills Public School"/><tag k="name:fr" v="École publique Chapman Mills"/><tag k="phone" v="+1-613-823-3336"/><tag k="fax" v="+1-613-823-3999"/><tag k="isced:level" v="1"/><tag k="addr:street" v="Leamington Way"/><tag k="addr:housenumber" v="260"/><tag k="addr:postcode" v="K2J 3V1"/><tag k="operator" v="Ottawa-Carleton District School Board"/></node><node lat="45.260955" lon="-75.563601"  id="-285"  changeset="false" ><tag k="amenity" v="school"/><tag k="name" v="Greely Elementary School"/><tag k="name:en" v="Greely Elementary School"/><tag k="name:fr" v="École élémentaire Greely"/><tag k="phone" v="+1-613-821-2291"/><tag k="fax" v="+1-613-821-3326"/><tag k="isced:level" v="1"/><tag k="addr:street" v="Parkway Road"/><tag k="addr:housenumber" v="7066"/><tag k="addr:postcode" v="K4P 1A9"/><tag k="operator" v="Ottawa-Carleton District School Board"/></node><node lat="45.279918" lon="-75.571152"  id="-286"  changeset="false" ><tag k="amenity" v="school"/><tag k="name" v="Saint Mary School"/><tag k="name:en" v="Saint Mary School"/><tag k="name:fr" v="École Saint Mary"/><tag k="phone" v="+1-613-822-2985"/><tag k="fax" v="+1-613-822-0288"/><tag k="isced:level" v="1"/><tag k="addr:street" v="Bank Street"/><tag k="addr:housenumber" v="5536"/><tag k="addr:postcode" v="K1X 1G9"/><tag k="operator" v="Ottawa Catholic School Board"/></node><node lat="45.354572" lon="-75.777721"  id="-287"  changeset="false" ><tag k="amenity" v="school"/><tag k="name" v="Joan Of Arc Academy"/><tag k="name:en" v="Joan Of Arc Academy"/><tag k="name:fr" v="Académie Joan of Arc"/><tag k="phone" v="+1-613-728-6364"/><tag k="fax" v="+1-613-728-2935"/><tag k="isced:level" v="1"/><tag k="addr:street" v="Elmira Road"/><tag k="addr:housenumber" v="2221"/><tag k="addr:postcode" v="K1Y 2G5"/><tag k="operator" v="Private"/></node><node lat="45.349255" lon="-75.772302"  id="-288"  changeset="false" ><tag k="amenity" v="school"/><tag k="name" v="Bishop Hamilton Christian Montessori School (West)"/><tag k="name:en" v="Bishop Hamilton Christian Montessori School (West)"/><tag k="name:fr" v="École Montessori chrétienne Bishop Hamilton (Ouest)"/><tag k="phone" v="+1-613-596-4013"/><tag k="fax" v="+1-613-596-4971"/><tag k="isced:level" v="1"/><tag k="addr:street" v="Regency Terrace"/><tag k="addr:housenumber" v="2199"/><tag k="addr:postcode" v="K2C 1H2"/><tag k="operator" v="Private"/></node><node lat="45.404128" lon="-75.748076"  id="-289"  changeset="false" ><tag k="amenity" v="school"/><tag k="name" v="Saint George School"/><tag k="name:en" v="Saint George School"/><tag k="name:fr" v="Écoel Saint George"/><tag k="phone" v="+1-613-728-8291"/><tag k="fax" v="+1-613-728-5024"/><tag k="isced:level" v="1"/><tag k="addr:street" v="Keyworth Avenue"/><tag k="addr:housenumber" v="130"/><tag k="addr:postcode" v="K1Y 0E6"/><tag k="operator" v="Ottawa Catholic School Board"/></node><node lat="45.394308" lon="-75.735925"  id="-290"  changeset="false" ><tag k="amenity" v="school"/><tag k="name" v="Elmdale Public School"/><tag k="name:en" v="Elmdale Public School"/><tag k="name:fr" v="École publqiue Elmdale"/><tag k="phone" v="+1-613-728-4653"/><tag k="fax" v="+1-613-728-2301"/><tag k="isced:level" v="1"/><tag k="addr:street" v="Iona Street"/><tag k="addr:housenumber" v="49"/><tag k="addr:postcode" v="K1Y 3L9"/><tag k="operator" v="Ottawa-Carleton District School Board"/></node><node lat="45.302963" lon="-75.90003"  id="-291"  changeset="false" ><tag k="amenity" v="school"/><tag k="name" v="Holy Redeemer School"/><tag k="name:en" v="Holy Redeemer School"/><tag k="name:fr" v="École Holy Redeemer"/><tag k="phone" v="+1-613-591-3256"/><tag k="fax" v="+1-613-591-9427"/><tag k="isced:level" v="1"/><tag k="addr:street" v="McCurdy Drive"/><tag k="addr:housenumber" v="75"/><tag k="addr:postcode" v="K2L 3W6"/><tag k="operator" v="Ottawa Catholic School Board"/></node><node lat="45.305226" lon="-75.897232"  id="-292"  changeset="false" ><tag k="amenity" v="school"/><tag k="name" v="Castlefrank Elementary School"/><tag k="name:en" v="Castlefrank Elementary School"/><tag k="name:fr" v="École élémentaire Castlefrank"/><tag k="phone" v="+1-613-592-8071"/><tag k="fax" v="+1-613-592-0921"/><tag k="isced:level" v="1"/><tag k="addr:street" v="McCurdy Drive"/><tag k="addr:housenumber" v="55"/><tag k="addr:postcode" v="K2L 4A9"/><tag k="operator" v="Ottawa-Carleton District School Board"/></node><node lat="45.309745" lon="-75.889625"  id="-293"  changeset="false" ><tag k="amenity" v="school"/><tag k="name" v="Katimavik Elementary School"/><tag k="name:en" v="Katimavik Elementary School"/><tag k="name:fr" v="École élémentaire Katimavik"/><tag k="phone" v="+1-613-592-5462"/><tag k="fax" v="+1-613-592-6987"/><tag k="isced:level" v="1"/><tag k="addr:street" v="Chimo Drive"/><tag k="addr:housenumber" v="64"/><tag k="addr:postcode" v="K2L 1Y9"/><tag k="operator" v="Ottawa-Carleton District School Board"/></node><node lat="45.360463" lon="-75.752003"  id="-294"  changeset="false" ><tag k="amenity" v="school"/><tag k="name" v="Agincourt Road Public School"/><tag k="name:en" v="Agincourt Road Public School"/><tag k="name:fr" v="École publique Agincourt"/><tag k="phone" v="+1-613-225-2750"/><tag k="fax" v="+1-613-225-5804"/><tag k="isced:level" v="1"/><tag k="addr:street" v="Agincourt Road"/><tag k="addr:housenumber" v="1250"/><tag k="addr:postcode" v="K2C 2J2"/><tag k="operator" v="Ottawa-Carleton District School Board"/></node><node lat="45.333903" lon="-75.793562"  id="-295"  changeset="false" ><tag k="amenity" v="school"/><tag k="name" v="Saint John the Apostle School"/><tag k="name:en" v="Saint John the Apostle School"/><tag k="name:fr" v="École Saint John the Apostle"/><tag k="phone" v="+1-613-828-0644"/><tag k="fax" v="+1-613-828-2216"/><tag k="isced:level" v="1"/><tag k="addr:street" v="Costello Avenue"/><tag k="addr:housenumber" v="30"/><tag k="addr:postcode" v="K2H 7C5"/><tag k="operator" v="Ottawa Catholic School Board"/></node><node lat="45.336812" lon="-75.788155"  id="-296"  changeset="false" ><tag k="amenity" v="school"/><tag k="name" v="Leslie Park Public School"/><tag k="name:en" v="Leslie Park Public School"/><tag k="name:fr" v="École publique Leslie Park"/><tag k="phone" v="+1-613-828-5999"/><tag k="fax" v="+1-613-828-9225"/><tag k="isced:level" v="1"/><tag k="addr:street" v="Harrison Street"/><tag k="addr:housenumber" v="20"/><tag k="addr:postcode" v="K2H 7N5"/><tag k="operator" v="Ottawa-Carleton District School Board"/></node><node lat="45.360928" lon="-75.70104"  id="-297"  changeset="false" ><tag k="amenity" v="school"/><tag k="name" v="Carleton Heights Public School"/><tag k="name:en" v="Carleton Heights Public School"/><tag k="name:fr" v="École publique Carleton Heights"/><tag k="phone" v="+1-613-224-7922"/><tag k="fax" v="+1-613-224-3737"/><tag k="isced:level" v="1"/><tag k="addr:street" v="Prince Of Wales Drive"/><tag k="addr:housenumber" v="1660"/><tag k="addr:postcode" v="K2C 1P4"/><tag k="operator" v="Ottawa-Carleton District School Board"/></node><node lat="45.382457" lon="-75.73187"  id="-298"  changeset="false" ><tag k="amenity" v="school"/><tag k="name" v="W.E. Gowling Public School"/><tag k="name:en" v="W.E. Gowling Public School"/><tag k="name:fr" v="École publique W.E. Gowling"/><tag k="phone" v="+1-613-728-3537"/><tag k="fax" v="+1-613-728-9999"/><tag k="isced:level" v="1"/><tag k="addr:street" v="Anna Avenue"/><tag k="addr:housenumber" v="250"/><tag k="addr:postcode" v="K1Z 7V6"/><tag k="operator" v="Ottawa-Carleton District School Board"/></node><node lat="45.381969" lon="-75.736564"  id="-299"  changeset="false" ><tag k="amenity" v="school"/><tag k="name" v="Saint Elizabeth School"/><tag k="name:en" v="Saint Elizabeth School"/><tag k="name:fr" v="École Saint Elizabeth"/><tag k="phone" v="+1-613-728-4744"/><tag k="fax" v="+1-613-728-5344"/><tag k="isced:level" v="1"/><tag k="addr:street" v="Coldrey Avenue"/><tag k="addr:housenumber" v="1366"/><tag k="addr:postcode" v="K1Z 7P5"/><tag k="operator" v="Ottawa Catholic School Board"/></node><node lat="45.382739" lon="-75.758286"  id="-300"  changeset="false" ><tag k="amenity" v="school"/><tag k="name" v="Broadview Public School"/><tag k="name:en" v="Broadview Public School"/><tag k="name:fr" v="École publique Broadview"/><tag k="phone" v="+1-613-728-1721"/><tag k="fax" v="+1-613-728-5945"/><tag k="isced:level" v="1"/><tag k="addr:street" v="Broadview Avenue"/><tag k="addr:housenumber" v="590"/><tag k="addr:postcode" v="K2A 2L8"/><tag k="operator" v="Ottawa-Carleton District School Board"/></node><node lat="45.32921" lon="-75.900985"  id="-301"  changeset="false" ><tag k="amenity" v="school"/><tag k="name" v="Kanata Academy"/><tag k="name:en" v="Kanata Academy"/><tag k="name:fr" v="Académie de Kanata"/><tag k="phone" v="+1-613-599-5399"/><tag k="fax" v="+1-613-599-0556"/><tag k="isced:level" v="1"/><tag k="addr:street" v="Bearverbrook Road"/><tag k="addr:housenumber" v="2"/><tag k="addr:postcode" v="K2K 1L1"/><tag k="operator" v="Private"/></node><node lat="45.321317" lon="-75.82696"  id="-302"  changeset="false" ><tag k="amenity" v="school"/><tag k="name" v="Our Lady Of Peace School"/><tag k="name:en" v="Our Lady Of Peace School"/><tag k="name:fr" v="École Our Lady Of Peace"/><tag k="phone" v="+1-613-828-4037"/><tag k="fax" v="+1-613-828-5778"/><tag k="isced:level" v="1"/><tag k="addr:street" v="Richmond Road"/><tag k="addr:housenumber" v="3877"/><tag k="addr:postcode" v="K2H 5C1"/><tag k="operator" v="Ottawa Catholic School Board"/></node><node lat="45.324717" lon="-75.825249"  id="-303"  changeset="false" ><tag k="amenity" v="school"/><tag k="name" v="Bells Corners Public School"/><tag k="name:en" v="Bells Corners Public School"/><tag k="name:fr" v="École publique Bells Corners"/><tag k="phone" v="+1-613-828-3100"/><tag k="fax" v="+1-613-828-3701"/><tag k="isced:level" v="1"/><tag k="addr:street" v="Old Richmond Road"/><tag k="addr:housenumber" v="3770"/><tag k="addr:postcode" v="K2H 5C3"/><tag k="operator" v="Ottawa-Carleton District School Board"/></node><node lat="45.35991" lon="-75.763561"  id="-304"  changeset="false" ><tag k="amenity" v="school"/><tag k="name" v="Torah Academy of Ottawa"/><tag k="name:en" v="Torah Academy of Ottawa"/><tag k="name:fr" v="Académie de la Torah d'Ottawa"/><tag k="phone" v="+1-613-274-0110"/><tag k="fax" v="+1-null"/><tag k="isced:level" v="1"/><tag k="addr:street" v="Lazard Street"/><tag k="addr:housenumber" v="1119"/><tag k="addr:postcode" v="K2C 2R5"/><tag k="operator" v="Private"/></node><node lat="45.383733" lon="-75.664837"  id="-305"  changeset="false" ><tag k="amenity" v="school"/><tag k="name" v="Alta Vista Public School"/><tag k="name:en" v="Alta Vista Public School"/><tag k="name:fr" v="École publique Alta Vista"/><tag k="phone" v="+1-613-733-7124"/><tag k="fax" v="+1-613-733-2730"/><tag k="isced:level" v="1"/><tag k="addr:street" v="Randall  Avenue"/><tag k="addr:housenumber" v="1349"/><tag k="addr:postcode" v="K1H 7R2"/><tag k="operator" v="Ottawa-Carleton District School Board"/></node><node lat="45.373979" lon="-75.674513"  id="-306"  changeset="false" ><tag k="amenity" v="school"/><tag k="name" v="Ecole IBN Batouta"/><tag k="name:en" v="Ecole IBN Batouta"/><tag k="name:fr" v="École IBN Batouta"/><tag k="phone" v="+1-613-730-6396"/><tag k="fax" v="+1-613-730-7751"/><tag k="isced:level" v="1"/><tag k="addr:street" v="Brookfield Road"/><tag k="addr:housenumber" v="1000"/><tag k="addr:postcode" v="K1V 6J1"/><tag k="operator" v="Private"/></node><node lat="45.348602" lon="-75.634537"  id="-307"  changeset="false" ><tag k="amenity" v="school"/><tag k="name" v="Gabrielle-Roy Public Elementary School"/><tag k="name:en" v="Gabrielle-Roy Public Elementary School"/><tag k="name:fr" v="École élémentaire publique Gabrielle-Roy"/><tag k="phone" v="+1-613-733-8301"/><tag k="fax" v="+1-613-733-1894"/><tag k="isced:level" v="1"/><tag k="addr:street" v="D'Aoust Avenue"/><tag k="addr:housenumber" v="3395"/><tag k="addr:postcode" v="K1T 4A8"/><tag k="operator" v="Conseil des écoles publiques de l'Est de l'Ontario"/></node><node lat="45.351964" lon="-75.623429"  id="-308"  changeset="false" ><tag k="amenity" v="school"/><tag k="name" v="Sainte-Bernadette Catholic Elementary School"/><tag k="name:en" v="Sainte-Bernadette Catholic Elementary School"/><tag k="name:fr" v="École élémentaire catholique Sainte-Bernadette"/><tag k="phone" v="+1-613-521-0875"/><tag k="fax" v="+1-613-521-9010"/><tag k="isced:level" v="1"/><tag k="addr:street" v="Sixth Street"/><tag k="addr:housenumber" v="3781"/><tag k="addr:postcode" v="K1T 1K5"/><tag k="operator" v="Conseil des écoles catholiques du Centre-Est"/></node><node lat="45.351298" lon="-75.624921"  id="-309"  changeset="false" ><tag k="amenity" v="school"/><tag k="name" v="Saint Bernard School"/><tag k="name:en" v="Saint Bernard School"/><tag k="name:fr" v="École Saint Bernard"/><tag k="phone" v="+1-613-521-5894"/><tag k="fax" v="+1-613-521-5780"/><tag k="isced:level" v="1"/><tag k="addr:street" v="Saint Bernard Street"/><tag k="addr:housenumber" v="1722"/><tag k="addr:postcode" v="K1T 1K8"/><tag k="operator" v="Ottawa Catholic School Board"/></node><node lat="45.311398" lon="-75.882402"  id="-310"  changeset="false" ><tag k="amenity" v="school"/><tag k="name" v="Roger-Saint-Denis Catholic Elementary School"/><tag k="name:en" v="Roger-Saint-Denis Catholic Elementary School"/><tag k="name:fr" v="École élémentaire catholique Roger-Saint-Denis"/><tag k="phone" v="+1-613-521-3815"/><tag k="fax" v="+1-613-592-8275"/><tag k="isced:level" v="1"/><tag k="addr:street" v="Barrow Crescent"/><tag k="addr:housenumber" v="186"/><tag k="addr:postcode" v="K2L 2C7"/><tag k="operator" v="Conseil des écoles catholiques du Centre-Est"/></node><node lat="45.40728" lon="-75.652418"  id="-311"  changeset="false" ><tag k="amenity" v="school"/><tag k="name" v="Ottawa Montessori School"/><tag k="name:en" v="Ottawa Montessori School"/><tag k="name:fr" v="École Montessori Ottawa"/><tag k="phone" v="+1-613-521-5185"/><tag k="fax" v="+1-613-521-6796"/><tag k="isced:level" v="1"/><tag k="addr:street" v="Lindsay Street"/><tag k="addr:housenumber" v="335"/><tag k="addr:postcode" v="K1G 0L8"/><tag k="operator" v="Private"/></node><node lat="45.460329" lon="-75.597574"  id="-312"  changeset="false" ><tag k="amenity" v="school"/><tag k="name" v="La Vérendrye Catholic Elementary School"/><tag k="name:en" v="La Vérendrye Catholic Elementary School"/><tag k="name:fr" v="École élémentaire catholique La Vérendrye"/><tag k="phone" v="+1-613-749-2349"/><tag k="fax" v="+1-613-749-4924"/><tag k="isced:level" v="1"/><tag k="addr:street" v="Eastvale Drive"/><tag k="addr:housenumber" v="614"/><tag k="addr:postcode" v="K1J 6Z6"/><tag k="operator" v="Conseil des écoles catholiques du Centre-Est"/></node><node lat="45.262606" lon="-75.933667"  id="-313"  changeset="false" ><tag k="amenity" v="school"/><tag k="name" v="A. Lorne Cassidy Elementary School"/><tag k="name:en" v="A. Lorne Cassidy Elementary School"/><tag k="name:fr" v="École élémentaire A.-Lorne-Cassidy"/><tag k="phone" v="+1-613-831-3434"/><tag k="fax" v="+1-613-831-3997"/><tag k="isced:level" v="1"/><tag k="addr:street" v="Hobin Street"/><tag k="addr:housenumber" v="27"/><tag k="addr:postcode" v="K2S 1G8"/><tag k="operator" v="Ottawa-Carleton District School Board"/></node><node lat="45.291247" lon="-75.860873"  id="-314"  changeset="false" ><tag k="amenity" v="school"/><tag k="name" v="Saint James School"/><tag k="name:en" v="Saint James School"/><tag k="name:fr" v="École Saint James"/><tag k="phone" v="+1-613-599-6600"/><tag k="fax" v="+1-613-599-9070"/><tag k="isced:level" v="1"/><tag k="addr:street" v="Stonehaven Drive"/><tag k="addr:housenumber" v="50"/><tag k="addr:postcode" v="K2M 2K6"/><tag k="operator" v="Ottawa Catholic School Board"/></node><node lat="45.459369" lon="-75.460758"  id="-315"  changeset="false" ><tag k="amenity" v="school"/><tag k="name" v="Des Sentiers Public Elementary School"/><tag k="name:en" v="Des Sentiers Public Elementary School"/><tag k="name:fr" v="École élémentaire publique Des Sentiers"/><tag k="phone" v="+1-613-834-4453"/><tag k="fax" v="+1-613-834-7131"/><tag k="isced:level" v="1"/><tag k="addr:street" v="Nantes Street"/><tag k="addr:housenumber" v="2159"/><tag k="addr:postcode" v="K4A 4C4"/><tag k="operator" v="Conseil des écoles publiques de l'Est de l'Ontario"/></node><node lat="45.435505" lon="-76.115314"  id="-316"  changeset="false" ><tag k="amenity" v="school"/><tag k="name" v="Stonecrest Elementary School"/><tag k="name:en" v="Stonecrest Elementary School"/><tag k="name:fr" v="École élémentaire Stonecrest"/><tag k="phone" v="+1-613-832-5527"/><tag k="fax" v="+1-613-832-5525"/><tag k="isced:level" v="1"/><tag k="addr:street" v="Stonecrest Road"/><tag k="addr:housenumber" v="3791"/><tag k="addr:postcode" v="K0A 3M0"/><tag k="operator" v="Ottawa-Carleton District School Board"/></node><node lat="45.232067" lon="-75.476172"  id="-317"  changeset="false" ><tag k="amenity" v="school"/><tag k="name" v="Community Christian School"/><tag k="name:en" v="Community Christian School"/><tag k="name:fr" v="Écoel chrétienne communautaire"/><tag k="phone" v="+1-613-821-3669"/><tag k="fax" v="+1-613-821-3669"/><tag k="isced:level" v="1"/><tag k="addr:street" v="Glen Street"/><tag k="addr:housenumber" v="2681"/><tag k="addr:postcode" v="K0A 2P0"/><tag k="operator" v="Private"/></node><node lat="45.443734" lon="-75.599628"  id="-318"  changeset="false" ><tag k="amenity" v="school"/><tag k="name" v="Saint Brother André Catholic School"/><tag k="name:en" v="Saint Brother André Catholic School"/><tag k="name:fr" v="École catholique Saint Brother André"/><tag k="phone" v="+1-613-741-0100"/><tag k="fax" v="+1-613-745-4794"/><tag k="isced:level" v="1"/><tag k="addr:street" v="Elmridge Drive"/><tag k="addr:housenumber" v="1923"/><tag k="addr:postcode" v="K1J 8G7"/><tag k="operator" v="Ottawa Catholic School Board"/></node><node lat="45.328391" lon="-75.893176"  id="-319"  changeset="false" ><tag k="amenity" v="school"/><tag k="name" v="Roland Michener Public School"/><tag k="name:en" v="Roland Michener Public School"/><tag k="name:fr" v="École publique Roland-Michener"/><tag k="phone" v="+1-613-592-2126"/><tag k="fax" v="+1-613-592-3254"/><tag k="isced:level" v="1"/><tag k="addr:street" v="Penfield Drive"/><tag k="addr:housenumber" v="100"/><tag k="addr:postcode" v="K2K 1M2"/><tag k="operator" v="Ottawa-Carleton District School Board"/></node><node lat="45.373468" lon="-75.67229"  id="-320"  changeset="false" ><tag k="amenity" v="school"/><tag k="name" v="Lamoureux Catholic Elementary School - Individualized Instruction"/><tag k="name:en" v="Lamoureux Catholic Elementary School - Individualized Instruction"/><tag k="name:fr" v="École élémentaire catholique Lamoureux - Enseignement personnalisé"/><tag k="phone" v="+1-613-731-3713"/><tag k="fax" v="+1-613-731-4231"/><tag k="isced:level" v="1"/><tag k="addr:street" v="Kaladar Avenue"/><tag k="addr:housenumber" v="2540"/><tag k="addr:postcode" v="K1V 8C5"/><tag k="operator" v="Conseil des écoles catholiques du Centre-Est"/></node><node lat="45.36283" lon="-75.763129"  id="-321"  changeset="false" ><tag k="amenity" v="school"/><tag k="name" v="Charlotte-Lemieux Public Elementary School"/><tag k="name:en" v="Charlotte-Lemieux Public Elementary School"/><tag k="name:fr" v="École élémentaire publique Charlotte-Lemieux"/><tag k="phone" v="+1-613-225-1113"/><tag k="fax" v="+1-613-225-6567"/><tag k="isced:level" v="1"/><tag k="addr:street" v="Bel-Air Drive"/><tag k="addr:housenumber" v="2093"/><tag k="addr:postcode" v="K2C 0X2"/><tag k="operator" v="Conseil des écoles publiques de l'Est de l'Ontario"/></node><node lat="45.337789" lon="-75.777514"  id="-322"  changeset="false" ><tag k="amenity" v="school"/><tag k="name" v="Briargreen Public School"/><tag k="name:en" v="Briargreen Public School"/><tag k="name:fr" v="École publique Briargreen"/><tag k="phone" v="+1-613-828-5027"/><tag k="fax" v="+1-613-828-1485"/><tag k="isced:level" v="1"/><tag k="addr:street" v="Parkfield Crescent"/><tag k="addr:housenumber" v="19"/><tag k="addr:postcode" v="K2G 0R9"/><tag k="operator" v="Ottawa-Carleton District School Board"/></node><node lat="45.449305" lon="-75.538167"  id="-323"  changeset="false" ><tag k="amenity" v="school"/><tag k="name" v="Forest Valley Elementary School"/><tag k="name:en" v="Forest Valley Elementary School"/><tag k="name:fr" v="École élémentaire Forest Valley"/><tag k="phone" v="+1-613-824-0733"/><tag k="fax" v="+1-613-824-0737"/><tag k="isced:level" v="1"/><tag k="addr:street" v="Forest Valley Drive"/><tag k="addr:housenumber" v="1570"/><tag k="addr:postcode" v="K1C 6X7"/><tag k="operator" v="Ottawa-Carleton District School Board"/></node><node lat="45.378536" lon="-75.721111"  id="-324"  changeset="false" ><tag k="amenity" v="school"/><tag k="name" v="Turnbull School"/><tag k="name:en" v="Turnbull School"/><tag k="name:fr" v="École Turnbull"/><tag k="phone" v="+1-613-729-9940"/><tag k="fax" v="+1-613-729-1636"/><tag k="isced:level" v="1"/><tag k="addr:street" v="Fisher Avenue"/><tag k="addr:housenumber" v="1132"/><tag k="addr:postcode" v="K1Z 6P7"/><tag k="operator" v="Private"/></node><node lat="45.368211" lon="-75.711879"  id="-325"  changeset="false" ><tag k="amenity" v="school"/><tag k="name" v="Saint Augustine School"/><tag k="name:en" v="Saint Augustine School"/><tag k="name:fr" v="École Saint Augustine"/><tag k="phone" v="+1-613-225-8020"/><tag k="fax" v="+1-613-225-4107"/><tag k="isced:level" v="1"/><tag k="addr:street" v="Arnot Street"/><tag k="addr:housenumber" v="1009"/><tag k="addr:postcode" v="K2C 0H5"/><tag k="operator" v="Ottawa Catholic School Board"/></node><node lat="45.343909" lon="-75.750628"  id="-326"  changeset="false" ><tag k="amenity" v="school"/><tag k="name" v="Saint Gregory School"/><tag k="name:en" v="Saint Gregory School"/><tag k="name:fr" v="École Saint Gregory"/><tag k="phone" v="+1-613-224-3011"/><tag k="fax" v="+1-613-224-5692"/><tag k="isced:level" v="1"/><tag k="addr:street" v="Meadowlands Drive West"/><tag k="addr:housenumber" v="148"/><tag k="addr:postcode" v="K2G 2S5"/><tag k="operator" v="Ottawa Catholic School Board"/></node><node lat="45.344904" lon="-75.73677"  id="-327"  changeset="false" ><tag k="amenity" v="school"/><tag k="name" v="Meadowlands Public School"/><tag k="name:en" v="Meadowlands Public School"/><tag k="name:fr" v="École publique Meadowlands"/><tag k="phone" v="+1-613-224-1733"/><tag k="fax" v="+1-613-224-1920"/><tag k="isced:level" v="1"/><tag k="addr:street" v="Fieldrow Street"/><tag k="addr:housenumber" v="10"/><tag k="addr:postcode" v="K2G 2Y7"/><tag k="operator" v="Ottawa-Carleton District School Board"/></node><node lat="45.285261" lon="-75.682768"  id="-328"  changeset="false" ><tag k="amenity" v="school"/><tag k="name" v="Bernard-Grandmaître Catholic Elementary School"/><tag k="name:en" v="Bernard-Grandmaître Catholic Elementary School"/><tag k="name:fr" v="École élémentaire catholique Bernard-Grandmaître"/><tag k="phone" v="+1-613-820-3814"/><tag k="fax" v="+1-613-822-0103"/><tag k="isced:level" v="1"/><tag k="addr:street" v="Spratt Road"/><tag k="addr:housenumber" v="4170"/><tag k="addr:postcode" v="K1V 0Z5"/><tag k="operator" v="Conseil des écoles catholiques du Centre-Est"/></node><node lat="45.347726" lon="-75.823674"  id="-329"  changeset="false" ><tag k="amenity" v="school"/><tag k="name" v="Lakeview Public School"/><tag k="name:en" v="Lakeview Public School"/><tag k="name:fr" v="Longfields-Davidson Heights Intermediate School"/><tag k="phone" v="+1-613-828-8077"/><tag k="fax" v="+1-613-828-9122"/><tag k="isced:level" v="1"/><tag k="addr:street" v="Corkstown Road"/><tag k="addr:housenumber" v="35"/><tag k="addr:postcode" v="K2H 7V4"/><tag k="operator" v="Ottawa-Carleton District School Board"/></node><node lat="45.360125" lon="-75.800998"  id="-330"  changeset="false" ><tag k="amenity" v="school"/><tag k="name" v="Dr. F. J. McDonald Catholic School"/><tag k="name:en" v="Dr. F. J. McDonald Catholic School"/><tag k="name:fr" v="École publique Lakeview"/><tag k="phone" v="+1-613-829-3878"/><tag k="fax" v="+1-613-829-3782"/><tag k="isced:level" v="1"/><tag k="addr:street" v="Ahearn Avenue"/><tag k="addr:housenumber" v="2860"/><tag k="addr:postcode" v="K2B 6Z9"/><tag k="operator" v="Ottawa Catholic School Board"/></node><node lat="45.445785" lon="-75.678395"  id="-331"  changeset="false" ><tag k="amenity" v="school"/><tag k="name" v="Saint Brigid School"/><tag k="name:en" v="Saint Brigid School"/><tag k="name:fr" v="École Saint Brigid"/><tag k="phone" v="+1-613-746-4888"/><tag k="fax" v="+1-613-746-4980"/><tag k="isced:level" v="1"/><tag k="addr:street" v="Springfield Road"/><tag k="addr:housenumber" v="200"/><tag k="addr:postcode" v="K1M 1C2"/><tag k="operator" v="Ottawa Catholic School Board"/></node><node lat="45.477855" lon="-75.539812"  id="-332"  changeset="false" ><tag k="amenity" v="school"/><tag k="name" v="Terry Fox Elementary School"/><tag k="name:en" v="Terry Fox Elementary School"/><tag k="name:fr" v="École élémentaire Terry-Fox"/><tag k="phone" v="+1-613-837-3251"/><tag k="fax" v="+1-613-837-7628"/><tag k="isced:level" v="1"/><tag k="addr:street" v="Jeanne D'arc Boulevard"/><tag k="addr:housenumber" v="6400"/><tag k="addr:postcode" v="K1C 2S7"/><tag k="operator" v="Ottawa-Carleton District School Board"/></node><node lat="45.282337" lon="-75.843596"  id="-333"  changeset="false" ><tag k="amenity" v="school"/><tag k="name" v="Saint Anne School"/><tag k="name:en" v="Saint Anne School"/><tag k="name:fr" v="École Saint Anne"/><tag k="phone" v="+1-613-271-0308"/><tag k="fax" v="+1-613-271-8017"/><tag k="isced:level" v="1"/><tag k="addr:street" v="Stonehaven Drive"/><tag k="addr:housenumber" v="500"/><tag k="addr:postcode" v="K2M 2V6"/><tag k="operator" v="Ottawa Catholic School Board"/></node><node lat="45.285144" lon="-75.860901"  id="-334"  changeset="false" ><tag k="amenity" v="school"/><tag k="name" v="Bridlewood Community Elementary School"/><tag k="name:en" v="Bridlewood Community Elementary School"/><tag k="name:fr" v="École élémentaire Bridlewood Community"/><tag k="phone" v="+1-613-591-3683"/><tag k="fax" v="+1-613-591-0788"/><tag k="isced:level" v="1"/><tag k="addr:street" v="Bluegrass Drive"/><tag k="addr:housenumber" v="63"/><tag k="addr:postcode" v="K2M 1G2"/><tag k="operator" v="Ottawa-Carleton District School Board"/></node><node lat="45.283416" lon="-75.846943"  id="-335"  changeset="false" ><tag k="amenity" v="school"/><tag k="name" v="Roch Carrier Elementary School"/><tag k="name:en" v="Roch Carrier Elementary School"/><tag k="name:fr" v="École élémentaire Roch-Carrier"/><tag k="phone" v="+1-613-254-8400"/><tag k="fax" v="+1-613-254-9572"/><tag k="isced:level" v="1"/><tag k="addr:street" v="Stonehaven Drive"/><tag k="addr:housenumber" v="401"/><tag k="addr:postcode" v="K2M 3B5"/><tag k="operator" v="Ottawa-Carleton District School Board"/></node><node lat="45.278656" lon="-75.859034"  id="-336"  changeset="false" ><tag k="amenity" v="school"/><tag k="name" v="Maurice-Lapointe Public Elementary School"/><tag k="name:en" v="Maurice-Lapointe Public Elementary School"/><tag k="name:fr" v="École élémentaire publique Maurice-Lapointe"/><tag k="phone" v="+1-613-591-5384"/><tag k="fax" v="+1-613-591-3127"/><tag k="isced:level" v="1"/><tag k="addr:street" v="Bridgestone Drive"/><tag k="addr:housenumber" v="17"/><tag k="addr:postcode" v="K2M 0E9"/><tag k="operator" v="Conseil des écoles publiques de l'Est de l'Ontario"/></node><node lat="45.481453" lon="-75.486471"  id="-337"  changeset="false" ><tag k="amenity" v="school"/><tag k="name" v="Fallingbrook Community Elementary School"/><tag k="name:en" v="Fallingbrook Community Elementary School"/><tag k="name:fr" v="École élémentaire Fallingbrook Community"/><tag k="phone" v="+1-613-830-8817"/><tag k="fax" v="+1-613-830-1039"/><tag k="isced:level" v="1"/><tag k="addr:street" v="Deancourt Crescent"/><tag k="addr:housenumber" v="679"/><tag k="addr:postcode" v="K4A 3E1"/><tag k="operator" v="Ottawa-Carleton District School Board"/></node><node lat="45.473721" lon="-75.481611"  id="-338"  changeset="false" ><tag k="amenity" v="school"/><tag k="name" v="Des Pionniers Catholic Elementary School"/><tag k="name:en" v="Des Pionniers Catholic Elementary School"/><tag k="name:fr" v="École élémentaire catholique des Pionniers"/><tag k="phone" v="+1-613-744-2448"/><tag k="fax" v="+1-613-837-4296"/><tag k="isced:level" v="1"/><tag k="addr:street" v="Merkley Drive"/><tag k="addr:housenumber" v="720"/><tag k="addr:postcode" v="K4A 1L8"/><tag k="operator" v="Conseil des écoles catholiques du Centre-Est"/></node><node lat="45.479478" lon="-75.47264"  id="-339"  changeset="false" ><tag k="amenity" v="school"/><tag k="name" v="Trillium Elementary School"/><tag k="name:en" v="Trillium Elementary School"/><tag k="name:fr" v="École élémentaire Trillium"/><tag k="phone" v="+1-613-841-7393"/><tag k="fax" v="+1-613-841-7392"/><tag k="isced:level" v="1"/><tag k="addr:street" v="Varennes Boulevard"/><tag k="addr:housenumber" v="1515"/><tag k="addr:postcode" v="K4A 3S1"/><tag k="operator" v="Ottawa-Carleton District School Board"/></node><node lat="45.465611" lon="-75.485027"  id="-340"  changeset="false" ><tag k="amenity" v="school"/><tag k="name" v="Jeanne-Sauvé Public Elementary School"/><tag k="name:en" v="Jeanne-Sauvé Public Elementary School"/><tag k="name:fr" v="École élémentaire publique Jeanne-Sauvé"/><tag k="phone" v="+1-613-824-9217"/><tag k="fax" v="+1-613-824-3119"/><tag k="isced:level" v="1"/><tag k="addr:street" v="Gardenway Drive"/><tag k="addr:housenumber" v="1917"/><tag k="addr:postcode" v="K4A 2Y7"/><tag k="operator" v="Conseil des écoles publiques de l'Est de l'Ontario"/></node><node lat="45.471435" lon="-75.470679"  id="-341"  changeset="false" ><tag k="amenity" v="school"/><tag k="name" v="Arc-en-ciel Catholic Elementary School"/><tag k="name:en" v="Arc-en-ciel Catholic Elementary School"/><tag k="name:fr" v="École élémentaire catholique Arc-en-ciel"/><tag k="phone" v="+1-613-744-0486"/><tag k="fax" v="+1-613-841-3494"/><tag k="isced:level" v="1"/><tag k="addr:street" v="Portobello Boulevard"/><tag k="addr:housenumber" v="1830"/><tag k="addr:postcode" v="K4A 3T6"/><tag k="operator" v="Conseil des écoles catholiques du Centre-Est"/></node><node lat="45.46932" lon="-75.474446"  id="-342"  changeset="false" ><tag k="amenity" v="school"/><tag k="name" v="Saint Clare School"/><tag k="name:en" v="Saint Clare School"/><tag k="name:fr" v="École Saint Clare"/><tag k="phone" v="+1-613-834-6334"/><tag k="fax" v="+1-613-834-4424"/><tag k="isced:level" v="1"/><tag k="addr:street" v="Gardenway Drive"/><tag k="addr:housenumber" v="2133"/><tag k="addr:postcode" v="K4A 3M2"/><tag k="operator" v="Ottawa Catholic School Board"/></node><node lat="45.470692" lon="-75.461833"  id="-343"  changeset="false" ><tag k="amenity" v="school"/><tag k="name" v="Maple Ridge Elementary School"/><tag k="name:en" v="Maple Ridge Elementary School"/><tag k="name:fr" v="École élémentaire Maple Ridge"/><tag k="phone" v="+1-613-834-1927"/><tag k="fax" v="+1-613-834-6625"/><tag k="isced:level" v="1"/><tag k="addr:street" v="Valin Street"/><tag k="addr:housenumber" v="1000"/><tag k="addr:postcode" v="K4A 4B5"/><tag k="operator" v="Ottawa-Carleton District School Board"/></node><node lat="45.463659" lon="-75.467319"  id="-344"  changeset="false" ><tag k="amenity" v="school"/><tag k="name" v="Saint Theresa School"/><tag k="name:en" v="Saint Theresa School"/><tag k="name:fr" v="École Saint Theresa"/><tag k="phone" v="+1-613-837-4114"/><tag k="fax" v="+1-613-837-6362"/><tag k="isced:level" v="1"/><tag k="addr:street" v="Portobello Boulevard"/><tag k="addr:housenumber" v="2000"/><tag k="addr:postcode" v="K4A 4M9"/><tag k="operator" v="Ottawa Catholic School Board"/></node><node lat="45.465336" lon="-75.461585"  id="-345"  changeset="false" ><tag k="amenity" v="school"/><tag k="name" v="La Découverte Catholic Elementary School"/><tag k="name:en" v="La Découverte Catholic Elementary School"/><tag k="name:fr" v="École élémentaire catholique de la Découverte"/><tag k="phone" v="+1-613-744-5894"/><tag k="fax" v="+1-613-837-9161"/><tag k="isced:level" v="1"/><tag k="addr:street" v="Scala Avenue"/><tag k="addr:housenumber" v="866"/><tag k="addr:postcode" v="K4A 4T6"/><tag k="operator" v="Conseil des écoles catholiques du Centre-Est"/></node><node lat="45.458621" lon="-75.466384"  id="-346"  changeset="false" ><tag k="amenity" v="school"/><tag k="name" v="Avalon Public School"/><tag k="name:en" v="Avalon Public School"/><tag k="name:fr" v="École publique Avalon"/><tag k="phone" v="+1-613-834-7313"/><tag k="fax" v="+1-613-834-5274"/><tag k="isced:level" v="1"/><tag k="addr:street" v="Portobello Drive"/><tag k="addr:housenumber" v="2080"/><tag k="addr:postcode" v="K4A 0K5"/><tag k="operator" v="Ottawa-Carleton District School Board"/></node><node lat="45.416772" lon="-75.70637"  id="-347"  changeset="false" ><tag k="amenity" v="school"/><tag k="name" v="International Student Program Office"/><tag k="name:en" v="International Student Program Office"/><tag k="name:fr" v="Bureau du programme pour étudiants internationaux"/><tag k="phone" v="+1-613-239-0258"/><tag k="fax" v="+1-613-239-0608"/><tag k="isced:level" v="Unknown"/><tag k="addr:street" v="Albert Street"/><tag k="addr:housenumber" v="440"/><tag k="addr:postcode" v="K1R 5B5"/><tag k="operator" v="Ottawa-Carleton District School Board"/></node><node lat="45.433955" lon="-76.034132"  id="-348"  changeset="false" ><tag k="amenity" v="school"/><tag k="name" v="Bill Mason Outdoor Education Centre"/><tag k="name:en" v="Bill Mason Outdoor Education Centre"/><tag k="name:fr" v="Centre éducatif à l'extérieur Bill-Mason"/><tag k="phone" v="+1-613-833-2080"/><tag k="fax" v="+1-613-833-0770"/><tag k="isced:level" v="Unknown"/><tag k="addr:street" v="Dunrobin Road"/><tag k="addr:housenumber" v="3088"/><tag k="addr:postcode" v="K0A 1T0"/><tag k="operator" v="Ottawa-Carleton District School Board"/></node><node lat="45.521944" lon="-75.350592"  id="-349"  changeset="false" ><tag k="amenity" v="school"/><tag k="name" v="MacSkimming Outdoor Ed. Centre"/><tag k="name:en" v="MacSkimming Outdoor Ed. Centre"/><tag k="name:fr" v="École secondaire Machon Sarah"/><tag k="phone" v="+1-613-833-2080"/><tag k="fax" v="+1-613-833-0770"/><tag k="isced:level" v="Unknown"/><tag k="addr:street" v="Hwy 17"/><tag k="addr:housenumber" v="3635"/><tag k="addr:postcode" v="K4C 1C9"/><tag k="operator" v="Ottawa-Carleton District School Board"/></node><node lat="45.478913" lon="-75.479739"  id="-350"  changeset="false" ><tag k="amenity" v="school"/><tag k="name" v="Saint Francis of Assisi School"/><tag k="name:en" v="Saint Francis of Assisi School"/><tag k="name:fr" v="École secondaire Saint Francis-Xavier"/><tag k="phone" v="+1-613-830-3215"/><tag k="fax" v="+1-613-830-5698"/><tag k="isced:level" v="1"/><tag k="addr:street" v="Watters Road"/><tag k="addr:housenumber" v="795"/><tag k="addr:postcode" v="K4A 2T2"/><tag k="operator" v="Ottawa Catholic School Board"/></node><node lat="45.450922" lon="-75.469882"  id="-351"  changeset="false" ><tag k="amenity" v="school"/><tag k="name" v="Saint Dominic School"/><tag k="name:en" v="Saint Dominic School"/><tag k="name:fr" v="École Saint Dominic"/><tag k="phone" v="+1-null"/><tag k="fax" v="+1-null"/><tag k="isced:level" v="1"/><tag k="addr:street" v="Esprit Drive"/><tag k="addr:housenumber" v="2300"/><tag k="addr:postcode" v="K4A 0T5"/><tag k="operator" v="Ottawa Catholic School Board"/></node><node lat="45.356518" lon="-75.929534"  id="-352"  changeset="false" ><tag k="amenity" v="school"/><tag k="name" v="The Greenwoods Academy"/><tag k="name:en" v="The Greenwoods Academy"/><tag k="name:fr" v="L'Académie Greenwoods"/><tag k="phone" v="+1-613-591-3100"/><tag k="fax" v="+1-null"/><tag k="isced:level" v="1"/><tag k="addr:street" v="Klondike Road"/><tag k="addr:housenumber" v="1056"/><tag k="addr:postcode" v="K2K 1X7"/><tag k="operator" v="Private"/></node><node lat="45.354028" lon="-75.791531"  id="-353"  changeset="false" ><tag k="amenity" v="school"/><tag k="name" v="MindWare Academy"/><tag k="name:en" v="MindWare Academy"/><tag k="name:fr" v="Académie MindWare"/><tag k="phone" v="+1-613-829-2694"/><tag k="fax" v="+1-613-829-2694"/><tag k="isced:level" v="1"/><tag k="addr:street" v="Pinecrest Avenue"/><tag k="addr:housenumber" v="985"/><tag k="addr:postcode" v="K2B 6B4"/><tag k="operator" v="Private"/></node><node lat="45.390606" lon="-75.755809"  id="-354"  changeset="false" ><tag k="amenity" v="school"/><tag k="name" v="Westboro Montessori School Campus 2"/><tag k="name:en" v="Westboro Montessori School Campus 2"/><tag k="name:fr" v="École Montessori de Westboro Campus 2"/><tag k="phone" v="+1-613-680-0712"/><tag k="fax" v="+1-null"/><tag k="isced:level" v="1"/><tag k="addr:street" v="Danforth Avenue"/><tag k="addr:housenumber" v="387"/><tag k="addr:postcode" v="K2E 0E1"/><tag k="operator" v="Private"/></node><node lat="45.363537" lon="-75.768144"  id="-355"  changeset="false" ><tag k="amenity" v="school"/><tag k="name" v="Maryvale Academy of Ottawa"/><tag k="name:en" v="Maryvale Academy of Ottawa"/><tag k="name:fr" v="Académie Maryvale d'Ottawa"/><tag k="phone" v="+1-613-321-2186"/><tag k="fax" v="+1-613-454-8167"/><tag k="isced:level" v="1"/><tag k="addr:street" v="Benjamin Avenue"/><tag k="addr:housenumber" v="2191"/><tag k="addr:postcode" v="K2A 1P6"/><tag k="operator" v="Private"/></node><node lat="45.425745" lon="-75.658035"  id="-356"  changeset="false" ><tag k="amenity" v="school"/><tag k="name" v="VINCI School"/><tag k="name:en" v="VINCI School"/><tag k="name:fr" v="École VINCI"/><tag k="phone" v="+1-613-842-7557"/><tag k="fax" v="+1-613-842-7557"/><tag k="isced:level" v="1"/><tag k="addr:street" v="King George Street"/><tag k="addr:housenumber" v="149"/><tag k="addr:postcode" v="K1K 1V2"/><tag k="operator" v="Private"/></node><node lat="45.392873" lon="-75.752539"  id="-357"  changeset="false" ><tag k="amenity" v="school"/><tag k="name" v="Westboro Montessori School Campus 1"/><tag k="name:en" v="Westboro Montessori School Campus 1"/><tag k="name:fr" v="École Montessori de Westboro Campus 1"/><tag k="phone" v="+1-613-321-0788"/><tag k="fax" v="+1-null"/><tag k="isced:level" v="1"/><tag k="addr:street" v="Richmond Road"/><tag k="addr:housenumber" v="307"/><tag k="addr:postcode" v="K1Z 6X3"/><tag k="operator" v="Private"/></node><node lat="45.244863" lon="-75.646034"  id="-358"  changeset="false" ><tag k="amenity" v="school"/><tag k="name" v="Manotick Montessori"/><tag k="name:en" v="Manotick Montessori"/><tag k="name:fr" v="École Montessori de Manotick"/><tag k="phone" v="+1-613-692-1969"/><tag k="fax" v="+1-613-692-1911"/><tag k="isced:level" v="1"/><tag k="addr:street" v="Longshadow Street"/><tag k="addr:housenumber" v="5710"/><tag k="addr:postcode" v="K4M 1M2"/><tag k="operator" v="Private"/></node><node lat="45.392124" lon="-75.681384"  id="-359"  changeset="false" ><tag k="amenity" v="school"/><tag k="name" v="Astolot Education Centre"/><tag k="name:en" v="Astolot Education Centre"/><tag k="name:fr" v="Centre d'éducation Astolot"/><tag k="phone" v="+1-613-260-5996"/><tag k="fax" v="+1-null"/><tag k="isced:level" v="Unknown"/><tag k="addr:street" v="Bank Street"/><tag k="addr:housenumber" v="1187"/><tag k="addr:postcode" v="K1S 1T8"/><tag k="operator" v="Private"/></node><node lat="45.390949" lon="-75.754181"  id="-360"  changeset="false" ><tag k="amenity" v="school"/><tag k="name" v="Blyth Academy"/><tag k="name:en" v="Blyth Academy"/><tag k="name:fr" v="Académie Blyth"/><tag k="phone" v="+1-613-627-7356"/><tag k="fax" v="+1-null"/><tag k="isced:level" v="2;3"/><tag k="addr:street" v="Danforth Avenue"/><tag k="addr:housenumber" v="352"/><tag k="addr:postcode" v="K2A 0E2"/><tag k="operator" v="Private"/></node><node lat="45.351586" lon="-75.794569"  id="-361"  changeset="false" ><tag k="amenity" v="school"/><tag k="name" v="Abraar School"/><tag k="name:en" v="Abraar School"/><tag k="name:fr" v="École Abraar"/><tag k="phone" v="+1-613-820-0044"/><tag k="fax" v="+1-613-820-1495"/><tag k="isced:level" v="2;3"/><tag k="addr:street" v="Grenon Avenue"/><tag k="addr:housenumber" v="1085"/><tag k="operator" v="Private"/></node><node lat="45.400932" lon="-75.682954"  id="-362"  changeset="false" ><tag k="amenity" v="school"/><tag k="name" v="Ottawa Montessori School - The Element"/><tag k="name:en" v="Ottawa Montessori School - The Element"/><tag k="name:fr" v="École Montessori d'Ottawa - L'Elément"/><tag k="phone" v="+1-613-862-8578"/><tag k="fax" v="+1-null"/><tag k="isced:level" v="2;3"/><tag k="addr:street" v="Marché Way, Unit 201"/><tag k="addr:housenumber" v="425"/><tag k="addr:postcode" v="K1S 5J3"/><tag k="operator" v="Private"/></node><node lat="45.396606" lon="-75.726061"  id="-363"  changeset="false" ><tag k="amenity" v="school"/><tag k="name" v="Parkdale Montessori School"/><tag k="name:en" v="Parkdale Montessori School"/><tag k="name:fr" v="École Montessori de Parkdale"/><tag k="phone" v="+1-613-216-7275"/><tag k="fax" v="+1-null"/><tag k="isced:level" v="1"/><tag k="addr:street" v="Parkdale Avenue"/><tag k="addr:housenumber" v="555B"/><tag k="addr:postcode" v="K1Y1H9"/><tag k="operator" v="Private"/></node><node lat="45.438131" lon="-75.667588"  id="-364"  changeset="false" ><tag k="amenity" v="school"/><tag k="name" v="Ahlul-Bayt Islamic School"/><tag k="name:en" v="Ahlul-Bayt Islamic School"/><tag k="name:fr" v="Ahlul-Bayt école islamique"/><tag k="phone" v="+1-613-526-0774"/><tag k="fax" v="+1-613-526-1941"/><tag k="isced:level" v="1"/><tag k="addr:street" v="Baribeau Street"/><tag k="addr:housenumber" v="200"/><tag k="addr:postcode" v="K1L 7R6"/><tag k="operator" v="Private"/></node><node lat="45.375799" lon="-75.751843"  id="-365"  changeset="false" ><tag k="amenity" v="school"/><tag k="name" v="Ganon Preschool"/><tag k="name:en" v="Ganon Preschool"/><tag k="name:fr" v="Préscolaire Ganon"/><tag k="phone" v="+1-613-798-9818"/><tag k="fax" v="+1-null"/><tag k="isced:level" v="1"/><tag k="addr:street" v="Sachs Private"/><tag k="addr:housenumber" v="21"/><tag k="addr:postcode" v="K2A 1R9"/><tag k="operator" v="Private"/></node><node lat="45.427409" lon="-75.64846"  id="-366"  changeset="false" ><tag k="amenity" v="school"/><tag k="name" v="Providence Academy Antonine Sisters"/><tag k="name:en" v="Providence Academy Antonine Sisters"/><tag k="name:fr" v="Académie Providence Surs Antonines"/><tag k="phone" v="+1-613-744-8489"/><tag k="fax" v="+1-null"/><tag k="isced:level" v="1"/><tag k="addr:street" v="Frances Street"/><tag k="addr:housenumber" v="998"/><tag k="addr:postcode" v="K1K 3L5"/><tag k="operator" v="Private"/></node></osm>