<?xml version="1.0" encoding="UTF-8"?><osm version="0.6" generator="https://github.com/Rub21/geojson2osm"><node lat="45.4506" lon="-75.471307"  id="-1"  changeset="false" ><tag k="ref" v="35181"/><tag k="amenity" v="parking"/><tag k="parking" v="surface"/><tag k="access" v="permissive"/><tag k="addr:housenumber" v="720"/><tag k="addr:street" v="Vistapark Drive"/><tag k="capacity" v="25"/><tag k="capacity:disabled" v="1"/><tag k="opening_hours" v="06:00-23:00"/><tag k="lit" v="no"/><tag k="surface" v="asphalt"/><tag k="supervised" v="no"/><tag k="fee" v="no"/><tag k="operator" v="City of Ottawa"/><tag k="source" v="City of Ottawa"/><tag k="source:date" v="2022-05-28"/></node><node lat="45.505001" lon="-75.491072"  id="-2"  changeset="false" ><tag k="ref" v="25227"/><tag k="amenity" v="parking"/><tag k="parking" v="surface"/><tag k="access" v="permissive"/><tag k="addr:housenumber" v="777"/><tag k="addr:street" v="Tweddle"/><tag k="capacity" v="50"/><tag k="capacity:disabled" v="0"/><tag k="opening_hours" v="06:00-23:00"/><tag k="lit" v="no"/><tag k="surface" v="gravel"/><tag k="supervised" v="no"/><tag k="fee" v="no"/><tag k="operator" v="City of Ottawa"/><tag k="source" v="City of Ottawa"/><tag k="source:date" v="2022-05-28"/></node><node lat="45.504526" lon="-75.490854"  id="-3"  changeset="false" ><tag k="ref" v="35207"/><tag k="amenity" v="parking"/><tag k="parking" v="surface"/><tag k="access" v="permissive"/><tag k="addr:housenumber" v="777"/><tag k="addr:street" v="Tweddle"/><tag k="capacity" v="48"/><tag k="capacity:disabled" v="0"/><tag k="opening_hours" v="06:00-23:00"/><tag k="lit" v="no"/><tag k="surface" v="gravel"/><tag k="supervised" v="no"/><tag k="fee" v="no"/><tag k="operator" v="City of Ottawa"/><tag k="source" v="City of Ottawa"/><tag k="source:date" v="2022-05-28"/></node><node lat="45.504984" lon="-75.48966"  id="-4"  changeset="false" ><tag k="ref" v="35203"/><tag k="amenity" v="parking"/><tag k="parking" v="surface"/><tag k="access" v="permissive"/><tag k="addr:housenumber" v="777"/><tag k="addr:street" v="Tweddle"/><tag k="capacity" v="40"/><tag k="capacity:disabled" v="0"/><tag k="opening_hours" v="06:00-23:00"/><tag k="lit" v="no"/><tag k="surface" v="gravel"/><tag k="supervised" v="no"/><tag k="fee" v="no"/><tag k="operator" v="City of Ottawa"/><tag k="source" v="City of Ottawa"/><tag k="source:date" v="2022-05-28"/></node><node lat="45.45285" lon="-75.477687"  id="-5"  changeset="false" ><tag k="ref" v="54213"/><tag k="amenity" v="parking"/><tag k="parking" v="surface"/><tag k="access" v="permissive"/><tag k="addr:housenumber" v="318"/><tag k="addr:street" v="Aquaview Drive"/><tag k="capacity" v="24"/><tag k="capacity:disabled" v="3"/><tag k="opening_hours" v="06:00-23:00"/><tag k="lit" v="yes"/><tag k="surface" v="asphalt"/><tag k="supervised" v="no"/><tag k="fee" v="no"/><tag k="operator" v="City of Ottawa"/><tag k="source" v="City of Ottawa"/><tag k="source:date" v="2022-05-28"/></node><node lat="45.465683" lon="-75.448141"  id="-6"  changeset="false" ><tag k="ref" v="25295"/><tag k="amenity" v="parking"/><tag k="parking" v="surface"/><tag k="access" v="permissive"/><tag k="addr:housenumber" v="100"/><tag k="addr:street" v="Millennium Boulevard"/><tag k="capacity" v="171"/><tag k="capacity:disabled" v="3"/><tag k="opening_hours" v="06:00-23:00"/><tag k="lit" v="yes"/><tag k="surface" v="asphalt"/><tag k="supervised" v="no"/><tag k="fee" v="no"/><tag k="operator" v="City of Ottawa"/><tag k="source" v="City of Ottawa"/><tag k="source:date" v="2022-05-28"/></node><node lat="45.458485" lon="-75.589818"  id="-7"  changeset="false" ><tag k="ref" v="35841"/><tag k="amenity" v="parking"/><tag k="parking" v="surface"/><tag k="access" v="permissive"/><tag k="addr:housenumber" v="815"/><tag k="addr:street" v="Shefford Road"/><tag k="capacity" v="60"/><tag k="capacity:disabled" v="0"/><tag k="opening_hours" v="06:00-23:00"/><tag k="lit" v="no"/><tag k="surface" v="gravel"/><tag k="supervised" v="no"/><tag k="fee" v="no"/><tag k="operator" v="City of Ottawa"/><tag k="source" v="City of Ottawa"/><tag k="source:date" v="2022-05-28"/></node><node lat="45.456291" lon="-75.590352"  id="-8"  changeset="false" ><tag k="ref" v="35843"/><tag k="amenity" v="parking"/><tag k="parking" v="surface"/><tag k="access" v="permissive"/><tag k="addr:housenumber" v="815"/><tag k="addr:street" v="Shefford Road"/><tag k="capacity" v="123"/><tag k="capacity:disabled" v="5"/><tag k="opening_hours" v="06:00-23:00"/><tag k="lit" v="yes"/><tag k="surface" v="asphalt"/><tag k="supervised" v="no"/><tag k="fee" v="no"/><tag k="operator" v="City of Ottawa"/><tag k="source" v="City of Ottawa"/><tag k="source:date" v="2022-05-28"/></node><node lat="45.488989" lon="-75.519851"  id="-9"  changeset="false" ><tag k="ref" v="56757"/><tag k="amenity" v="parking"/><tag k="parking" v="surface"/><tag k="access" v="permissive"/><tag k="addr:housenumber" v="755"/><tag k="addr:street" v="Champlain Street"/><tag k="capacity" v="10"/><tag k="capacity:disabled" v="0"/><tag k="opening_hours" v="06:00-23:00"/><tag k="lit" v="no"/><tag k="surface" v="gravel"/><tag k="supervised" v="no"/><tag k="fee" v="no"/><tag k="operator" v="City of Ottawa"/><tag k="source" v="City of Ottawa"/><tag k="source:date" v="2022-05-28"/></node><node lat="45.465426" lon="-75.448987"  id="-10"  changeset="false" ><tag k="ref" v="56181"/><tag k="amenity" v="parking"/><tag k="parking" v="surface"/><tag k="access" v="permissive"/><tag k="addr:housenumber" v="100"/><tag k="addr:street" v="Millennium Boulevard"/><tag k="capacity" v="188"/><tag k="capacity:disabled" v="0"/><tag k="opening_hours" v="06:00-23:00"/><tag k="lit" v="yes"/><tag k="surface" v="gravel"/><tag k="supervised" v="no"/><tag k="fee" v="no"/><tag k="operator" v="City of Ottawa"/><tag k="source" v="City of Ottawa"/><tag k="source:date" v="2022-05-28"/></node><node lat="45.456888" lon="-75.589864"  id="-11"  changeset="false" ><tag k="ref" v="35845"/><tag k="amenity" v="parking"/><tag k="parking" v="surface"/><tag k="access" v="permissive"/><tag k="addr:housenumber" v="815"/><tag k="addr:street" v="Shefford Road"/><tag k="capacity" v="70"/><tag k="capacity:disabled" v="0"/><tag k="opening_hours" v="06:00-23:00"/><tag k="lit" v="yes"/><tag k="surface" v="asphalt"/><tag k="supervised" v="no"/><tag k="fee" v="no"/><tag k="operator" v="City of Ottawa"/><tag k="source" v="City of Ottawa"/><tag k="source:date" v="2022-05-28"/></node><node lat="45.464151" lon="-75.461214"  id="-12"  changeset="false" ><tag k="ref" v="35132"/><tag k="amenity" v="parking"/><tag k="parking" v="surface"/><tag k="access" v="permissive"/><tag k="addr:housenumber" v="858"/><tag k="addr:street" v="Scala Avenue"/><tag k="capacity" v="35"/><tag k="capacity:disabled" v="1"/><tag k="opening_hours" v="06:00-23:00"/><tag k="lit" v="yes"/><tag k="surface" v="asphalt"/><tag k="supervised" v="no"/><tag k="fee" v="no"/><tag k="operator" v="City of Ottawa"/><tag k="source" v="City of Ottawa"/><tag k="source:date" v="2022-05-28"/></node><node lat="45.483793" lon="-75.533553"  id="-13"  changeset="false" ><tag k="ref" v="25042"/><tag k="amenity" v="parking"/><tag k="parking" v="surface"/><tag k="access" v="permissive"/><tag k="addr:housenumber" v="956"/><tag k="addr:street" v="Bilberry Drive"/><tag k="capacity" v="11"/><tag k="capacity:disabled" v="0"/><tag k="opening_hours" v="06:00-23:00"/><tag k="lit" v="no"/><tag k="surface" v="asphalt"/><tag k="supervised" v="no"/><tag k="fee" v="no"/><tag k="operator" v="City of Ottawa"/><tag k="source" v="City of Ottawa"/><tag k="source:date" v="2022-05-28"/></node><node lat="45.477661" lon="-75.457148"  id="-14"  changeset="false" ><tag k="ref" v="55443"/><tag k="amenity" v="parking"/><tag k="parking" v="surface"/><tag k="access" v="permissive"/><tag k="addr:housenumber" v="1825"/><tag k="addr:street" v="Trim Road"/><tag k="capacity" v="28"/><tag k="capacity:disabled" v="0"/><tag k="opening_hours" v="06:00-23:00"/><tag k="lit" v="no"/><tag k="surface" v="gravel"/><tag k="supervised" v="no"/><tag k="fee" v="no"/><tag k="operator" v="City of Ottawa"/><tag k="source" v="City of Ottawa"/><tag k="source:date" v="2022-05-28"/></node><node lat="45.505403" lon="-75.488529"  id="-15"  changeset="false" ><tag k="ref" v="35205"/><tag k="amenity" v="parking"/><tag k="parking" v="surface"/><tag k="access" v="permissive"/><tag k="addr:housenumber" v="777"/><tag k="addr:street" v="Tweddle"/><tag k="capacity" v="52"/><tag k="capacity:disabled" v="0"/><tag k="opening_hours" v="06:00-23:00"/><tag k="lit" v="no"/><tag k="surface" v="gravel"/><tag k="supervised" v="no"/><tag k="fee" v="no"/><tag k="operator" v="City of Ottawa"/><tag k="source" v="City of Ottawa"/><tag k="source:date" v="2022-05-28"/></node><node lat="45.505033" lon="-75.492282"  id="-16"  changeset="false" ><tag k="ref" v="35211"/><tag k="amenity" v="parking"/><tag k="parking" v="surface"/><tag k="access" v="permissive"/><tag k="addr:housenumber" v="777"/><tag k="addr:street" v="Tweddle"/><tag k="capacity" v="15"/><tag k="capacity:disabled" v="0"/><tag k="opening_hours" v="06:00-23:00"/><tag k="lit" v="no"/><tag k="surface" v="gravel"/><tag k="supervised" v="no"/><tag k="fee" v="no"/><tag k="operator" v="City of Ottawa"/><tag k="source" v="City of Ottawa"/><tag k="source:date" v="2022-05-28"/></node><node lat="45.461242" lon="-75.457478"  id="-17"  changeset="false" ><tag k="ref" v="35142"/><tag k="amenity" v="parking"/><tag k="parking" v="surface"/><tag k="access" v="permissive"/><tag k="addr:housenumber" v="2095"/><tag k="addr:street" v="Provence Avenue"/><tag k="capacity" v="23"/><tag k="capacity:disabled" v="2"/><tag k="opening_hours" v="06:00-23:00"/><tag k="lit" v="no"/><tag k="surface" v="asphalt"/><tag k="supervised" v="no"/><tag k="fee" v="no"/><tag k="operator" v="City of Ottawa"/><tag k="source" v="City of Ottawa"/><tag k="source:date" v="2022-05-28"/></node><node lat="45.451666" lon="-75.488844"  id="-18"  changeset="false" ><tag k="ref" v="35317"/><tag k="amenity" v="parking"/><tag k="parking" v="surface"/><tag k="access" v="permissive"/><tag k="addr:housenumber" v="530"/><tag k="addr:street" v="Strasbourg Street"/><tag k="capacity" v="20"/><tag k="capacity:disabled" v="2"/><tag k="opening_hours" v="06:00-23:00"/><tag k="lit" v="no"/><tag k="surface" v="asphalt"/><tag k="supervised" v="no"/><tag k="fee" v="no"/><tag k="operator" v="City of Ottawa"/><tag k="source" v="City of Ottawa"/><tag k="source:date" v="2022-05-28"/></node><node lat="45.457904" lon="-75.591307"  id="-19"  changeset="false" ><tag k="ref" v="25068"/><tag k="amenity" v="parking"/><tag k="parking" v="surface"/><tag k="access" v="permissive"/><tag k="addr:housenumber" v="813"/><tag k="addr:street" v="Shefford Road"/><tag k="capacity" v="234"/><tag k="capacity:disabled" v="6"/><tag k="opening_hours" v="06:00-23:00"/><tag k="lit" v="yes"/><tag k="surface" v="asphalt"/><tag k="supervised" v="no"/><tag k="fee" v="no"/><tag k="operator" v="City of Ottawa"/><tag k="source" v="City of Ottawa"/><tag k="source:date" v="2022-05-28"/></node><node lat="45.444777" lon="-75.492101"  id="-20"  changeset="false" ><tag k="ref" v="53385"/><tag k="amenity" v="parking"/><tag k="parking" v="surface"/><tag k="access" v="permissive"/><tag k="addr:housenumber" v="655"/><tag k="addr:street" v="Décoeur Drive"/><tag k="capacity" v="15"/><tag k="capacity:disabled" v="2"/><tag k="opening_hours" v="06:00-23:00"/><tag k="lit" v="no"/><tag k="surface" v="asphalt"/><tag k="supervised" v="no"/><tag k="fee" v="no"/><tag k="operator" v="City of Ottawa"/><tag k="source" v="City of Ottawa"/><tag k="source:date" v="2022-05-28"/></node><node lat="45.504916" lon="-75.491575"  id="-21"  changeset="false" ><tag k="ref" v="35209"/><tag k="amenity" v="parking"/><tag k="parking" v="surface"/><tag k="access" v="permissive"/><tag k="addr:housenumber" v="777"/><tag k="addr:street" v="Tweddle"/><tag k="capacity" v="24"/><tag k="capacity:disabled" v="0"/><tag k="opening_hours" v="06:00-23:00"/><tag k="lit" v="no"/><tag k="surface" v="gravel"/><tag k="supervised" v="no"/><tag k="fee" v="no"/><tag k="operator" v="City of Ottawa"/><tag k="source" v="City of Ottawa"/><tag k="source:date" v="2022-05-28"/></node><node lat="45.432791" lon="-75.562574"  id="-22"  changeset="false" ><tag k="ref" v="54513"/><tag k="amenity" v="parking"/><tag k="parking" v="surface"/><tag k="access" v="permissive"/><tag k="addr:housenumber" v="2669"/><tag k="addr:street" v="Innes Road"/><tag k="capacity" v="18"/><tag k="capacity:disabled" v="0"/><tag k="opening_hours" v="06:00-23:00"/><tag k="lit" v="yes"/><tag k="surface" v="asphalt"/><tag k="supervised" v="no"/><tag k="fee" v="no"/><tag k="operator" v="City of Ottawa"/><tag k="source" v="City of Ottawa"/><tag k="source:date" v="2022-05-28"/></node><node lat="45.455077" lon="-75.590198"  id="-23"  changeset="false" ><tag k="ref" v="35929"/><tag k="amenity" v="parking"/><tag k="parking" v="surface"/><tag k="access" v="permissive"/><tag k="addr:housenumber" v="845"/><tag k="addr:street" v="Shefford Road"/><tag k="capacity" v="26"/><tag k="capacity:disabled" v="2"/><tag k="opening_hours" v="06:00-23:00"/><tag k="lit" v="no"/><tag k="surface" v="asphalt"/><tag k="supervised" v="no"/><tag k="fee" v="no"/><tag k="operator" v="City of Ottawa"/><tag k="source" v="City of Ottawa"/><tag k="source:date" v="2022-05-28"/></node><node lat="45.243568" lon="-75.651413"  id="-24"  changeset="false" ><tag k="ref" v="56771"/><tag k="amenity" v="parking"/><tag k="parking" v="surface"/><tag k="access" v="permissive"/><tag k="addr:housenumber" v="5650"/><tag k="addr:street" v="Mitch Owens Road"/><tag k="capacity" v="240"/><tag k="capacity:disabled" v="4"/><tag k="opening_hours" v="06:00-23:00"/><tag k="lit" v="no"/><tag k="surface" v="asphalt"/><tag k="supervised" v="no"/><tag k="fee" v="no"/><tag k="operator" v="City of Ottawa"/><tag k="source" v="City of Ottawa"/><tag k="source:date" v="2022-05-28"/></node><node lat="45.264134" lon="-75.584192"  id="-25"  changeset="false" ><tag k="ref" v="35771"/><tag k="amenity" v="parking"/><tag k="parking" v="surface"/><tag k="access" v="permissive"/><tag k="addr:housenumber" v="6860"/><tag k="addr:street" v="Pebble Trail Way"/><tag k="capacity" v="10"/><tag k="capacity:disabled" v="0"/><tag k="opening_hours" v="06:00-23:00"/><tag k="lit" v="no"/><tag k="surface" v="gravel"/><tag k="supervised" v="no"/><tag k="fee" v="no"/><tag k="operator" v="City of Ottawa"/><tag k="source" v="City of Ottawa"/><tag k="source:date" v="2022-05-28"/></node><node lat="45.26608" lon="-75.551861"  id="-26"  changeset="false" ><tag k="ref" v="35817"/><tag k="amenity" v="parking"/><tag k="parking" v="surface"/><tag k="access" v="permissive"/><tag k="addr:housenumber" v="7292"/><tag k="addr:street" v="Parkway Road"/><tag k="capacity" v="50"/><tag k="capacity:disabled" v="4"/><tag k="opening_hours" v="06:00-23:00"/><tag k="lit" v="no"/><tag k="surface" v="asphalt"/><tag k="supervised" v="no"/><tag k="fee" v="no"/><tag k="operator" v="City of Ottawa"/><tag k="source" v="City of Ottawa"/><tag k="source:date" v="2022-05-28"/></node><node lat="45.36367" lon="-75.636531"  id="-27"  changeset="false" ><tag k="ref" v="35583"/><tag k="amenity" v="parking"/><tag k="parking" v="surface"/><tag k="access" v="permissive"/><tag k="addr:housenumber" v="363"/><tag k="addr:street" v="Lorry Greenberg Drive"/><tag k="capacity" v="53"/><tag k="capacity:disabled" v="0"/><tag k="opening_hours" v="06:00-23:00"/><tag k="lit" v="yes"/><tag k="surface" v="asphalt"/><tag k="supervised" v="no"/><tag k="fee" v="no"/><tag k="operator" v="City of Ottawa"/><tag k="source" v="City of Ottawa"/><tag k="source:date" v="2022-05-28"/></node><node lat="45.313878" lon="-75.610179"  id="-28"  changeset="false" ><tag k="ref" v="35639"/><tag k="amenity" v="parking"/><tag k="parking" v="surface"/><tag k="access" v="permissive"/><tag k="addr:housenumber" v="2810"/><tag k="addr:street" v="Findlay Creek Drive"/><tag k="capacity" v="33"/><tag k="capacity:disabled" v="2"/><tag k="opening_hours" v="06:00-23:00"/><tag k="lit" v="no"/><tag k="surface" v="asphalt"/><tag k="supervised" v="no"/><tag k="fee" v="no"/><tag k="operator" v="City of Ottawa"/><tag k="source" v="City of Ottawa"/><tag k="source:date" v="2022-05-28"/></node><node lat="45.320407" lon="-75.610213"  id="-29"  changeset="false" ><tag k="ref" v="53511"/><tag k="amenity" v="parking"/><tag k="parking" v="surface"/><tag k="access" v="permissive"/><tag k="addr:housenumber" v="4008"/><tag k="addr:street" v="Kelly Farm Drive"/><tag k="capacity" v="33"/><tag k="capacity:disabled" v="2"/><tag k="opening_hours" v="06:00-23:00"/><tag k="lit" v="no"/><tag k="surface" v="asphalt"/><tag k="supervised" v="no"/><tag k="fee" v="no"/><tag k="operator" v="City of Ottawa"/><tag k="source" v="City of Ottawa"/><tag k="source:date" v="2022-05-28"/></node><node lat="45.362998" lon="-75.646835"  id="-30"  changeset="false" ><tag k="ref" v="4955"/><tag k="amenity" v="parking"/><tag k="parking" v="surface"/><tag k="access" v="permissive"/><tag k="addr:housenumber" v="14"/><tag k="addr:street" v="Tapiola Crescent"/><tag k="capacity" v="10"/><tag k="capacity:disabled" v="1"/><tag k="opening_hours" v="06:00-23:00"/><tag k="lit" v="yes"/><tag k="surface" v="asphalt"/><tag k="supervised" v="no"/><tag k="fee" v="no"/><tag k="operator" v="City of Ottawa"/><tag k="source" v="City of Ottawa"/><tag k="source:date" v="2022-05-28"/></node><node lat="45.362826" lon="-75.634261"  id="-31"  changeset="false" ><tag k="ref" v="35839"/><tag k="amenity" v="parking"/><tag k="parking" v="surface"/><tag k="access" v="permissive"/><tag k="addr:housenumber" v="250"/><tag k="addr:street" v="Lorry Greenberg Drive"/><tag k="capacity" v="16"/><tag k="capacity:disabled" v="0"/><tag k="opening_hours" v="06:00-23:00"/><tag k="lit" v="no"/><tag k="surface" v="gravel"/><tag k="supervised" v="no"/><tag k="fee" v="no"/><tag k="operator" v="City of Ottawa"/><tag k="source" v="City of Ottawa"/><tag k="source:date" v="2022-05-28"/></node><node lat="45.390183" lon="-75.629484"  id="-32"  changeset="false" ><tag k="ref" v="25093"/><tag k="amenity" v="parking"/><tag k="parking" v="surface"/><tag k="access" v="permissive"/><tag k="addr:housenumber" v="2185"/><tag k="addr:street" v="Arch Street"/><tag k="capacity" v="32"/><tag k="capacity:disabled" v="6"/><tag k="opening_hours" v="06:00-23:00"/><tag k="lit" v="yes"/><tag k="surface" v="asphalt"/><tag k="supervised" v="no"/><tag k="fee" v="no"/><tag k="operator" v="City of Ottawa"/><tag k="source" v="City of Ottawa"/><tag k="source:date" v="2022-05-28"/></node><node lat="45.252436" lon="-75.732337"  id="-33"  changeset="false" ><tag k="ref" v="51849"/><tag k="amenity" v="parking"/><tag k="parking" v="surface"/><tag k="access" v="permissive"/><tag k="addr:housenumber" v="3500"/><tag k="addr:street" v="Cambrian Road"/><tag k="capacity" v="80"/><tag k="capacity:disabled" v="0"/><tag k="opening_hours" v="06:00-23:00"/><tag k="lit" v="yes"/><tag k="surface" v="asphalt"/><tag k="supervised" v="no"/><tag k="fee" v="no"/><tag k="operator" v="City of Ottawa"/><tag k="source" v="City of Ottawa"/><tag k="source:date" v="2022-05-28"/></node><node lat="45.25289" lon="-75.73133"  id="-34"  changeset="false" ><tag k="ref" v="51853"/><tag k="amenity" v="parking"/><tag k="parking" v="surface"/><tag k="access" v="permissive"/><tag k="addr:housenumber" v="3500"/><tag k="addr:street" v="Cambrian Road"/><tag k="capacity" v="117"/><tag k="capacity:disabled" v="0"/><tag k="opening_hours" v="06:00-23:00"/><tag k="lit" v="yes"/><tag k="surface" v="asphalt"/><tag k="supervised" v="no"/><tag k="fee" v="no"/><tag k="operator" v="City of Ottawa"/><tag k="source" v="City of Ottawa"/><tag k="source:date" v="2022-05-28"/></node><node lat="45.253083" lon="-75.733471"  id="-35"  changeset="false" ><tag k="ref" v="51845"/><tag k="amenity" v="parking"/><tag k="parking" v="surface"/><tag k="access" v="permissive"/><tag k="addr:housenumber" v="3500"/><tag k="addr:street" v="Cambrian Road"/><tag k="capacity" v="3"/><tag k="capacity:disabled" v="6"/><tag k="opening_hours" v="06:00-23:00"/><tag k="lit" v="yes"/><tag k="surface" v="asphalt"/><tag k="supervised" v="no"/><tag k="fee" v="no"/><tag k="operator" v="City of Ottawa"/><tag k="source" v="City of Ottawa"/><tag k="source:date" v="2022-05-28"/></node><node lat="45.271976" lon="-75.723277"  id="-36"  changeset="false" ><tag k="ref" v="35126"/><tag k="amenity" v="parking"/><tag k="parking" v="surface"/><tag k="access" v="permissive"/><tag k="addr:housenumber" v="424"/><tag k="addr:street" v="Chapman Mills Drive"/><tag k="capacity" v="12"/><tag k="capacity:disabled" v="1"/><tag k="opening_hours" v="06:00-23:00"/><tag k="lit" v="no"/><tag k="surface" v="asphalt"/><tag k="supervised" v="no"/><tag k="fee" v="no"/><tag k="operator" v="City of Ottawa"/><tag k="source" v="City of Ottawa"/><tag k="source:date" v="2022-05-28"/></node><node lat="45.342791" lon="-75.799621"  id="-37"  changeset="false" ><tag k="ref" v="35138"/><tag k="amenity" v="parking"/><tag k="parking" v="surface"/><tag k="access" v="permissive"/><tag k="addr:housenumber" v="48"/><tag k="addr:street" v="Nanaimo Drive"/><tag k="capacity" v="7"/><tag k="capacity:disabled" v="1"/><tag k="opening_hours" v="06:00-23:00"/><tag k="lit" v="yes"/><tag k="surface" v="asphalt"/><tag k="supervised" v="no"/><tag k="fee" v="no"/><tag k="operator" v="City of Ottawa"/><tag k="source" v="City of Ottawa"/><tag k="source:date" v="2022-05-28"/></node><node lat="45.24708" lon="-75.743781"  id="-38"  changeset="false" ><tag k="ref" v="53713"/><tag k="amenity" v="parking"/><tag k="parking" v="surface"/><tag k="access" v="permissive"/><tag k="addr:housenumber" v="50"/><tag k="addr:street" v="Dowitcher Grove"/><tag k="capacity" v="13"/><tag k="capacity:disabled" v="1"/><tag k="opening_hours" v="06:00-23:00"/><tag k="lit" v="no"/><tag k="surface" v="asphalt"/><tag k="supervised" v="no"/><tag k="fee" v="no"/><tag k="operator" v="City of Ottawa"/><tag k="source" v="City of Ottawa"/><tag k="source:date" v="2022-05-28"/></node><node lat="45.237487" lon="-75.466881"  id="-39"  changeset="false" ><tag k="ref" v="57345"/><tag k="amenity" v="parking"/><tag k="parking" v="surface"/><tag k="access" v="permissive"/><tag k="addr:housenumber" v="2665"/><tag k="addr:street" v="Glenwood Drive"/><tag k="capacity" v="5"/><tag k="capacity:disabled" v="0"/><tag k="opening_hours" v="06:00-23:00"/><tag k="lit" v="no"/><tag k="surface" v="gravel"/><tag k="supervised" v="no"/><tag k="fee" v="no"/><tag k="operator" v="City of Ottawa"/><tag k="source" v="City of Ottawa"/><tag k="source:date" v="2022-05-28"/></node><node lat="45.326832" lon="-75.813277"  id="-40"  changeset="false" ><tag k="ref" v="25277"/><tag k="amenity" v="parking"/><tag k="parking" v="surface"/><tag k="access" v="permissive"/><tag k="addr:housenumber" v="29"/><tag k="addr:street" v="Larkspur Drive"/><tag k="capacity" v="4"/><tag k="capacity:disabled" v="0"/><tag k="opening_hours" v="06:00-23:00"/><tag k="lit" v="yes"/><tag k="surface" v="asphalt"/><tag k="supervised" v="no"/><tag k="fee" v="no"/><tag k="operator" v="City of Ottawa"/><tag k="source" v="City of Ottawa"/><tag k="source:date" v="2022-05-28"/></node><node lat="45.375491" lon="-75.772565"  id="-41"  changeset="false" ><tag k="ref" v="35277"/><tag k="amenity" v="parking"/><tag k="parking" v="surface"/><tag k="access" v="permissive"/><tag k="addr:housenumber" v="180"/><tag k="addr:street" v="Lockhart Avenue"/><tag k="capacity" v="23"/><tag k="capacity:disabled" v="1"/><tag k="opening_hours" v="06:00-23:00"/><tag k="lit" v="no"/><tag k="surface" v="asphalt"/><tag k="supervised" v="no"/><tag k="fee" v="no"/><tag k="operator" v="City of Ottawa"/><tag k="source" v="City of Ottawa"/><tag k="source:date" v="2022-05-28"/></node><node lat="45.256697" lon="-75.622166"  id="-42"  changeset="false" ><tag k="ref" v="56525"/><tag k="amenity" v="parking"/><tag k="parking" v="surface"/><tag k="access" v="permissive"/><tag k="addr:housenumber" v="6170"/><tag k="addr:street" v="Mitch Owens Road"/><tag k="capacity" v="10"/><tag k="capacity:disabled" v="0"/><tag k="opening_hours" v="06:00-23:00"/><tag k="lit" v="no"/><tag k="surface" v="gravel"/><tag k="supervised" v="no"/><tag k="fee" v="no"/><tag k="operator" v="City of Ottawa"/><tag k="source" v="City of Ottawa"/><tag k="source:date" v="2022-05-28"/></node><node lat="45.259075" lon="-75.559251"  id="-43"  changeset="false" ><tag k="ref" v="54135"/><tag k="amenity" v="parking"/><tag k="parking" v="surface"/><tag k="access" v="permissive"/><tag k="addr:housenumber" v="7121"/><tag k="addr:street" v="Quinnfield Way"/><tag k="capacity" v="40"/><tag k="capacity:disabled" v="0"/><tag k="opening_hours" v="06:00-23:00"/><tag k="lit" v="no"/><tag k="surface" v="gravel"/><tag k="supervised" v="no"/><tag k="fee" v="no"/><tag k="operator" v="City of Ottawa"/><tag k="source" v="City of Ottawa"/><tag k="source:date" v="2022-05-28"/></node><node lat="45.143459" lon="-75.611229"  id="-44"  changeset="false" ><tag k="ref" v="52249"/><tag k="amenity" v="parking"/><tag k="parking" v="surface"/><tag k="access" v="permissive"/><tag k="addr:housenumber" v="5479"/><tag k="addr:street" v="Osgoode Main Street"/><tag k="capacity" v="10"/><tag k="capacity:disabled" v="0"/><tag k="opening_hours" v="06:00-23:00"/><tag k="lit" v="no"/><tag k="surface" v="gravel"/><tag k="supervised" v="no"/><tag k="fee" v="no"/><tag k="operator" v="City of Ottawa"/><tag k="source" v="City of Ottawa"/><tag k="source:date" v="2022-05-28"/></node><node lat="45.363927" lon="-75.635762"  id="-45"  changeset="false" ><tag k="ref" v="35581"/><tag k="amenity" v="parking"/><tag k="parking" v="surface"/><tag k="access" v="permissive"/><tag k="addr:housenumber" v="363"/><tag k="addr:street" v="Lorry Greenberg Drive"/><tag k="capacity" v="26"/><tag k="capacity:disabled" v="0"/><tag k="opening_hours" v="06:00-23:00"/><tag k="lit" v="yes"/><tag k="surface" v="asphalt"/><tag k="supervised" v="no"/><tag k="fee" v="no"/><tag k="operator" v="City of Ottawa"/><tag k="source" v="City of Ottawa"/><tag k="source:date" v="2022-05-28"/></node><node lat="45.14393" lon="-75.611381"  id="-46"  changeset="false" ><tag k="ref" v="52241"/><tag k="amenity" v="parking"/><tag k="parking" v="surface"/><tag k="access" v="permissive"/><tag k="addr:housenumber" v="5479"/><tag k="addr:street" v="Osgoode Main Street"/><tag k="capacity" v="10"/><tag k="capacity:disabled" v="1"/><tag k="opening_hours" v="06:00-23:00"/><tag k="lit" v="no"/><tag k="surface" v="asphalt"/><tag k="supervised" v="no"/><tag k="fee" v="no"/><tag k="operator" v="City of Ottawa"/><tag k="source" v="City of Ottawa"/><tag k="source:date" v="2022-05-28"/></node><node lat="45.409382" lon="-75.702022"  id="-47"  changeset="false" ><tag k="ref" v="25225"/><tag k="amenity" v="parking"/><tag k="parking" v="surface"/><tag k="access" v="permissive"/><tag k="addr:housenumber" v="435"/><tag k="addr:street" v="Bronson Avenue"/><tag k="capacity" v="32"/><tag k="capacity:disabled" v="3"/><tag k="opening_hours" v="06:00-23:00"/><tag k="lit" v="yes"/><tag k="surface" v="asphalt"/><tag k="supervised" v="no"/><tag k="fee" v="no"/><tag k="operator" v="City of Ottawa"/><tag k="source" v="City of Ottawa"/><tag k="source:date" v="2022-05-28"/></node><node lat="45.366815" lon="-75.735495"  id="-48"  changeset="false" ><tag k="ref" v="35351"/><tag k="amenity" v="parking"/><tag k="parking" v="surface"/><tag k="access" v="permissive"/><tag k="addr:housenumber" v="200"/><tag k="addr:street" v="Central Park Drive"/><tag k="capacity" v="22"/><tag k="capacity:disabled" v="0"/><tag k="opening_hours" v="06:00-23:00"/><tag k="lit" v="no"/><tag k="surface" v="asphalt"/><tag k="supervised" v="no"/><tag k="fee" v="no"/><tag k="operator" v="City of Ottawa"/><tag k="source" v="City of Ottawa"/><tag k="source:date" v="2022-05-28"/></node><node lat="45.358022" lon="-75.928474"  id="-49"  changeset="false" ><tag k="ref" v="55117"/><tag k="amenity" v="parking"/><tag k="parking" v="surface"/><tag k="access" v="permissive"/><tag k="addr:housenumber" v="1027"/><tag k="addr:street" v="Klondike Road"/><tag k="capacity" v="20"/><tag k="capacity:disabled" v="1"/><tag k="opening_hours" v="06:00-23:00"/><tag k="lit" v="no"/><tag k="surface" v="asphalt"/><tag k="supervised" v="no"/><tag k="fee" v="no"/><tag k="operator" v="City of Ottawa"/><tag k="source" v="City of Ottawa"/><tag k="source:date" v="2022-05-28"/></node><node lat="45.354937" lon="-75.919761"  id="-50"  changeset="false" ><tag k="ref" v="35711"/><tag k="amenity" v="parking"/><tag k="parking" v="surface"/><tag k="access" v="permissive"/><tag k="addr:housenumber" v="126"/><tag k="addr:street" v="Shirley's Brook Drive"/><tag k="capacity" v="36"/><tag k="capacity:disabled" v="1"/><tag k="opening_hours" v="06:00-23:00"/><tag k="lit" v="no"/><tag k="surface" v="asphalt"/><tag k="supervised" v="no"/><tag k="fee" v="no"/><tag k="operator" v="City of Ottawa"/><tag k="source" v="City of Ottawa"/><tag k="source:date" v="2022-05-28"/></node><node lat="45.260607" lon="-75.770876"  id="-51"  changeset="false" ><tag k="ref" v="55935"/><tag k="amenity" v="parking"/><tag k="parking" v="surface"/><tag k="access" v="permissive"/><tag k="addr:housenumber" v="360"/><tag k="addr:street" v="Tartan Drive"/><tag k="capacity" v="44"/><tag k="capacity:disabled" v="0"/><tag k="opening_hours" v="06:00-23:00"/><tag k="lit" v="no"/><tag k="surface" v="gravel"/><tag k="supervised" v="no"/><tag k="fee" v="no"/><tag k="operator" v="City of Ottawa"/><tag k="source" v="City of Ottawa"/><tag k="source:date" v="2022-05-28"/></node><node lat="45.348466" lon="-75.774717"  id="-52"  changeset="false" ><tag k="ref" v="4970"/><tag k="amenity" v="parking"/><tag k="parking" v="surface"/><tag k="access" v="permissive"/><tag k="addr:housenumber" v="2250"/><tag k="addr:street" v="Torquay Avenue"/><tag k="capacity" v="273"/><tag k="capacity:disabled" v="13"/><tag k="opening_hours" v="06:00-23:00"/><tag k="lit" v="yes"/><tag k="surface" v="asphalt"/><tag k="supervised" v="no"/><tag k="fee" v="no"/><tag k="operator" v="City of Ottawa"/><tag k="source" v="City of Ottawa"/><tag k="source:date" v="2022-05-28"/></node><node lat="45.260824" lon="-75.768863"  id="-53"  changeset="false" ><tag k="ref" v="55933"/><tag k="amenity" v="parking"/><tag k="parking" v="surface"/><tag k="access" v="permissive"/><tag k="addr:housenumber" v="93"/><tag k="addr:street" v="Houlahan Street"/><tag k="capacity" v="44"/><tag k="capacity:disabled" v="0"/><tag k="opening_hours" v="06:00-23:00"/><tag k="lit" v="no"/><tag k="surface" v="gravel"/><tag k="supervised" v="no"/><tag k="fee" v="no"/><tag k="operator" v="City of Ottawa"/><tag k="source" v="City of Ottawa"/><tag k="source:date" v="2022-05-28"/></node><node lat="45.351246" lon="-75.828789"  id="-54"  changeset="false" ><tag k="ref" v="25017"/><tag k="amenity" v="parking"/><tag k="parking" v="surface"/><tag k="access" v="permissive"/><tag k="addr:housenumber" v="3259"/><tag k="addr:street" v="Carling Avenue"/><tag k="capacity" v="48"/><tag k="capacity:disabled" v="0"/><tag k="opening_hours" v="06:00-23:00"/><tag k="lit" v="yes"/><tag k="surface" v="asphalt"/><tag k="supervised" v="no"/><tag k="fee" v="no"/><tag k="operator" v="City of Ottawa"/><tag k="source" v="City of Ottawa"/><tag k="source:date" v="2022-05-28"/></node><node lat="45.328618" lon="-75.921547"  id="-55"  changeset="false" ><tag k="ref" v="35269"/><tag k="amenity" v="parking"/><tag k="parking" v="surface"/><tag k="access" v="permissive"/><tag k="addr:housenumber" v="130"/><tag k="addr:street" v="Walden Drive"/><tag k="capacity" v="19"/><tag k="capacity:disabled" v="1"/><tag k="opening_hours" v="06:00-23:00"/><tag k="lit" v="no"/><tag k="surface" v="asphalt"/><tag k="supervised" v="no"/><tag k="fee" v="no"/><tag k="operator" v="City of Ottawa"/><tag k="source" v="City of Ottawa"/><tag k="source:date" v="2022-05-28"/></node><node lat="45.282493" lon="-75.873425"  id="-56"  changeset="false" ><tag k="ref" v="36194"/><tag k="amenity" v="parking"/><tag k="parking" v="surface"/><tag k="access" v="permissive"/><tag k="addr:housenumber" v="100"/><tag k="addr:street" v="Akerson Road"/><tag k="capacity" v="30"/><tag k="capacity:disabled" v="2"/><tag k="opening_hours" v="06:00-23:00"/><tag k="lit" v="no"/><tag k="surface" v="asphalt"/><tag k="supervised" v="no"/><tag k="fee" v="no"/><tag k="operator" v="City of Ottawa"/><tag k="source" v="City of Ottawa"/><tag k="source:date" v="2022-05-28"/></node><node lat="45.321412" lon="-75.894623"  id="-57"  changeset="false" ><tag k="ref" v="25134"/><tag k="amenity" v="parking"/><tag k="parking" v="surface"/><tag k="access" v="permissive"/><tag k="addr:housenumber" v="2500"/><tag k="addr:street" v="Campeau Drive"/><tag k="capacity" v="132"/><tag k="capacity:disabled" v="5"/><tag k="opening_hours" v="06:00-23:00"/><tag k="lit" v="yes"/><tag k="surface" v="asphalt"/><tag k="supervised" v="no"/><tag k="fee" v="no"/><tag k="operator" v="City of Ottawa"/><tag k="source" v="City of Ottawa"/><tag k="source:date" v="2022-05-28"/></node><node lat="45.289781" lon="-75.87862"  id="-58"  changeset="false" ><tag k="ref" v="55907"/><tag k="amenity" v="parking"/><tag k="parking" v="surface"/><tag k="access" v="permissive"/><tag k="addr:housenumber" v="170"/><tag k="addr:street" v="Castlefrank Road"/><tag k="capacity" v="31"/><tag k="capacity:disabled" v="3"/><tag k="opening_hours" v="06:00-23:00"/><tag k="lit" v="yes"/><tag k="surface" v="asphalt"/><tag k="supervised" v="no"/><tag k="fee" v="no"/><tag k="operator" v="City of Ottawa"/><tag k="source" v="City of Ottawa"/><tag k="source:date" v="2022-05-28"/></node><node lat="45.340068" lon="-75.927449"  id="-59"  changeset="false" ><tag k="ref" v="35311"/><tag k="amenity" v="parking"/><tag k="parking" v="surface"/><tag k="access" v="permissive"/><tag k="addr:housenumber" v="4101"/><tag k="addr:street" v="Innovation Drive"/><tag k="capacity" v="24"/><tag k="capacity:disabled" v="1"/><tag k="opening_hours" v="06:00-23:00"/><tag k="lit" v="yes"/><tag k="surface" v="asphalt"/><tag k="supervised" v="no"/><tag k="fee" v="no"/><tag k="operator" v="City of Ottawa"/><tag k="source" v="City of Ottawa"/><tag k="source:date" v="2022-05-28"/></node><node lat="45.326308" lon="-75.742716"  id="-60"  changeset="false" ><tag k="ref" v="54883"/><tag k="amenity" v="parking"/><tag k="parking" v="surface"/><tag k="access" v="permissive"/><tag k="addr:housenumber" v="1701"/><tag k="addr:street" v="Woodroffe Avenue"/><tag k="capacity" v="171"/><tag k="capacity:disabled" v="9"/><tag k="opening_hours" v="06:00-23:00"/><tag k="lit" v="yes"/><tag k="surface" v="asphalt"/><tag k="supervised" v="no"/><tag k="fee" v="no"/><tag k="operator" v="City of Ottawa"/><tag k="source" v="City of Ottawa"/><tag k="source:date" v="2022-05-28"/></node><node lat="45.351576" lon="-75.829179"  id="-61"  changeset="false" ><tag k="ref" v="56467"/><tag k="amenity" v="parking"/><tag k="parking" v="surface"/><tag k="access" v="permissive"/><tag k="addr:housenumber" v="3259"/><tag k="addr:street" v="Carling Avenue"/><tag k="capacity" v="17"/><tag k="capacity:disabled" v="0"/><tag k="opening_hours" v="06:00-23:00"/><tag k="lit" v="yes"/><tag k="surface" v="asphalt"/><tag k="supervised" v="no"/><tag k="fee" v="no"/><tag k="operator" v="City of Ottawa"/><tag k="source" v="City of Ottawa"/><tag k="source:date" v="2022-05-28"/></node><node lat="45.246343" lon="-75.708339"  id="-62"  changeset="false" ><tag k="ref" v="25214"/><tag k="amenity" v="parking"/><tag k="parking" v="surface"/><tag k="access" v="permissive"/><tag k="addr:housenumber" v="3901"/><tag k="addr:street" v="Rideau Valley Drive"/><tag k="capacity" v="35"/><tag k="capacity:disabled" v="0"/><tag k="opening_hours" v="06:00-23:00"/><tag k="lit" v="no"/><tag k="surface" v="gravel"/><tag k="supervised" v="no"/><tag k="fee" v="no"/><tag k="operator" v="City of Ottawa"/><tag k="source" v="City of Ottawa"/><tag k="source:date" v="2022-05-28"/></node><node lat="45.349225" lon="-75.741865"  id="-63"  changeset="false" ><tag k="ref" v="25220"/><tag k="amenity" v="parking"/><tag k="parking" v="surface"/><tag k="access" v="permissive"/><tag k="addr:housenumber" v="16"/><tag k="addr:street" v="Rowley Avenue"/><tag k="capacity" v="4"/><tag k="capacity:disabled" v="1"/><tag k="opening_hours" v="06:00-23:00"/><tag k="lit" v="yes"/><tag k="surface" v="asphalt"/><tag k="supervised" v="no"/><tag k="fee" v="no"/><tag k="operator" v="City of Ottawa"/><tag k="source" v="City of Ottawa"/><tag k="source:date" v="2022-05-28"/></node><node lat="45.252486" lon="-75.732908"  id="-64"  changeset="false" ><tag k="ref" v="51847"/><tag k="amenity" v="parking"/><tag k="parking" v="surface"/><tag k="access" v="permissive"/><tag k="addr:housenumber" v="3500"/><tag k="addr:street" v="Cambrian Road"/><tag k="capacity" v="65"/><tag k="capacity:disabled" v="0"/><tag k="opening_hours" v="06:00-23:00"/><tag k="lit" v="yes"/><tag k="surface" v="asphalt"/><tag k="supervised" v="no"/><tag k="fee" v="no"/><tag k="operator" v="City of Ottawa"/><tag k="source" v="City of Ottawa"/><tag k="source:date" v="2022-05-28"/></node><node lat="45.252618" lon="-75.731748"  id="-65"  changeset="false" ><tag k="ref" v="51851"/><tag k="amenity" v="parking"/><tag k="parking" v="surface"/><tag k="access" v="permissive"/><tag k="addr:housenumber" v="3500"/><tag k="addr:street" v="Cambrian Road"/><tag k="capacity" v="94"/><tag k="capacity:disabled" v="0"/><tag k="opening_hours" v="06:00-23:00"/><tag k="lit" v="yes"/><tag k="surface" v="asphalt"/><tag k="supervised" v="no"/><tag k="fee" v="no"/><tag k="operator" v="City of Ottawa"/><tag k="source" v="City of Ottawa"/><tag k="source:date" v="2022-05-28"/></node><node lat="45.401261" lon="-75.920014"  id="-66"  changeset="false" ><tag k="ref" v="35491"/><tag k="amenity" v="parking"/><tag k="parking" v="surface"/><tag k="access" v="permissive"/><tag k="addr:housenumber" v="1610"/><tag k="addr:street" v="Sixth Line Road"/><tag k="capacity" v="28"/><tag k="capacity:disabled" v="0"/><tag k="opening_hours" v="06:00-23:00"/><tag k="lit" v="no"/><tag k="surface" v="gravel"/><tag k="supervised" v="no"/><tag k="fee" v="no"/><tag k="operator" v="City of Ottawa"/><tag k="source" v="City of Ottawa"/><tag k="source:date" v="2022-05-28"/></node><node lat="45.402368" lon="-75.92236"  id="-67"  changeset="false" ><tag k="ref" v="35489"/><tag k="amenity" v="parking"/><tag k="parking" v="surface"/><tag k="access" v="permissive"/><tag k="addr:housenumber" v="1610"/><tag k="addr:street" v="Sixth Line Road"/><tag k="capacity" v="65"/><tag k="capacity:disabled" v="0"/><tag k="opening_hours" v="06:00-23:00"/><tag k="lit" v="no"/><tag k="surface" v="gravel"/><tag k="supervised" v="no"/><tag k="fee" v="no"/><tag k="operator" v="City of Ottawa"/><tag k="source" v="City of Ottawa"/><tag k="source:date" v="2022-05-28"/></node><node lat="45.350477" lon="-75.826439"  id="-68"  changeset="false" ><tag k="ref" v="35585"/><tag k="amenity" v="parking"/><tag k="parking" v="surface"/><tag k="access" v="permissive"/><tag k="addr:housenumber" v="3259"/><tag k="addr:street" v="Carling Avenue"/><tag k="capacity" v="33"/><tag k="capacity:disabled" v="0"/><tag k="opening_hours" v="06:00-23:00"/><tag k="lit" v="yes"/><tag k="surface" v="asphalt"/><tag k="supervised" v="no"/><tag k="fee" v="no"/><tag k="operator" v="City of Ottawa"/><tag k="source" v="City of Ottawa"/><tag k="source:date" v="2022-05-28"/></node><node lat="45.221401" lon="-75.685906"  id="-69"  changeset="false" ><tag k="ref" v="55669"/><tag k="amenity" v="parking"/><tag k="parking" v="surface"/><tag k="access" v="permissive"/><tag k="addr:housenumber" v="5572"/><tag k="addr:street" v="Doctor Leach Drive"/><tag k="capacity" v="30"/><tag k="capacity:disabled" v="0"/><tag k="opening_hours" v="06:00-23:00"/><tag k="lit" v="no"/><tag k="surface" v="gravel"/><tag k="supervised" v="no"/><tag k="fee" v="no"/><tag k="operator" v="City of Ottawa"/><tag k="source" v="City of Ottawa"/><tag k="source:date" v="2022-05-28"/></node><node lat="45.273398" lon="-75.846263"  id="-70"  changeset="false" ><tag k="ref" v="35813"/><tag k="amenity" v="parking"/><tag k="parking" v="surface"/><tag k="access" v="permissive"/><tag k="addr:housenumber" v="290"/><tag k="addr:street" v="Meadowbreeze Drive"/><tag k="capacity" v="11"/><tag k="capacity:disabled" v="2"/><tag k="opening_hours" v="06:00-23:00"/><tag k="lit" v="no"/><tag k="surface" v="asphalt"/><tag k="supervised" v="no"/><tag k="fee" v="no"/><tag k="operator" v="City of Ottawa"/><tag k="source" v="City of Ottawa"/><tag k="source:date" v="2022-05-28"/></node><node lat="45.27419" lon="-75.853205"  id="-71"  changeset="false" ><tag k="ref" v="35733"/><tag k="amenity" v="parking"/><tag k="parking" v="surface"/><tag k="access" v="permissive"/><tag k="addr:housenumber" v="98"/><tag k="addr:street" v="Meadowbreeze Drive"/><tag k="capacity" v="20"/><tag k="capacity:disabled" v="2"/><tag k="opening_hours" v="06:00-23:00"/><tag k="lit" v="no"/><tag k="surface" v="asphalt"/><tag k="supervised" v="no"/><tag k="fee" v="no"/><tag k="operator" v="City of Ottawa"/><tag k="source" v="City of Ottawa"/><tag k="source:date" v="2022-05-28"/></node><node lat="45.273308" lon="-75.686079"  id="-72"  changeset="false" ><tag k="ref" v="35627"/><tag k="amenity" v="parking"/><tag k="parking" v="surface"/><tag k="access" v="permissive"/><tag k="addr:housenumber" v="910"/><tag k="addr:street" v="Earl Armstrong Road"/><tag k="capacity" v="14"/><tag k="capacity:disabled" v="0"/><tag k="opening_hours" v="06:00-23:00"/><tag k="lit" v="no"/><tag k="surface" v="gravel"/><tag k="supervised" v="no"/><tag k="fee" v="no"/><tag k="operator" v="City of Ottawa"/><tag k="source" v="City of Ottawa"/><tag k="source:date" v="2022-05-28"/></node><node lat="45.242477" lon="-75.741372"  id="-73"  changeset="false" ><tag k="ref" v="52491"/><tag k="amenity" v="parking"/><tag k="parking" v="surface"/><tag k="access" v="permissive"/><tag k="addr:housenumber" v="675"/><tag k="addr:street" v="Dundonald Drive"/><tag k="capacity" v="12"/><tag k="capacity:disabled" v="1"/><tag k="opening_hours" v="06:00-23:00"/><tag k="lit" v="no"/><tag k="surface" v="asphalt"/><tag k="supervised" v="no"/><tag k="fee" v="no"/><tag k="operator" v="City of Ottawa"/><tag k="source" v="City of Ottawa"/><tag k="source:date" v="2022-05-28"/></node><node lat="45.35105" lon="-75.827468"  id="-74"  changeset="false" ><tag k="ref" v="25018"/><tag k="amenity" v="parking"/><tag k="parking" v="surface"/><tag k="access" v="permissive"/><tag k="addr:housenumber" v="3259"/><tag k="addr:street" v="Carling Avenue"/><tag k="capacity" v="150"/><tag k="capacity:disabled" v="3"/><tag k="opening_hours" v="06:00-23:00"/><tag k="lit" v="yes"/><tag k="surface" v="asphalt"/><tag k="supervised" v="no"/><tag k="fee" v="no"/><tag k="operator" v="City of Ottawa"/><tag k="source" v="City of Ottawa"/><tag k="source:date" v="2022-05-28"/></node><node lat="45.280019" lon="-75.868826"  id="-75"  changeset="false" ><tag k="ref" v="36197"/><tag k="amenity" v="parking"/><tag k="parking" v="surface"/><tag k="access" v="permissive"/><tag k="addr:housenumber" v="100"/><tag k="addr:street" v="Akerson Road"/><tag k="capacity" v="19"/><tag k="capacity:disabled" v="1"/><tag k="opening_hours" v="06:00-23:00"/><tag k="lit" v="no"/><tag k="surface" v="asphalt"/><tag k="supervised" v="no"/><tag k="fee" v="no"/><tag k="operator" v="City of Ottawa"/><tag k="source" v="City of Ottawa"/><tag k="source:date" v="2022-05-28"/></node><node lat="45.341745" lon="-75.930713"  id="-76"  changeset="false" ><tag k="ref" v="35303"/><tag k="amenity" v="parking"/><tag k="parking" v="surface"/><tag k="access" v="permissive"/><tag k="addr:housenumber" v="4101"/><tag k="addr:street" v="Innovation Drive"/><tag k="capacity" v="38"/><tag k="capacity:disabled" v="0"/><tag k="opening_hours" v="06:00-23:00"/><tag k="lit" v="yes"/><tag k="surface" v="asphalt"/><tag k="supervised" v="no"/><tag k="fee" v="no"/><tag k="operator" v="City of Ottawa"/><tag k="source" v="City of Ottawa"/><tag k="source:date" v="2022-05-28"/></node><node lat="45.246143" lon="-75.920212"  id="-77"  changeset="false" ><tag k="ref" v="56077"/><tag k="amenity" v="parking"/><tag k="parking" v="surface"/><tag k="access" v="permissive"/><tag k="addr:housenumber" v=""/><tag k="addr:street" v=""/><tag k="capacity:disabled" v=""/><tag k="opening_hours" v="06:00-23:00"/><tag k="lit" v="no"/><tag k="supervised" v="no"/><tag k="fee" v="no"/><tag k="operator" v="City of Ottawa"/><tag k="source" v="City of Ottawa"/><tag k="source:date" v="2022-05-28"/></node><node lat="45.276315" lon="-75.881301"  id="-78"  changeset="false" ><tag k="ref" v="52999"/><tag k="amenity" v="parking"/><tag k="parking" v="surface"/><tag k="access" v="permissive"/><tag k="addr:housenumber" v="590"/><tag k="addr:street" v="Rouncey Road"/><tag k="capacity" v="26"/><tag k="capacity:disabled" v="2"/><tag k="opening_hours" v="06:00-23:00"/><tag k="lit" v="no"/><tag k="surface" v="asphalt"/><tag k="supervised" v="no"/><tag k="fee" v="no"/><tag k="operator" v="City of Ottawa"/><tag k="source" v="City of Ottawa"/><tag k="source:date" v="2022-05-28"/></node><node lat="45.411372" lon="-75.656802"  id="-79"  changeset="false" ><tag k="ref" v="35127"/><tag k="amenity" v="parking"/><tag k="parking" v="surface"/><tag k="access" v="permissive"/><tag k="addr:housenumber" v="1480"/><tag k="addr:street" v="Alta Vista Drive"/><tag k="capacity" v="33"/><tag k="capacity:disabled" v="1"/><tag k="opening_hours" v="06:00-23:00"/><tag k="lit" v="yes"/><tag k="surface" v="asphalt"/><tag k="supervised" v="no"/><tag k="fee" v="no"/><tag k="operator" v="City of Ottawa"/><tag k="source" v="City of Ottawa"/><tag k="source:date" v="2022-05-28"/></node><node lat="45.341185" lon="-75.930309"  id="-80"  changeset="false" ><tag k="ref" v="35305"/><tag k="amenity" v="parking"/><tag k="parking" v="surface"/><tag k="access" v="permissive"/><tag k="addr:housenumber" v="4101"/><tag k="addr:street" v="Innovation Drive"/><tag k="capacity" v="67"/><tag k="capacity:disabled" v="4"/><tag k="opening_hours" v="06:00-23:00"/><tag k="lit" v="yes"/><tag k="surface" v="asphalt"/><tag k="supervised" v="no"/><tag k="fee" v="no"/><tag k="operator" v="City of Ottawa"/><tag k="source" v="City of Ottawa"/><tag k="source:date" v="2022-05-28"/></node><node lat="45.340662" lon="-75.929629"  id="-81"  changeset="false" ><tag k="ref" v="35307"/><tag k="amenity" v="parking"/><tag k="parking" v="surface"/><tag k="access" v="permissive"/><tag k="addr:housenumber" v="4101"/><tag k="addr:street" v="Innovation Drive"/><tag k="capacity" v="26"/><tag k="capacity:disabled" v="0"/><tag k="opening_hours" v="06:00-23:00"/><tag k="lit" v="yes"/><tag k="surface" v="asphalt"/><tag k="supervised" v="no"/><tag k="fee" v="no"/><tag k="operator" v="City of Ottawa"/><tag k="source" v="City of Ottawa"/><tag k="source:date" v="2022-05-28"/></node><node lat="45.406765" lon="-75.926845"  id="-82"  changeset="false" ><tag k="ref" v="25265"/><tag k="amenity" v="parking"/><tag k="parking" v="surface"/><tag k="access" v="permissive"/><tag k="addr:housenumber" v="1730"/><tag k="addr:street" v="Sixth Line Road"/><tag k="capacity" v="15"/><tag k="capacity:disabled" v="0"/><tag k="opening_hours" v="06:00-23:00"/><tag k="lit" v="no"/><tag k="surface" v="gravel"/><tag k="supervised" v="no"/><tag k="fee" v="no"/><tag k="operator" v="City of Ottawa"/><tag k="source" v="City of Ottawa"/><tag k="source:date" v="2022-05-28"/></node><node lat="45.425151" lon="-75.656449"  id="-83"  changeset="false" ><tag k="ref" v="35757"/><tag k="amenity" v="parking"/><tag k="parking" v="surface"/><tag k="access" v="permissive"/><tag k="addr:housenumber" v="33"/><tag k="addr:street" v="Quill Street"/><tag k="capacity" v="11"/><tag k="capacity:disabled" v="2"/><tag k="opening_hours" v="06:00-23:00"/><tag k="lit" v="yes"/><tag k="surface" v="asphalt"/><tag k="supervised" v="no"/><tag k="fee" v="no"/><tag k="operator" v="City of Ottawa"/><tag k="source" v="City of Ottawa"/><tag k="source:date" v="2022-05-28"/></node><node lat="45.276519" lon="-75.932702"  id="-84"  changeset="false" ><tag k="ref" v="49033"/><tag k="amenity" v="parking"/><tag k="parking" v="surface"/><tag k="access" v="permissive"/><tag k="addr:housenumber" v="1018"/><tag k="addr:street" v="Stittsville Main Street"/><tag k="capacity" v="16"/><tag k="capacity:disabled" v="0"/><tag k="opening_hours" v="06:00-23:00"/><tag k="lit" v="no"/><tag k="surface" v="asphalt"/><tag k="supervised" v="no"/><tag k="fee" v="no"/><tag k="operator" v="City of Ottawa"/><tag k="source" v="City of Ottawa"/><tag k="source:date" v="2022-05-28"/></node></osm>