<?xml version="1.0" encoding="UTF-8"?><osm version="0.6" generator="https://github.com/Rub21/geojson2osm" upload='never'><node lat="45.365139" lon="-75.463458"  id="-1"  changeset="false" ><tag k="name" v="Public Tennis Courts"/><tag k="leisure" v="pitch"/><tag k="sport" v="tennis"/><tag k="outdoor" v="yes"/><tag k="seasonal" v="yes"/><tag k="name:fr" v="Courts de tennis publics"/><tag k="addr:street" v="Piperville Road"/><tag k="addr:housenumber" v="6020"/><tag k="description" v="Public Courts"/><tag k="courts" v="2"/><tag k="surface" v="acrylic"/><tag k="wheelchair" v="no"/><tag k="source" v="City of Ottawa"/><tag k="source:date" v="2018-01-02"/><tag k="ref" v="27024"/><tag k="tennis:benches" v="yes"/><tag k="tennis:fence" v="yes"/><tag k="tennis:backwall" v="no"/><tag k="tennis:clubhouse" v="no"/><tag k="lit" v="no"/><tag k="operator" v="City of Ottawa"/><tag k="access" v="permissive"/><tag k="ref:park" v="365"/></node><node lat="45.383293" lon="-75.765837"  id="-2"  changeset="false" ><tag k="name" v="Public Tennis Courts"/><tag k="leisure" v="pitch"/><tag k="sport" v="tennis"/><tag k="outdoor" v="yes"/><tag k="seasonal" v="yes"/><tag k="name:fr" v="Courts de tennis publics"/><tag k="addr:street" v="Wavell Avenue"/><tag k="addr:housenumber" v="539"/><tag k="description" v="Public Courts"/><tag k="courts" v="2"/><tag k="surface" v="acrylic"/><tag k="wheelchair" v="no"/><tag k="source" v="City of Ottawa"/><tag k="source:date" v="2018-01-02"/><tag k="ref" v="3762"/><tag k="tennis:benches" v="yes"/><tag k="tennis:fence" v="yes"/><tag k="tennis:backwall" v="no"/><tag k="tennis:clubhouse" v="no"/><tag k="lit" v="no"/><tag k="operator" v="City of Ottawa"/><tag k="access" v="permissive"/><tag k="ref:park" v="1163"/></node><node lat="45.419612" lon="-75.603691"  id="-3"  changeset="false" ><tag k="name" v="Public Tennis Courts"/><tag k="leisure" v="pitch"/><tag k="sport" v="tennis"/><tag k="outdoor" v="yes"/><tag k="seasonal" v="yes"/><tag k="name:fr" v="Courts de tennis publics"/><tag k="addr:street" v="Stonehenge Crescent"/><tag k="addr:housenumber" v="1819"/><tag k="description" v="Public Courts"/><tag k="courts" v="2"/><tag k="surface" v="asphalt"/><tag k="wheelchair" v="no"/><tag k="source" v="City of Ottawa"/><tag k="source:date" v="2018-01-02"/><tag k="ref" v="27051"/><tag k="tennis:benches" v="yes"/><tag k="tennis:fence" v="yes"/><tag k="tennis:backwall" v="no"/><tag k="tennis:clubhouse" v="no"/><tag k="lit" v="yes"/><tag k="operator" v="City of Ottawa"/><tag k="access" v="permissive"/><tag k="ref:park" v="1068"/></node><node lat="45.440755" lon="-75.342842"  id="-4"  changeset="false" ><tag k="name" v="Public Tennis Courts"/><tag k="leisure" v="pitch"/><tag k="sport" v="tennis"/><tag k="outdoor" v="yes"/><tag k="seasonal" v="yes"/><tag k="name:fr" v="Courts de tennis publics"/><tag k="addr:street" v="Sarsfield Road"/><tag k="addr:housenumber" v="3585"/><tag k="description" v="Public Courts"/><tag k="courts" v="2"/><tag k="surface" v="acrylic"/><tag k="wheelchair" v="no"/><tag k="source" v="City of Ottawa"/><tag k="source:date" v="2018-01-02"/><tag k="ref" v="27052"/><tag k="tennis:benches" v="no"/><tag k="tennis:fence" v="yes"/><tag k="tennis:backwall" v="no"/><tag k="tennis:clubhouse" v="no"/><tag k="lit" v="yes"/><tag k="operator" v="City of Ottawa"/><tag k="access" v="permissive"/><tag k="ref:park" v="970"/></node><node lat="45.514329" lon="-75.403038"  id="-5"  changeset="false" ><tag k="name" v="Public Tennis Courts"/><tag k="leisure" v="pitch"/><tag k="sport" v="tennis"/><tag k="outdoor" v="yes"/><tag k="seasonal" v="yes"/><tag k="name:fr" v="Courts de tennis publics"/><tag k="addr:street" v="Dunning Road"/><tag k="addr:housenumber" v="1115"/><tag k="description" v="Public Courts"/><tag k="courts" v="2"/><tag k="surface" v="acrylic"/><tag k="wheelchair" v="no"/><tag k="source" v="City of Ottawa"/><tag k="source:date" v="2018-01-02"/><tag k="ref" v="27053"/><tag k="tennis:benches" v="no"/><tag k="tennis:fence" v="yes"/><tag k="tennis:backwall" v="yes"/><tag k="tennis:clubhouse" v="no"/><tag k="lit" v="yes"/><tag k="operator" v="City of Ottawa"/><tag k="access" v="permissive"/><tag k="ref:park" v="348"/></node><node lat="45.440574" lon="-75.632235"  id="-6"  changeset="false" ><tag k="name" v="Public Tennis Courts"/><tag k="leisure" v="pitch"/><tag k="sport" v="tennis"/><tag k="outdoor" v="yes"/><tag k="seasonal" v="yes"/><tag k="name:fr" v="Courts de tennis publics"/><tag k="addr:street" v="Den Haag Drive"/><tag k="addr:housenumber" v="300"/><tag k="description" v="Public Courts"/><tag k="courts" v="2"/><tag k="surface" v="acrylic"/><tag k="wheelchair" v="no"/><tag k="source" v="City of Ottawa"/><tag k="source:date" v="2018-01-02"/><tag k="ref" v="27065"/><tag k="tennis:benches" v="no"/><tag k="tennis:fence" v="yes"/><tag k="tennis:backwall" v="no"/><tag k="tennis:clubhouse" v="no"/><tag k="lit" v="yes"/><tag k="operator" v="City of Ottawa"/><tag k="access" v="permissive"/><tag k="ref:park" v="1573"/></node><node lat="45.389554" lon="-75.629504"  id="-7"  changeset="false" ><tag k="name" v="Public Tennis Courts"/><tag k="leisure" v="pitch"/><tag k="sport" v="tennis"/><tag k="outdoor" v="yes"/><tag k="seasonal" v="yes"/><tag k="name:fr" v="Courts de tennis publics"/><tag k="addr:street" v="Arch Street"/><tag k="addr:housenumber" v="2185"/><tag k="description" v="Public Courts"/><tag k="courts" v="2"/><tag k="surface" v="acrylic"/><tag k="wheelchair" v="no"/><tag k="source" v="City of Ottawa"/><tag k="source:date" v="2018-01-02"/><tag k="ref" v="3720"/><tag k="tennis:benches" v="yes"/><tag k="tennis:fence" v="yes"/><tag k="tennis:backwall" v="no"/><tag k="tennis:clubhouse" v="no"/><tag k="lit" v="no"/><tag k="operator" v="City of Ottawa"/><tag k="access" v="permissive"/><tag k="ref:park" v="37"/></node><node lat="45.398714" lon="-75.613998"  id="-8"  changeset="false" ><tag k="name" v="Public Tennis Courts"/><tag k="leisure" v="pitch"/><tag k="sport" v="tennis"/><tag k="outdoor" v="yes"/><tag k="seasonal" v="yes"/><tag k="name:fr" v="Courts de tennis publics"/><tag k="addr:street" v="Southvale Crescent"/><tag k="addr:housenumber" v="2320"/><tag k="description" v="Public Courts"/><tag k="courts" v="2"/><tag k="surface" v="acrylic"/><tag k="wheelchair" v="no"/><tag k="source" v="City of Ottawa"/><tag k="source:date" v="2018-01-02"/><tag k="ref" v="3786"/><tag k="tennis:benches" v="no"/><tag k="tennis:fence" v="yes"/><tag k="tennis:backwall" v="no"/><tag k="tennis:clubhouse" v="no"/><tag k="lit" v="no"/><tag k="operator" v="City of Ottawa"/><tag k="access" v="permissive"/><tag k="ref:park" v="1021"/></node><node lat="45.385012" lon="-75.64711"  id="-9"  changeset="false" ><tag k="name" v="Public Tennis Courts"/><tag k="leisure" v="pitch"/><tag k="sport" v="tennis"/><tag k="outdoor" v="yes"/><tag k="seasonal" v="yes"/><tag k="name:fr" v="Courts de tennis publics"/><tag k="addr:street" v="Virginia Drive"/><tag k="addr:housenumber" v="2330"/><tag k="description" v="Public Courts"/><tag k="courts" v="2"/><tag k="surface" v="asphalt"/><tag k="wheelchair" v="no"/><tag k="source" v="City of Ottawa"/><tag k="source:date" v="2018-01-02"/><tag k="ref" v="3736"/><tag k="tennis:benches" v="yes"/><tag k="tennis:fence" v="yes"/><tag k="tennis:backwall" v="yes"/><tag k="tennis:clubhouse" v="no"/><tag k="lit" v="no"/><tag k="operator" v="City of Ottawa"/><tag k="access" v="permissive"/><tag k="ref:park" v="1146"/></node><node lat="45.349976" lon="-75.775591"  id="-10"  changeset="false" ><tag k="name" v="Public Tennis Courts"/><tag k="leisure" v="pitch"/><tag k="sport" v="tennis"/><tag k="outdoor" v="yes"/><tag k="seasonal" v="yes"/><tag k="name:fr" v="Courts de tennis publics"/><tag k="addr:street" v="Torquay Avenue"/><tag k="addr:housenumber" v="2250"/><tag k="description" v="Public Courts"/><tag k="courts" v="4"/><tag k="surface" v="acrylic"/><tag k="wheelchair" v="no"/><tag k="source" v="City of Ottawa"/><tag k="source:date" v="2018-01-02"/><tag k="ref" v="4051"/><tag k="tennis:benches" v="yes"/><tag k="tennis:fence" v="yes"/><tag k="tennis:backwall" v="no"/><tag k="tennis:clubhouse" v="no"/><tag k="lit" v="no"/><tag k="operator" v="City of Ottawa"/><tag k="access" v="permissive"/><tag k="ref:park" v="1109"/></node><node lat="45.346886" lon="-75.783993"  id="-11"  changeset="false" ><tag k="name" v="Public Tennis Courts"/><tag k="leisure" v="pitch"/><tag k="sport" v="tennis"/><tag k="outdoor" v="yes"/><tag k="seasonal" v="yes"/><tag k="name:fr" v="Courts de tennis publics"/><tag k="addr:street" v="Southwood Drive"/><tag k="addr:housenumber" v="1250"/><tag k="description" v="Public Courts"/><tag k="courts" v="2"/><tag k="surface" v="asphalt"/><tag k="wheelchair" v="no"/><tag k="source" v="City of Ottawa"/><tag k="source:date" v="2018-01-02"/><tag k="ref" v="3798"/><tag k="tennis:benches" v="yes"/><tag k="tennis:fence" v="yes"/><tag k="tennis:backwall" v="no"/><tag k="tennis:clubhouse" v="no"/><tag k="lit" v="no"/><tag k="operator" v="City of Ottawa"/><tag k="access" v="permissive"/><tag k="ref:park" v="1022"/></node><node lat="45.45963" lon="-75.613762"  id="-12"  changeset="false" ><tag k="name" v="Public Tennis Courts"/><tag k="leisure" v="pitch"/><tag k="sport" v="tennis"/><tag k="outdoor" v="yes"/><tag k="seasonal" v="yes"/><tag k="name:fr" v="Courts de tennis publics"/><tag k="addr:street" v="Combermere Lane"/><tag k="addr:housenumber" v="11"/><tag k="description" v="Public Courts"/><tag k="courts" v="3"/><tag k="surface" v="asphalt"/><tag k="wheelchair" v="no"/><tag k="source" v="City of Ottawa"/><tag k="source:date" v="2018-01-02"/><tag k="ref" v="27018"/><tag k="tennis:benches" v="yes"/><tag k="tennis:fence" v="yes"/><tag k="tennis:backwall" v="no"/><tag k="tennis:clubhouse" v="no"/><tag k="lit" v="yes"/><tag k="operator" v="City of Ottawa"/><tag k="access" v="permissive"/><tag k="ref:park" v="271"/></node><node lat="45.466229" lon="-75.483813"  id="-13"  changeset="false" ><tag k="name" v="Public Tennis Courts"/><tag k="leisure" v="pitch"/><tag k="sport" v="tennis"/><tag k="outdoor" v="yes"/><tag k="seasonal" v="yes"/><tag k="name:fr" v="Courts de tennis publics"/><tag k="addr:street" v="Gardenway Drive"/><tag k="addr:housenumber" v="2001"/><tag k="description" v="Public Courts"/><tag k="courts" v="3"/><tag k="surface" v="acrylic"/><tag k="wheelchair" v="no"/><tag k="source" v="City of Ottawa"/><tag k="source:date" v="2018-01-02"/><tag k="ref" v="27030"/><tag k="tennis:benches" v="yes"/><tag k="tennis:fence" v="yes"/><tag k="tennis:backwall" v="no"/><tag k="tennis:clubhouse" v="no"/><tag k="lit" v="yes"/><tag k="operator" v="City of Ottawa"/><tag k="access" v="permissive"/><tag k="ref:park" v="420"/></node><node lat="45.130967" lon="-75.711369"  id="-14"  changeset="false" ><tag k="name" v="Public Tennis Courts"/><tag k="leisure" v="pitch"/><tag k="sport" v="tennis"/><tag k="outdoor" v="yes"/><tag k="seasonal" v="yes"/><tag k="name:fr" v="Courts de tennis publics"/><tag k="addr:street" v="Community Way"/><tag k="addr:housenumber" v="2300"/><tag k="description" v="Public Courts"/><tag k="courts" v="4"/><tag k="surface" v="acrylic"/><tag k="wheelchair" v="no"/><tag k="source" v="City of Ottawa"/><tag k="source:date" v="2018-01-02"/><tag k="ref" v="27061"/><tag k="tennis:benches" v="no"/><tag k="tennis:fence" v="yes"/><tag k="tennis:backwall" v="yes"/><tag k="tennis:clubhouse" v="no"/><tag k="lit" v="yes"/><tag k="operator" v="City of Ottawa"/><tag k="access" v="permissive"/><tag k="ref:park" v="273"/></node><node lat="45.360985" lon="-75.757442"  id="-15"  changeset="false" ><tag k="name" v="Public Tennis Courts"/><tag k="leisure" v="pitch"/><tag k="sport" v="tennis"/><tag k="outdoor" v="yes"/><tag k="seasonal" v="yes"/><tag k="name:fr" v="Courts de tennis publics"/><tag k="addr:street" v="Navaho Drive"/><tag k="addr:housenumber" v="2031"/><tag k="description" v="Public Courts"/><tag k="courts" v="2"/><tag k="surface" v="asphalt"/><tag k="wheelchair" v="no"/><tag k="source" v="City of Ottawa"/><tag k="source:date" v="2018-01-02"/><tag k="ref" v="3769"/><tag k="tennis:benches" v="yes"/><tag k="tennis:fence" v="yes"/><tag k="tennis:backwall" v="no"/><tag k="tennis:clubhouse" v="no"/><tag k="lit" v="no"/><tag k="operator" v="City of Ottawa"/><tag k="access" v="permissive"/><tag k="ref:park" v="742"/></node><node lat="45.367214" lon="-75.745719"  id="-16"  changeset="false" ><tag k="name" v="Public Tennis Courts"/><tag k="leisure" v="pitch"/><tag k="sport" v="tennis"/><tag k="outdoor" v="yes"/><tag k="seasonal" v="yes"/><tag k="name:fr" v="Courts de tennis publics"/><tag k="addr:street" v="Greenlawn Crescent"/><tag k="addr:housenumber" v="1145"/><tag k="description" v="Public Courts"/><tag k="courts" v="2"/><tag k="surface" v="asphalt"/><tag k="wheelchair" v="no"/><tag k="source" v="City of Ottawa"/><tag k="source:date" v="2018-01-02"/><tag k="ref" v="27029"/><tag k="tennis:benches" v="yes"/><tag k="tennis:fence" v="yes"/><tag k="tennis:backwall" v="no"/><tag k="tennis:clubhouse" v="no"/><tag k="lit" v="no"/><tag k="operator" v="City of Ottawa"/><tag k="access" v="permissive"/><tag k="ref:park" v="456"/></node><node lat="45.3113" lon="-75.890108"  id="-17"  changeset="false" ><tag k="name" v="Public Tennis Courts"/><tag k="leisure" v="pitch"/><tag k="sport" v="tennis"/><tag k="outdoor" v="yes"/><tag k="seasonal" v="yes"/><tag k="name:fr" v="Courts de tennis publics"/><tag k="addr:street" v="Chimo Drive"/><tag k="addr:housenumber" v="38"/><tag k="description" v="Public Courts"/><tag k="courts" v="2"/><tag k="surface" v="acrylic"/><tag k="wheelchair" v="no"/><tag k="source" v="City of Ottawa"/><tag k="source:date" v="2018-01-02"/><tag k="ref" v="27031"/><tag k="tennis:benches" v="no"/><tag k="tennis:fence" v="yes"/><tag k="tennis:backwall" v="no"/><tag k="tennis:clubhouse" v="no"/><tag k="lit" v="no"/><tag k="operator" v="City of Ottawa"/><tag k="access" v="permissive"/><tag k="ref:park" v="235"/></node><node lat="45.31821" lon="-75.920199"  id="-18"  changeset="false" ><tag k="name" v="Public Tennis Courts"/><tag k="leisure" v="pitch"/><tag k="sport" v="tennis"/><tag k="outdoor" v="yes"/><tag k="seasonal" v="yes"/><tag k="name:fr" v="Courts de tennis publics"/><tag k="addr:street" v="Goldridge Drive"/><tag k="addr:housenumber" v="400"/><tag k="description" v="Public Courts"/><tag k="courts" v="1"/><tag k="surface" v="acrylic"/><tag k="wheelchair" v="no"/><tag k="source" v="City of Ottawa"/><tag k="source:date" v="2018-01-02"/><tag k="ref" v="27032"/><tag k="tennis:benches" v="no"/><tag k="tennis:fence" v="yes"/><tag k="tennis:backwall" v="no"/><tag k="tennis:clubhouse" v="no"/><tag k="lit" v="yes"/><tag k="operator" v="City of Ottawa"/><tag k="access" v="permissive"/><tag k="ref:park" v="438"/></node><node lat="45.349102" lon="-75.938002"  id="-19"  changeset="false" ><tag k="name" v="Public Tennis Courts"/><tag k="leisure" v="pitch"/><tag k="sport" v="tennis"/><tag k="outdoor" v="yes"/><tag k="seasonal" v="yes"/><tag k="name:fr" v="Courts de tennis publics"/><tag k="addr:street" v="Halton Terrace"/><tag k="addr:housenumber" v="1365"/><tag k="description" v="Public Courts"/><tag k="courts" v="2"/><tag k="surface" v="asphalt"/><tag k="wheelchair" v="no"/><tag k="source" v="City of Ottawa"/><tag k="source:date" v="2018-01-02"/><tag k="ref" v="27034"/><tag k="tennis:benches" v="yes"/><tag k="tennis:fence" v="yes"/><tag k="tennis:backwall" v="no"/><tag k="tennis:clubhouse" v="no"/><tag k="lit" v="no"/><tag k="operator" v="City of Ottawa"/><tag k="access" v="permissive"/><tag k="ref:park" v="80"/></node><node lat="45.376095" lon="-75.954974"  id="-20"  changeset="false" ><tag k="name" v="Public Tennis Courts"/><tag k="leisure" v="pitch"/><tag k="sport" v="tennis"/><tag k="outdoor" v="yes"/><tag k="seasonal" v="yes"/><tag k="name:fr" v="Courts de tennis publics"/><tag k="addr:street" v="Cameron Harvey Drive"/><tag k="addr:housenumber" v="630"/><tag k="description" v="Public Courts"/><tag k="courts" v="1"/><tag k="surface" v="asphalt"/><tag k="wheelchair" v="no"/><tag k="source" v="City of Ottawa"/><tag k="source:date" v="2018-01-02"/><tag k="ref" v="27037"/><tag k="tennis:benches" v="no"/><tag k="tennis:fence" v="yes"/><tag k="tennis:backwall" v="yes"/><tag k="tennis:clubhouse" v="no"/><tag k="lit" v="no"/><tag k="operator" v="City of Ottawa"/><tag k="access" v="permissive"/><tag k="ref:park" v="903"/></node><node lat="45.361838" lon="-75.718823"  id="-21"  changeset="false" ><tag k="name" v="Long Park Tennis Club"/><tag k="leisure" v="pitch"/><tag k="sport" v="tennis"/><tag k="outdoor" v="yes"/><tag k="seasonal" v="yes"/><tag k="name:fr" v="Club de tennis de Long Park"/><tag k="addr:street" v="Deer Park Road"/><tag k="addr:housenumber" v="1190"/><tag k="description" v="Membership Clubs"/><tag k="courts" v="4"/><tag k="surface" v="acrylic"/><tag k="wheelchair" v="no"/><tag k="source" v="City of Ottawa"/><tag k="source:date" v="2018-01-02"/><tag k="ref" v="27027"/><tag k="tennis:benches" v="no"/><tag k="tennis:fence" v="no"/><tag k="tennis:backwall" v="yes"/><tag k="tennis:clubhouse" v="yes"/><tag k="lit" v="no"/><tag k="access" v="customers"/><tag k="ref:park" v="320"/></node><node lat="45.351741" lon="-75.718938"  id="-22"  changeset="false" ><tag k="name" v="General Burns Tennis Club"/><tag k="leisure" v="pitch"/><tag k="sport" v="tennis"/><tag k="outdoor" v="yes"/><tag k="seasonal" v="yes"/><tag k="name:fr" v="Club de tennis General-Burns"/><tag k="addr:street" v="Chesterton Drive"/><tag k="addr:housenumber" v="107"/><tag k="description" v="Membership Clubs"/><tag k="courts" v="4"/><tag k="surface" v="acrylic"/><tag k="wheelchair" v="no"/><tag k="source" v="City of Ottawa"/><tag k="source:date" v="2018-01-02"/><tag k="ref" v="27028"/><tag k="tennis:benches" v="no"/><tag k="tennis:fence" v="yes"/><tag k="tennis:backwall" v="yes"/><tag k="tennis:clubhouse" v="no"/><tag k="lit" v="yes"/><tag k="access" v="customers"/><tag k="ref:park" v="234"/></node><node lat="45.479017" lon="-75.531303"  id="-23"  changeset="false" ><tag k="name" v="Public Tennis Courts"/><tag k="leisure" v="pitch"/><tag k="sport" v="tennis"/><tag k="outdoor" v="yes"/><tag k="seasonal" v="yes"/><tag k="name:fr" v="Courts de tennis publics"/><tag k="addr:street" v="Bilberry Drive"/><tag k="addr:housenumber" v="6600"/><tag k="description" v="Public Courts"/><tag k="courts" v="2"/><tag k="surface" v="asphalt"/><tag k="wheelchair" v="no"/><tag k="source" v="City of Ottawa"/><tag k="source:date" v="2018-01-02"/><tag k="ref" v="27010"/><tag k="tennis:benches" v="yes"/><tag k="tennis:fence" v="yes"/><tag k="tennis:backwall" v="no"/><tag k="tennis:clubhouse" v="no"/><tag k="lit" v="no"/><tag k="operator" v="City of Ottawa"/><tag k="access" v="permissive"/><tag k="ref:park" v="107"/></node><node lat="45.471437" lon="-75.462871"  id="-24"  changeset="false" ><tag k="name" v="Public Tennis Courts"/><tag k="leisure" v="pitch"/><tag k="sport" v="tennis"/><tag k="outdoor" v="yes"/><tag k="seasonal" v="yes"/><tag k="name:fr" v="Courts de tennis publics"/><tag k="addr:street" v="Valin Street"/><tag k="addr:housenumber" v="998"/><tag k="description" v="Public Courts"/><tag k="courts" v="3"/><tag k="surface" v="acrylic"/><tag k="wheelchair" v="no"/><tag k="source" v="City of Ottawa"/><tag k="source:date" v="2018-01-02"/><tag k="ref" v="27012"/><tag k="tennis:benches" v="yes"/><tag k="tennis:fence" v="yes"/><tag k="tennis:backwall" v="no"/><tag k="tennis:clubhouse" v="no"/><tag k="lit" v="yes"/><tag k="operator" v="City of Ottawa"/><tag k="access" v="permissive"/><tag k="ref:park" v="1511"/></node><node lat="45.32833" lon="-75.90232"  id="-25"  changeset="false" ><tag k="name" v="Public Tennis Courts"/><tag k="leisure" v="pitch"/><tag k="sport" v="tennis"/><tag k="outdoor" v="yes"/><tag k="seasonal" v="yes"/><tag k="name:fr" v="Courts de tennis publics"/><tag k="addr:street" v="Beaverbrook Road"/><tag k="addr:housenumber" v="5"/><tag k="description" v="Public Courts"/><tag k="courts" v="2"/><tag k="surface" v="acrylic"/><tag k="wheelchair" v="no"/><tag k="source" v="City of Ottawa"/><tag k="source:date" v="2018-01-02"/><tag k="ref" v="27067"/><tag k="tennis:benches" v="no"/><tag k="tennis:fence" v="yes"/><tag k="tennis:backwall" v="no"/><tag k="tennis:clubhouse" v="no"/><tag k="lit" v="no"/><tag k="operator" v="City of Ottawa"/><tag k="access" v="permissive"/><tag k="ref:park" v="1700"/></node><node lat="45.427345" lon="-75.668707"  id="-26"  changeset="false" ><tag k="name" v="Rideau Tennis Club"/><tag k="leisure" v="pitch"/><tag k="sport" v="tennis"/><tag k="outdoor" v="yes"/><tag k="seasonal" v="yes"/><tag k="name:fr" v="Club de tennis Rideau"/><tag k="addr:street" v="Donald Street"/><tag k="addr:housenumber" v="1"/><tag k="description" v="Private Clubs"/><tag k="courts" v="13"/><tag k="surface" v="clay"/><tag k="wheelchair" v="no"/><tag k="source" v="City of Ottawa"/><tag k="source:date" v="2018-01-02"/><tag k="ref" v="36411"/><tag k="tennis:benches" v="yes"/><tag k="tennis:fence" v="yes"/><tag k="tennis:backwall" v="no"/><tag k="tennis:clubhouse" v="yes"/><tag k="tennis:indoor_courts" v="yes"/><tag k="lit" v="yes"/><tag k="operator" v="Private Club"/><tag k="access" v="private"/></node><node lat="45.32725" lon="-75.783379"  id="-27"  changeset="false" ><tag k="name" v="Trend Arlington Tennis Club"/><tag k="leisure" v="pitch"/><tag k="sport" v="tennis"/><tag k="outdoor" v="yes"/><tag k="seasonal" v="yes"/><tag k="name:fr" v="Club de tennis de Trend-Arlington"/><tag k="addr:street" v="Bellman Drive"/><tag k="addr:housenumber" v="50"/><tag k="description" v="Membership Clubs"/><tag k="courts" v="4"/><tag k="surface" v="acrylic"/><tag k="wheelchair" v="no"/><tag k="source" v="City of Ottawa"/><tag k="source:date" v="2018-01-02"/><tag k="ref" v="27026"/><tag k="tennis:benches" v="yes"/><tag k="tennis:fence" v="yes"/><tag k="tennis:backwall" v="yes"/><tag k="tennis:clubhouse" v="yes"/><tag k="lit" v="yes"/><tag k="access" v="customers"/><tag k="ref:park" v="101"/></node><node lat="45.443282" lon="-75.604172"  id="-28"  changeset="false" ><tag k="name" v="Elmridge Tennis Club"/><tag k="leisure" v="pitch"/><tag k="sport" v="tennis"/><tag k="outdoor" v="yes"/><tag k="seasonal" v="yes"/><tag k="name:fr" v="Club de tennis Elmridge"/><tag k="addr:street" v="Elmridge Drive"/><tag k="addr:housenumber" v="1841"/><tag k="description" v="Membership Clubs"/><tag k="courts" v="4"/><tag k="surface" v="acrylic"/><tag k="wheelchair" v="no"/><tag k="source" v="City of Ottawa"/><tag k="source:date" v="2018-01-02"/><tag k="ref" v="7428"/><tag k="tennis:benches" v="no"/><tag k="tennis:fence" v="yes"/><tag k="tennis:backwall" v="no"/><tag k="tennis:clubhouse" v="yes"/><tag k="lit" v="yes"/><tag k="access" v="customers"/><tag k="ref:park" v="377"/></node><node lat="45.433235" lon="-75.562522"  id="-29"  changeset="false" ><tag k="name" v="Blackburn Tennis Club"/><tag k="leisure" v="pitch"/><tag k="sport" v="tennis"/><tag k="outdoor" v="yes"/><tag k="seasonal" v="yes"/><tag k="name:fr" v="Club de tennis de Blackburn"/><tag k="addr:street" v="Bearbrook Road"/><tag k="addr:housenumber" v="99"/><tag k="description" v="Membership Clubs"/><tag k="courts" v="6"/><tag k="surface" v="acrylic"/><tag k="wheelchair" v="no"/><tag k="source" v="City of Ottawa"/><tag k="source:date" v="2018-01-02"/><tag k="ref" v="7427"/><tag k="tennis:benches" v="yes"/><tag k="tennis:fence" v="yes"/><tag k="tennis:backwall" v="yes"/><tag k="tennis:clubhouse" v="yes"/><tag k="lit" v="yes"/><tag k="access" v="customers"/><tag k="ref:park" v="514"/></node><node lat="45.437316" lon="-75.621581"  id="-30"  changeset="false" ><tag k="name" v="Public Tennis Courts"/><tag k="leisure" v="pitch"/><tag k="sport" v="tennis"/><tag k="outdoor" v="yes"/><tag k="seasonal" v="yes"/><tag k="name:fr" v="Courts de tennis publics"/><tag k="addr:street" v="Matheson Road"/><tag k="addr:housenumber" v="1423"/><tag k="description" v="Public Courts"/><tag k="courts" v="2"/><tag k="surface" v="acrylic"/><tag k="wheelchair" v="no"/><tag k="source" v="City of Ottawa"/><tag k="source:date" v="2018-01-02"/><tag k="ref" v="27035"/><tag k="tennis:benches" v="yes"/><tag k="tennis:fence" v="yes"/><tag k="tennis:backwall" v="yes"/><tag k="tennis:clubhouse" v="no"/><tag k="lit" v="yes"/><tag k="operator" v="City of Ottawa"/><tag k="access" v="permissive"/><tag k="ref:park" v="675"/></node><node lat="45.319702" lon="-75.821368"  id="-31"  changeset="false" ><tag k="name" v="Lynwood Tennis Club"/><tag k="leisure" v="pitch"/><tag k="sport" v="tennis"/><tag k="outdoor" v="yes"/><tag k="seasonal" v="yes"/><tag k="name:fr" v="Club de tennis de Lynwood"/><tag k="addr:street" v="Sycamore Drive"/><tag k="addr:housenumber" v="7"/><tag k="description" v="Membership Clubs"/><tag k="courts" v="4"/><tag k="surface" v="acrylic"/><tag k="wheelchair" v="no"/><tag k="source" v="City of Ottawa"/><tag k="source:date" v="2018-01-02"/><tag k="ref" v="27020"/><tag k="tennis:benches" v="no"/><tag k="tennis:fence" v="yes"/><tag k="tennis:backwall" v="yes"/><tag k="tennis:clubhouse" v="yes"/><tag k="lit" v="yes"/><tag k="access" v="customers"/><tag k="ref:park" v="1080"/></node><node lat="45.147166" lon="-75.601988"  id="-32"  changeset="false" ><tag k="name" v="Public Tennis Courts"/><tag k="leisure" v="pitch"/><tag k="sport" v="tennis"/><tag k="outdoor" v="yes"/><tag k="seasonal" v="yes"/><tag k="name:fr" v="Courts de tennis publics"/><tag k="addr:street" v="Osgoode Main Street"/><tag k="addr:housenumber" v="5660"/><tag k="description" v="Public Courts"/><tag k="courts" v="2"/><tag k="surface" v="asphalt"/><tag k="wheelchair" v="no"/><tag k="source" v="City of Ottawa"/><tag k="source:date" v="2018-01-02"/><tag k="ref" v="27041"/><tag k="tennis:benches" v="yes"/><tag k="tennis:fence" v="yes"/><tag k="tennis:backwall" v="no"/><tag k="tennis:clubhouse" v="no"/><tag k="lit" v="yes"/><tag k="operator" v="City of Ottawa"/><tag k="access" v="permissive"/><tag k="ref:park" v="653"/></node><node lat="45.230389" lon="-75.468296"  id="-33"  changeset="false" ><tag k="name" v="Public Tennis Courts"/><tag k="leisure" v="pitch"/><tag k="sport" v="tennis"/><tag k="outdoor" v="yes"/><tag k="seasonal" v="yes"/><tag k="name:fr" v="Courts de tennis publics"/><tag k="addr:street" v="8th Line Road"/><tag k="addr:housenumber" v="2785"/><tag k="description" v="Public Courts"/><tag k="courts" v="2"/><tag k="surface" v="acrylic"/><tag k="wheelchair" v="no"/><tag k="source" v="City of Ottawa"/><tag k="source:date" v="2018-01-02"/><tag k="ref" v="27042"/><tag k="tennis:benches" v="yes"/><tag k="tennis:fence" v="yes"/><tag k="tennis:backwall" v="no"/><tag k="tennis:clubhouse" v="no"/><tag k="lit" v="no"/><tag k="operator" v="City of Ottawa"/><tag k="access" v="permissive"/><tag k="ref:park" v="9"/></node><node lat="45.417416" lon="-75.645361"  id="-34"  changeset="false" ><tag k="name" v="Public Tennis Courts"/><tag k="leisure" v="pitch"/><tag k="sport" v="tennis"/><tag k="outdoor" v="yes"/><tag k="seasonal" v="yes"/><tag k="name:fr" v="Courts de tennis publics"/><tag k="addr:street" v="Avenue N"/><tag k="addr:housenumber" v="1332"/><tag k="description" v="Public Courts"/><tag k="courts" v="1"/><tag k="surface" v="asphalt"/><tag k="wheelchair" v="no"/><tag k="source" v="City of Ottawa"/><tag k="source:date" v="2018-01-02"/><tag k="ref" v="3724"/><tag k="tennis:benches" v="no"/><tag k="tennis:fence" v="yes"/><tag k="tennis:backwall" v="no"/><tag k="tennis:clubhouse" v="no"/><tag k="lit" v="no"/><tag k="operator" v="City of Ottawa"/><tag k="access" v="permissive"/><tag k="ref:park" v="48"/></node><node lat="45.325184" lon="-75.70929"  id="-35"  changeset="false" ><tag k="name" v="Grenfell Tennis Club - Pineglen Site"/><tag k="leisure" v="pitch"/><tag k="sport" v="tennis"/><tag k="outdoor" v="yes"/><tag k="seasonal" v="yes"/><tag k="name:fr" v="Club de tennis de Grenfell - Emplacement Pineglen"/><tag k="addr:street" v="Brisbane Road"/><tag k="addr:housenumber" v="22"/><tag k="description" v="Membership Clubs"/><tag k="courts" v="2"/><tag k="surface" v="acrylic"/><tag k="wheelchair" v="no"/><tag k="source" v="City of Ottawa"/><tag k="source:date" v="2018-01-02"/><tag k="ref" v="27055"/><tag k="tennis:benches" v="no"/><tag k="tennis:fence" v="yes"/><tag k="tennis:backwall" v="no"/><tag k="tennis:clubhouse" v="no"/><tag k="lit" v="yes"/><tag k="access" v="customers"/><tag k="ref:park" v="140"/></node><node lat="45.314991" lon="-75.730582"  id="-36"  changeset="false" ><tag k="name" v="Grenfell Tennis Club - Grenfell Glen Site"/><tag k="leisure" v="pitch"/><tag k="sport" v="tennis"/><tag k="outdoor" v="yes"/><tag k="seasonal" v="yes"/><tag k="name:fr" v="Club de tennis Grenfell - Emplacement Grenfell Glen"/><tag k="addr:street" v="Avonlea Road"/><tag k="addr:housenumber" v="53"/><tag k="description" v="Membership Clubs"/><tag k="courts" v="2"/><tag k="surface" v="acrylic"/><tag k="wheelchair" v="no"/><tag k="source" v="City of Ottawa"/><tag k="source:date" v="2018-01-02"/><tag k="ref" v="27056"/><tag k="tennis:benches" v="no"/><tag k="tennis:fence" v="yes"/><tag k="tennis:backwall" v="no"/><tag k="tennis:clubhouse" v="no"/><tag k="lit" v="yes"/><tag k="access" v="customers"/><tag k="ref:park" v="49"/></node><node lat="45.345632" lon="-75.827933"  id="-37"  changeset="false" ><tag k="name" v="Crystal Beach Tennis Club"/><tag k="leisure" v="pitch"/><tag k="sport" v="tennis"/><tag k="outdoor" v="yes"/><tag k="seasonal" v="yes"/><tag k="name:fr" v="Club de tennis de Crystal Beach"/><tag k="addr:street" v="Corkstown Road"/><tag k="addr:housenumber" v="61"/><tag k="description" v="Membership Clubs"/><tag k="courts" v="3"/><tag k="surface" v="acrylic"/><tag k="wheelchair" v="no"/><tag k="source" v="City of Ottawa"/><tag k="source:date" v="2018-01-02"/><tag k="ref" v="27023"/><tag k="tennis:benches" v="no"/><tag k="tennis:fence" v="yes"/><tag k="tennis:backwall" v="no"/><tag k="tennis:clubhouse" v="yes"/><tag k="lit" v="yes"/><tag k="access" v="customers"/><tag k="ref:park" v="283"/></node><node lat="45.462414" lon="-75.536513"  id="-38"  changeset="false" ><tag k="name" v="Public Tennis Courts"/><tag k="leisure" v="pitch"/><tag k="sport" v="tennis"/><tag k="outdoor" v="yes"/><tag k="seasonal" v="yes"/><tag k="name:fr" v="Courts de tennis publics"/><tag k="addr:street" v="Henri Lauzon Street"/><tag k="addr:housenumber" v="1410"/><tag k="description" v="Public Courts"/><tag k="courts" v="2"/><tag k="surface" v="acrylic"/><tag k="wheelchair" v="no"/><tag k="source" v="City of Ottawa"/><tag k="source:date" v="2018-01-02"/><tag k="ref" v="27003"/><tag k="tennis:benches" v="yes"/><tag k="tennis:fence" v="yes"/><tag k="tennis:backwall" v="no"/><tag k="tennis:clubhouse" v="no"/><tag k="lit" v="yes"/><tag k="operator" v="City of Ottawa"/><tag k="access" v="permissive"/><tag k="ref:park" v="476"/></node><node lat="45.362732" lon="-75.633871"  id="-39"  changeset="false" ><tag k="name" v="Public Tennis Courts"/><tag k="leisure" v="pitch"/><tag k="sport" v="tennis"/><tag k="outdoor" v="yes"/><tag k="seasonal" v="yes"/><tag k="name:fr" v="Courts de tennis publics"/><tag k="addr:street" v="Lorry Greenberg Drive"/><tag k="addr:housenumber" v="250"/><tag k="description" v="Public Courts"/><tag k="courts" v="2"/><tag k="surface" v="acrylic"/><tag k="wheelchair" v="no"/><tag k="source" v="City of Ottawa"/><tag k="source:date" v="2018-01-02"/><tag k="ref" v="36397"/><tag k="tennis:benches" v="yes"/><tag k="tennis:fence" v="yes"/><tag k="tennis:backwall" v="no"/><tag k="tennis:clubhouse" v="no"/><tag k="lit" v="no"/><tag k="operator" v="City of Ottawa"/><tag k="access" v="permissive"/><tag k="ref:park" v="631"/></node><node lat="45.454062" lon="-75.600025"  id="-40"  changeset="false" ><tag k="name" v="Tennis Courts - Colonel By Secondary School"/><tag k="leisure" v="pitch"/><tag k="sport" v="tennis"/><tag k="outdoor" v="yes"/><tag k="seasonal" v="yes"/><tag k="name:fr" v="Courts de tennis - Colonel By Secondary School"/><tag k="addr:street" v="Ogilvie Road"/><tag k="addr:housenumber" v="2381"/><tag k="description" v="School Board Sites"/><tag k="courts" v="7"/><tag k="surface" v="acrylic"/><tag k="wheelchair" v="no"/><tag k="source" v="City of Ottawa"/><tag k="source:date" v="2018-01-02"/><tag k="ref" v="36398"/><tag k="tennis:benches" v="yes"/><tag k="tennis:fence" v="yes"/><tag k="tennis:backwall" v="no"/><tag k="tennis:clubhouse" v="no"/><tag k="lit" v="yes"/><tag k="operator" v="School Board"/><tag k="access" v="customers"/></node><node lat="45.352157" lon="-75.625762"  id="-41"  changeset="false" ><tag k="name" v="Public Tennis Courts"/><tag k="leisure" v="pitch"/><tag k="sport" v="tennis"/><tag k="outdoor" v="yes"/><tag k="seasonal" v="yes"/><tag k="name:fr" v="Courts de tennis publics"/><tag k="addr:street" v="Street Bernard Street"/><tag k="addr:housenumber" v="1735"/><tag k="description" v="Public Courts"/><tag k="courts" v="2"/><tag k="surface" v="acrylic"/><tag k="wheelchair" v="no"/><tag k="source" v="City of Ottawa"/><tag k="source:date" v="2018-01-02"/><tag k="ref" v="27047"/><tag k="tennis:benches" v="no"/><tag k="tennis:fence" v="yes"/><tag k="tennis:backwall" v="no"/><tag k="tennis:clubhouse" v="no"/><tag k="lit" v="no"/><tag k="operator" v="City of Ottawa"/><tag k="access" v="permissive"/><tag k="ref:park" v="1031"/></node><node lat="45.476144" lon="-75.525255"  id="-42"  changeset="false" ><tag k="name" v="Public Tennis Courts"/><tag k="leisure" v="pitch"/><tag k="sport" v="tennis"/><tag k="outdoor" v="yes"/><tag k="seasonal" v="yes"/><tag k="name:fr" v="Courts de tennis publics"/><tag k="addr:street" v="Joseph Drouin Avenue"/><tag k="addr:housenumber" v="1257"/><tag k="description" v="Public Courts"/><tag k="courts" v="2"/><tag k="surface" v="acrylic"/><tag k="wheelchair" v="no"/><tag k="source" v="City of Ottawa"/><tag k="source:date" v="2018-01-02"/><tag k="ref" v="27009"/><tag k="tennis:benches" v="yes"/><tag k="tennis:fence" v="yes"/><tag k="tennis:backwall" v="no"/><tag k="tennis:clubhouse" v="no"/><tag k="lit" v="yes"/><tag k="operator" v="City of Ottawa"/><tag k="access" v="permissive"/><tag k="ref:park" v="1053"/></node><node lat="45.452114" lon="-75.614978"  id="-43"  changeset="false" ><tag k="name" v="Public Tennis Courts"/><tag k="leisure" v="pitch"/><tag k="sport" v="tennis"/><tag k="outdoor" v="yes"/><tag k="seasonal" v="yes"/><tag k="name:fr" v="Courts de tennis publics"/><tag k="addr:street" v="Whippoorwill Drive"/><tag k="addr:housenumber" v="3"/><tag k="description" v="Public Courts"/><tag k="courts" v="1"/><tag k="surface" v="acrylic"/><tag k="wheelchair" v="no"/><tag k="source" v="City of Ottawa"/><tag k="source:date" v="2018-01-02"/><tag k="ref" v="27017"/><tag k="tennis:benches" v="yes"/><tag k="tennis:fence" v="yes"/><tag k="tennis:backwall" v="no"/><tag k="tennis:clubhouse" v="yes"/><tag k="lit" v="yes"/><tag k="operator" v="City of Ottawa"/><tag k="access" v="permissive"/><tag k="ref:park" v="1178"/></node><node lat="45.196783" lon="-75.842999"  id="-44"  changeset="false" ><tag k="name" v="Public Tennis Courts"/><tag k="leisure" v="pitch"/><tag k="sport" v="tennis"/><tag k="outdoor" v="yes"/><tag k="seasonal" v="yes"/><tag k="name:fr" v="Courts de tennis publics"/><tag k="addr:street" v="Huntley Road"/><tag k="addr:housenumber" v="3302"/><tag k="description" v="Public Courts"/><tag k="courts" v="2"/><tag k="surface" v="asphalt"/><tag k="wheelchair" v="no"/><tag k="source" v="City of Ottawa"/><tag k="source:date" v="2018-01-02"/><tag k="ref" v="7599"/><tag k="tennis:benches" v="no"/><tag k="tennis:fence" v="yes"/><tag k="tennis:backwall" v="yes"/><tag k="tennis:clubhouse" v="no"/><tag k="lit" v="yes"/><tag k="operator" v="City of Ottawa"/><tag k="access" v="permissive"/><tag k="ref:park" v="506"/></node><node lat="45.34504" lon="-75.659483"  id="-45"  changeset="false" ><tag k="name" v="Public Tennis Courts"/><tag k="leisure" v="pitch"/><tag k="sport" v="tennis"/><tag k="outdoor" v="yes"/><tag k="seasonal" v="yes"/><tag k="name:fr" v="Courts de tennis publics"/><tag k="addr:street" v="Wyman Place"/><tag k="addr:housenumber" v="3560"/><tag k="description" v="Public Courts"/><tag k="courts" v="1"/><tag k="surface" v="acrylic"/><tag k="wheelchair" v="no"/><tag k="source" v="City of Ottawa"/><tag k="source:date" v="2018-01-02"/><tag k="ref" v="27021"/><tag k="tennis:benches" v="yes"/><tag k="tennis:fence" v="yes"/><tag k="tennis:backwall" v="no"/><tag k="tennis:clubhouse" v="no"/><tag k="lit" v="no"/><tag k="operator" v="City of Ottawa"/><tag k="access" v="permissive"/><tag k="ref:park" v="990"/></node><node lat="45.344604" lon="-75.738287"  id="-46"  changeset="false" ><tag k="name" v="City View Tennis Club"/><tag k="leisure" v="pitch"/><tag k="sport" v="tennis"/><tag k="outdoor" v="yes"/><tag k="seasonal" v="yes"/><tag k="name:fr" v="Club de tennis City View"/><tag k="addr:street" v="Fieldrow Street"/><tag k="addr:housenumber" v="58"/><tag k="description" v="Membership Clubs"/><tag k="courts" v="5"/><tag k="surface" v="acrylic"/><tag k="wheelchair" v="no"/><tag k="source" v="City of Ottawa"/><tag k="source:date" v="2018-01-02"/><tag k="ref" v="27059"/><tag k="tennis:benches" v="yes"/><tag k="tennis:fence" v="yes"/><tag k="tennis:backwall" v="yes"/><tag k="tennis:clubhouse" v="yes"/><tag k="lit" v="yes"/><tag k="access" v="customers"/><tag k="ref:park" v="393"/></node><node lat="45.354714" lon="-75.663969"  id="-47"  changeset="false" ><tag k="name" v="Public Tennis Courts"/><tag k="leisure" v="pitch"/><tag k="sport" v="tennis"/><tag k="outdoor" v="yes"/><tag k="seasonal" v="yes"/><tag k="name:fr" v="Courts de tennis publics"/><tag k="addr:street" v="Owl Drive"/><tag k="addr:housenumber" v="215"/><tag k="description" v="Public Courts"/><tag k="courts" v="4"/><tag k="surface" v="acrylic"/><tag k="wheelchair" v="no"/><tag k="source" v="City of Ottawa"/><tag k="source:date" v="2018-01-02"/><tag k="ref" v="3773"/><tag k="tennis:benches" v="yes"/><tag k="tennis:fence" v="yes"/><tag k="tennis:backwall" v="no"/><tag k="tennis:clubhouse" v="no"/><tag k="lit" v="yes"/><tag k="operator" v="City of Ottawa"/><tag k="access" v="permissive"/><tag k="ref:park" v="130"/></node><node lat="45.388182" lon="-75.695022"  id="-48"  changeset="false" ><tag k="name" v="Carleton Tennis Center"/><tag k="leisure" v="pitch"/><tag k="sport" v="tennis"/><tag k="outdoor" v="yes"/><tag k="seasonal" v="yes"/><tag k="name:fr" v="Centre de tennis de Carleton"/><tag k="addr:street" v="Colonel By Drive"/><tag k="addr:housenumber" v="1125"/><tag k="description" v="Private Clubs"/><tag k="courts" v="1"/><tag k="surface" v="acrylic"/><tag k="wheelchair" v="no"/><tag k="source" v="City of Ottawa"/><tag k="source:date" v="2018-01-02"/><tag k="ref" v="36399"/><tag k="tennis:benches" v="yes"/><tag k="tennis:fence" v="yes"/><tag k="tennis:backwall" v="no"/><tag k="tennis:clubhouse" v="yes"/><tag k="tennis:indoor_courts" v="yes"/><tag k="lit" v="yes"/><tag k="operator" v="Private Club"/><tag k="access" v="private"/></node><node lat="45.362935" lon="-75.778259"  id="-49"  changeset="false" ><tag k="name" v="Tennis Courts - Woodroffe High School"/><tag k="leisure" v="pitch"/><tag k="sport" v="tennis"/><tag k="outdoor" v="yes"/><tag k="seasonal" v="yes"/><tag k="name:fr" v="Courts de tennis - Woodroffe High School"/><tag k="addr:street" v="Georgina Drive"/><tag k="addr:housenumber" v="2410"/><tag k="description" v="School Board Sites"/><tag k="courts" v="4"/><tag k="surface" v="asphalt"/><tag k="wheelchair" v="no"/><tag k="source" v="City of Ottawa"/><tag k="source:date" v="2018-01-02"/><tag k="ref" v="36400"/><tag k="tennis:benches" v="no"/><tag k="tennis:fence" v="yes"/><tag k="tennis:backwall" v="no"/><tag k="tennis:clubhouse" v="no"/><tag k="lit" v="no"/><tag k="operator" v="School Board"/><tag k="access" v="customers"/></node><node lat="45.371893" lon="-75.802687"  id="-50"  changeset="false" ><tag k="name" v="Britannia Yacht Club (Tennis)"/><tag k="leisure" v="pitch"/><tag k="sport" v="tennis"/><tag k="outdoor" v="yes"/><tag k="seasonal" v="yes"/><tag k="name:fr" v="Club nautique de Britannia (Tennis)"/><tag k="addr:street" v="Cassels Street"/><tag k="addr:housenumber" v="2777"/><tag k="description" v="Private Clubs"/><tag k="courts" v="4"/><tag k="surface" v="acrylic"/><tag k="wheelchair" v="no"/><tag k="source" v="City of Ottawa"/><tag k="source:date" v="2018-01-02"/><tag k="ref" v="36401"/><tag k="tennis:benches" v="yes"/><tag k="tennis:fence" v="yes"/><tag k="tennis:backwall" v="no"/><tag k="tennis:clubhouse" v="yes"/><tag k="lit" v="yes"/><tag k="operator" v="Private Club"/><tag k="access" v="private"/></node><node lat="45.474668" lon="-75.525954"  id="-51"  changeset="false" ><tag k="name" v="Orléans Tennis Club"/><tag k="leisure" v="pitch"/><tag k="sport" v="tennis"/><tag k="outdoor" v="yes"/><tag k="seasonal" v="yes"/><tag k="name:fr" v="Club de tennis d'Orléans"/><tag k="addr:street" v="Joseph Drouin Avenue"/><tag k="addr:housenumber" v="1257"/><tag k="description" v="Membership Clubs"/><tag k="courts" v="4"/><tag k="surface" v="acrylic"/><tag k="wheelchair" v="no"/><tag k="source" v="City of Ottawa"/><tag k="source:date" v="2018-01-02"/><tag k="ref" v="27008"/><tag k="tennis:benches" v="yes"/><tag k="tennis:fence" v="yes"/><tag k="tennis:backwall" v="no"/><tag k="tennis:clubhouse" v="yes"/><tag k="lit" v="yes"/><tag k="access" v="customers"/><tag k="ref:park" v="1053"/></node><node lat="45.360034" lon="-75.647048"  id="-52"  changeset="false" ><tag k="name" v="Public Tennis Courts"/><tag k="leisure" v="pitch"/><tag k="sport" v="tennis"/><tag k="outdoor" v="yes"/><tag k="seasonal" v="yes"/><tag k="name:fr" v="Courts de tennis publics"/><tag k="addr:street" v="Pebble Road"/><tag k="addr:housenumber" v="1270"/><tag k="description" v="Public Courts"/><tag k="courts" v="3"/><tag k="surface" v="acrylic"/><tag k="wheelchair" v="no"/><tag k="source" v="City of Ottawa"/><tag k="source:date" v="2018-01-02"/><tag k="ref" v="3776"/><tag k="tennis:benches" v="no"/><tag k="tennis:fence" v="yes"/><tag k="tennis:backwall" v="no"/><tag k="tennis:clubhouse" v="no"/><tag k="lit" v="no"/><tag k="operator" v="City of Ottawa"/><tag k="access" v="permissive"/><tag k="ref:park" v="808"/></node><node lat="45.372403" lon="-75.672584"  id="-53"  changeset="false" ><tag k="name" v="Public Tennis Courts"/><tag k="leisure" v="pitch"/><tag k="sport" v="tennis"/><tag k="outdoor" v="yes"/><tag k="seasonal" v="yes"/><tag k="name:fr" v="Courts de tennis publics"/><tag k="addr:street" v="Kaladar Avenue"/><tag k="addr:housenumber" v="2554"/><tag k="description" v="Public Courts"/><tag k="courts" v="2"/><tag k="surface" v="acrylic"/><tag k="wheelchair" v="no"/><tag k="source" v="City of Ottawa"/><tag k="source:date" v="2018-01-02"/><tag k="ref" v="3751"/><tag k="tennis:benches" v="yes"/><tag k="tennis:fence" v="yes"/><tag k="tennis:backwall" v="no"/><tag k="tennis:clubhouse" v="no"/><tag k="lit" v="no"/><tag k="operator" v="City of Ottawa"/><tag k="access" v="permissive"/><tag k="ref:park" v="543"/></node><node lat="45.350531" lon="-75.795855"  id="-54"  changeset="false" ><tag k="name" v="Public Tennis Courts"/><tag k="leisure" v="pitch"/><tag k="sport" v="tennis"/><tag k="outdoor" v="yes"/><tag k="seasonal" v="yes"/><tag k="name:fr" v="Courts de tennis publics"/><tag k="addr:street" v="Grenon Avenue"/><tag k="addr:housenumber" v="1099"/><tag k="description" v="Public Courts"/><tag k="courts" v="1"/><tag k="surface" v="asphalt"/><tag k="wheelchair" v="no"/><tag k="source" v="City of Ottawa"/><tag k="source:date" v="2018-01-02"/><tag k="ref" v="3744"/><tag k="tennis:benches" v="no"/><tag k="tennis:fence" v="yes"/><tag k="tennis:backwall" v="no"/><tag k="tennis:clubhouse" v="no"/><tag k="lit" v="no"/><tag k="operator" v="City of Ottawa"/><tag k="access" v="permissive"/><tag k="ref:park" v="459"/></node><node lat="45.36763" lon="-75.792714"  id="-55"  changeset="false" ><tag k="name" v="Public Tennis Courts"/><tag k="leisure" v="pitch"/><tag k="sport" v="tennis"/><tag k="outdoor" v="yes"/><tag k="seasonal" v="yes"/><tag k="name:fr" v="Courts de tennis publics"/><tag k="addr:street" v="Britannia Road"/><tag k="addr:housenumber" v="265"/><tag k="description" v="Public Courts"/><tag k="courts" v="2"/><tag k="surface" v="asphalt"/><tag k="wheelchair" v="no"/><tag k="source" v="City of Ottawa"/><tag k="source:date" v="2018-01-02"/><tag k="ref" v="3756"/><tag k="tennis:benches" v="yes"/><tag k="tennis:fence" v="yes"/><tag k="tennis:backwall" v="no"/><tag k="tennis:clubhouse" v="no"/><tag k="lit" v="no"/><tag k="operator" v="City of Ottawa"/><tag k="access" v="permissive"/><tag k="ref:park" v="141"/></node><node lat="45.419605" lon="-75.424699"  id="-56"  changeset="false" ><tag k="name" v="Public Tennis Courts"/><tag k="leisure" v="pitch"/><tag k="sport" v="tennis"/><tag k="outdoor" v="yes"/><tag k="seasonal" v="yes"/><tag k="name:fr" v="Courts de tennis publics"/><tag k="addr:street" v="Colonial Road"/><tag k="addr:housenumber" v="1279"/><tag k="description" v="Public Courts"/><tag k="courts" v="2"/><tag k="surface" v="acrylic"/><tag k="wheelchair" v="no"/><tag k="source" v="City of Ottawa"/><tag k="source:date" v="2018-01-02"/><tag k="ref" v="27000"/><tag k="tennis:benches" v="yes"/><tag k="tennis:fence" v="yes"/><tag k="tennis:backwall" v="no"/><tag k="tennis:clubhouse" v="no"/><tag k="lit" v="no"/><tag k="operator" v="City of Ottawa"/><tag k="access" v="permissive"/><tag k="ref:park" v="267"/></node><node lat="45.399503" lon="-75.641668"  id="-57"  changeset="false" ><tag k="name" v="Tennis Courts - Hillcrest High School"/><tag k="leisure" v="pitch"/><tag k="sport" v="tennis"/><tag k="outdoor" v="yes"/><tag k="seasonal" v="yes"/><tag k="name:fr" v="Courts de tennis - Hillcrest High School"/><tag k="addr:street" v="Dauphin Road"/><tag k="addr:housenumber" v="1900"/><tag k="description" v="School Board Sites"/><tag k="courts" v="4"/><tag k="surface" v="acrylic"/><tag k="wheelchair" v="no"/><tag k="source" v="City of Ottawa"/><tag k="source:date" v="2018-01-02"/><tag k="ref" v="36402"/><tag k="tennis:benches" v="no"/><tag k="tennis:fence" v="yes"/><tag k="tennis:backwall" v="yes"/><tag k="tennis:clubhouse" v="no"/><tag k="lit" v="yes"/><tag k="operator" v="School Board"/><tag k="access" v="customers"/></node><node lat="45.328194" lon="-75.922209"  id="-58"  changeset="false" ><tag k="name" v="Public Tennis Courts"/><tag k="leisure" v="pitch"/><tag k="sport" v="tennis"/><tag k="outdoor" v="yes"/><tag k="seasonal" v="yes"/><tag k="name:fr" v="Courts de tennis publics"/><tag k="addr:street" v="Walden Drive"/><tag k="addr:housenumber" v="130"/><tag k="description" v="Public Courts"/><tag k="courts" v="1"/><tag k="surface" v="asphalt"/><tag k="wheelchair" v="no"/><tag k="source" v="City of Ottawa"/><tag k="source:date" v="2018-01-02"/><tag k="ref" v="36403"/><tag k="tennis:benches" v="yes"/><tag k="tennis:fence" v="yes"/><tag k="tennis:backwall" v="no"/><tag k="tennis:clubhouse" v="yes"/><tag k="lit" v="yes"/><tag k="operator" v="City of Ottawa"/><tag k="access" v="permissive"/><tag k="ref:park" v="1801"/></node><node lat="45.388545" lon="-75.686094"  id="-59"  changeset="false" ><tag k="name" v="Ottawa Tennis and Lawn Bowling Club"/><tag k="leisure" v="pitch"/><tag k="sport" v="tennis"/><tag k="outdoor" v="yes"/><tag k="seasonal" v="yes"/><tag k="name:fr" v="Club de tennis et de boulingrin d'Ottawa"/><tag k="addr:street" v="Cameron Avenue"/><tag k="addr:housenumber" v="176"/><tag k="description" v="Private Clubs"/><tag k="courts" v="18"/><tag k="surface" v="clay"/><tag k="wheelchair" v="no"/><tag k="source" v="City of Ottawa"/><tag k="source:date" v="2018-01-02"/><tag k="ref" v="36405"/><tag k="tennis:benches" v="yes"/><tag k="tennis:fence" v="yes"/><tag k="tennis:backwall" v="yes"/><tag k="tennis:clubhouse" v="yes"/><tag k="lit" v="yes"/><tag k="operator" v="Private Club"/><tag k="access" v="private"/></node><node lat="45.338942" lon="-75.808519"  id="-60"  changeset="false" ><tag k="name" v="Valleystream Tennis Club"/><tag k="leisure" v="pitch"/><tag k="sport" v="tennis"/><tag k="outdoor" v="yes"/><tag k="seasonal" v="yes"/><tag k="name:fr" v="Club de tennis Valleystream"/><tag k="addr:street" v="Richmond Road"/><tag k="addr:housenumber" v="3412"/><tag k="description" v="Membership Clubs"/><tag k="courts" v="4"/><tag k="surface" v="acrylic"/><tag k="wheelchair" v="no"/><tag k="source" v="City of Ottawa"/><tag k="source:date" v="2018-01-02"/><tag k="ref" v="7107"/><tag k="tennis:benches" v="yes"/><tag k="tennis:fence" v="yes"/><tag k="tennis:backwall" v="yes"/><tag k="tennis:clubhouse" v="yes"/><tag k="lit" v="yes"/><tag k="access" v="customers"/><tag k="ref:park" v="1620"/></node><node lat="45.294999" lon="-75.884314"  id="-61"  changeset="false" ><tag k="name" v="Glen Cairn Tennis Club"/><tag k="leisure" v="pitch"/><tag k="sport" v="tennis"/><tag k="outdoor" v="yes"/><tag k="seasonal" v="yes"/><tag k="name:fr" v="Club de tennis de Glen Cairn"/><tag k="addr:street" v="Castlefrank Road"/><tag k="addr:housenumber" v="70"/><tag k="description" v="Membership Clubs"/><tag k="courts" v="4"/><tag k="surface" v="acrylic"/><tag k="wheelchair" v="no"/><tag k="source" v="City of Ottawa"/><tag k="source:date" v="2018-01-02"/><tag k="ref" v="27014"/><tag k="tennis:benches" v="yes"/><tag k="tennis:fence" v="yes"/><tag k="tennis:backwall" v="yes"/><tag k="tennis:clubhouse" v="yes"/><tag k="lit" v="yes"/><tag k="access" v="customers"/><tag k="ref:park" v="776"/></node><node lat="45.369813" lon="-75.712814"  id="-62"  changeset="false" ><tag k="name" v="Public Tennis Courts"/><tag k="leisure" v="pitch"/><tag k="sport" v="tennis"/><tag k="outdoor" v="yes"/><tag k="seasonal" v="yes"/><tag k="name:fr" v="Courts de tennis publics"/><tag k="addr:street" v="Lexington Street"/><tag k="addr:housenumber" v="1404"/><tag k="description" v="Public Courts"/><tag k="courts" v="2"/><tag k="surface" v="acrylic"/><tag k="wheelchair" v="no"/><tag k="source" v="City of Ottawa"/><tag k="source:date" v="2018-01-02"/><tag k="ref" v="3755"/><tag k="tennis:benches" v="yes"/><tag k="tennis:fence" v="yes"/><tag k="tennis:backwall" v="no"/><tag k="tennis:clubhouse" v="no"/><tag k="lit" v="no"/><tag k="operator" v="City of Ottawa"/><tag k="access" v="permissive"/><tag k="ref:park" v="613"/></node><node lat="45.336487" lon="-75.60667"  id="-63"  changeset="false" ><tag k="name" v="Public Tennis Courts"/><tag k="leisure" v="pitch"/><tag k="sport" v="tennis"/><tag k="outdoor" v="yes"/><tag k="seasonal" v="yes"/><tag k="name:fr" v="Courts de tennis publics"/><tag k="addr:street" v="Robert Kemp Street"/><tag k="addr:housenumber" v="11"/><tag k="description" v="Public Courts"/><tag k="courts" v="1"/><tag k="surface" v="acrylic"/><tag k="wheelchair" v="no"/><tag k="source" v="City of Ottawa"/><tag k="source:date" v="2018-01-02"/><tag k="ref" v="27043"/><tag k="tennis:benches" v="yes"/><tag k="tennis:fence" v="yes"/><tag k="tennis:backwall" v="yes"/><tag k="tennis:clubhouse" v="no"/><tag k="lit" v="no"/><tag k="operator" v="City of Ottawa"/><tag k="access" v="permissive"/><tag k="ref:park" v="484"/></node><node lat="45.340782" lon="-75.635007"  id="-64"  changeset="false" ><tag k="name" v="Public Tennis Courts"/><tag k="leisure" v="pitch"/><tag k="sport" v="tennis"/><tag k="outdoor" v="yes"/><tag k="seasonal" v="yes"/><tag k="name:fr" v="Courts de tennis publics"/><tag k="addr:street" v="Albion Road"/><tag k="addr:housenumber" v="3939"/><tag k="description" v="Public Courts"/><tag k="courts" v="2"/><tag k="surface" v="acrylic"/><tag k="wheelchair" v="no"/><tag k="source" v="City of Ottawa"/><tag k="source:date" v="2018-01-02"/><tag k="ref" v="27045"/><tag k="tennis:benches" v="yes"/><tag k="tennis:fence" v="yes"/><tag k="tennis:backwall" v="no"/><tag k="tennis:clubhouse" v="no"/><tag k="lit" v="yes"/><tag k="operator" v="City of Ottawa"/><tag k="access" v="permissive"/><tag k="ref:park" v="10"/></node><node lat="45.346979" lon="-75.644934"  id="-65"  changeset="false" ><tag k="name" v="Public Tennis Courts"/><tag k="leisure" v="pitch"/><tag k="sport" v="tennis"/><tag k="outdoor" v="yes"/><tag k="seasonal" v="yes"/><tag k="name:fr" v="Courts de tennis publics"/><tag k="addr:street" v="Trapper's Road"/><tag k="addr:housenumber" v="3580"/><tag k="description" v="Public Courts"/><tag k="courts" v="1"/><tag k="surface" v="asphalt"/><tag k="wheelchair" v="no"/><tag k="source" v="City of Ottawa"/><tag k="source:date" v="2018-01-02"/><tag k="ref" v="27046"/><tag k="tennis:benches" v="yes"/><tag k="tennis:fence" v="yes"/><tag k="tennis:backwall" v="no"/><tag k="tennis:clubhouse" v="no"/><tag k="lit" v="no"/><tag k="operator" v="City of Ottawa"/><tag k="access" v="permissive"/><tag k="ref:park" v="1111"/></node><node lat="45.408262" lon="-75.659472"  id="-66"  changeset="false" ><tag k="name" v="Public Tennis Courts"/><tag k="leisure" v="pitch"/><tag k="sport" v="tennis"/><tag k="outdoor" v="yes"/><tag k="seasonal" v="yes"/><tag k="name:fr" v="Courts de tennis publics"/><tag k="addr:street" v="Alta Vista Drive"/><tag k="addr:housenumber" v="1590"/><tag k="description" v="Public Courts"/><tag k="courts" v="2"/><tag k="surface" v="acrylic"/><tag k="wheelchair" v="no"/><tag k="source" v="City of Ottawa"/><tag k="source:date" v="2018-01-02"/><tag k="ref" v="27050"/><tag k="tennis:benches" v="yes"/><tag k="tennis:fence" v="yes"/><tag k="tennis:backwall" v="no"/><tag k="tennis:clubhouse" v="no"/><tag k="lit" v="no"/><tag k="operator" v="City of Ottawa"/><tag k="access" v="permissive"/><tag k="ref:park" v="23"/></node><node lat="45.36647" lon="-75.69026"  id="-67"  changeset="false" ><tag k="name" v="Public Tennis Courts"/><tag k="leisure" v="pitch"/><tag k="sport" v="tennis"/><tag k="outdoor" v="yes"/><tag k="seasonal" v="yes"/><tag k="name:fr" v="Courts de tennis publics"/><tag k="addr:street" v="Riverside Drive"/><tag k="addr:housenumber" v="2960"/><tag k="description" v="Public Courts"/><tag k="courts" v="2"/><tag k="surface" v="acrylic"/><tag k="wheelchair" v="no"/><tag k="source" v="City of Ottawa"/><tag k="source:date" v="2018-01-02"/><tag k="ref" v="3767"/><tag k="tennis:benches" v="yes"/><tag k="tennis:fence" v="yes"/><tag k="tennis:backwall" v="no"/><tag k="tennis:clubhouse" v="no"/><tag k="lit" v="yes"/><tag k="operator" v="City of Ottawa"/><tag k="access" v="permissive"/><tag k="ref:park" v="940"/></node><node lat="45.336834" lon="-75.729555"  id="-68"  changeset="false" ><tag k="name" v="Public Tennis Courts"/><tag k="leisure" v="pitch"/><tag k="sport" v="tennis"/><tag k="outdoor" v="yes"/><tag k="seasonal" v="yes"/><tag k="name:fr" v="Courts de tennis publics"/><tag k="addr:street" v="Woodfield Drive"/><tag k="addr:housenumber" v="30"/><tag k="description" v="Public Courts"/><tag k="courts" v="2"/><tag k="surface" v="acrylic"/><tag k="wheelchair" v="no"/><tag k="source" v="City of Ottawa"/><tag k="source:date" v="2018-01-02"/><tag k="ref" v="7103"/><tag k="tennis:benches" v="no"/><tag k="tennis:fence" v="yes"/><tag k="tennis:backwall" v="no"/><tag k="tennis:clubhouse" v="no"/><tag k="lit" v="yes"/><tag k="operator" v="City of Ottawa"/><tag k="access" v="permissive"/><tag k="ref:park" v="1190"/></node><node lat="45.402018" lon="-75.691843"  id="-69"  changeset="false" ><tag k="name" v="St. James Tennis Club"/><tag k="leisure" v="pitch"/><tag k="sport" v="tennis"/><tag k="outdoor" v="yes"/><tag k="seasonal" v="yes"/><tag k="name:fr" v="Club de tennis St-James"/><tag k="addr:street" v="Lyon Street South"/><tag k="addr:housenumber" v="690"/><tag k="description" v="Membership Clubs"/><tag k="courts" v="4"/><tag k="surface" v="acrylic"/><tag k="wheelchair" v="no"/><tag k="source" v="City of Ottawa"/><tag k="source:date" v="2018-01-02"/><tag k="ref" v="3204"/><tag k="tennis:benches" v="no"/><tag k="tennis:fence" v="no"/><tag k="tennis:backwall" v="no"/><tag k="tennis:clubhouse" v="yes"/><tag k="lit" v="yes"/><tag k="access" v="customers"/><tag k="ref:park" v="638"/></node><node lat="45.359514" lon="-75.701766"  id="-70"  changeset="false" ><tag k="name" v="Public Tennis Courts"/><tag k="leisure" v="pitch"/><tag k="sport" v="tennis"/><tag k="outdoor" v="yes"/><tag k="seasonal" v="yes"/><tag k="name:fr" v="Courts de tennis publics"/><tag k="addr:street" v="Apeldoorn Avenue"/><tag k="addr:housenumber" v="1665"/><tag k="description" v="Public Courts"/><tag k="courts" v="2"/><tag k="surface" v="asphalt"/><tag k="wheelchair" v="no"/><tag k="source" v="City of Ottawa"/><tag k="source:date" v="2018-01-02"/><tag k="ref" v="3722"/><tag k="tennis:benches" v="no"/><tag k="tennis:fence" v="no"/><tag k="tennis:backwall" v="no"/><tag k="tennis:clubhouse" v="no"/><tag k="lit" v="no"/><tag k="operator" v="City of Ottawa"/><tag k="access" v="permissive"/><tag k="ref:park" v="31"/></node><node lat="45.367676" lon="-75.734427"  id="-71"  changeset="false" ><tag k="name" v="Public Tennis Courts"/><tag k="leisure" v="pitch"/><tag k="sport" v="tennis"/><tag k="outdoor" v="yes"/><tag k="seasonal" v="yes"/><tag k="name:fr" v="Courts de tennis publics"/><tag k="addr:street" v="Central Park Drive"/><tag k="addr:housenumber" v="200"/><tag k="description" v="Public Courts"/><tag k="courts" v="2"/><tag k="surface" v="acrylic"/><tag k="wheelchair" v="no"/><tag k="source" v="City of Ottawa"/><tag k="source:date" v="2018-01-02"/><tag k="ref" v="27001"/><tag k="tennis:benches" v="yes"/><tag k="tennis:fence" v="yes"/><tag k="tennis:backwall" v="no"/><tag k="tennis:clubhouse" v="no"/><tag k="lit" v="no"/><tag k="operator" v="City of Ottawa"/><tag k="access" v="permissive"/><tag k="ref:park" v="1588"/></node><node lat="45.444221" lon="-75.675712"  id="-72"  changeset="false" ><tag k="name" v="Lindenlea Tennis Club"/><tag k="leisure" v="pitch"/><tag k="sport" v="tennis"/><tag k="outdoor" v="yes"/><tag k="seasonal" v="yes"/><tag k="name:fr" v="Club de tennis de Lindenlea"/><tag k="addr:street" v="Rockcliffe Way"/><tag k="addr:housenumber" v="15"/><tag k="description" v="Membership Clubs"/><tag k="courts" v="3"/><tag k="surface" v="acrylic"/><tag k="wheelchair" v="no"/><tag k="source" v="City of Ottawa"/><tag k="source:date" v="2018-01-02"/><tag k="ref" v="3758"/><tag k="tennis:benches" v="yes"/><tag k="tennis:fence" v="yes"/><tag k="tennis:backwall" v="no"/><tag k="tennis:clubhouse" v="no"/><tag k="lit" v="no"/><tag k="access" v="customers"/><tag k="ref:park" v="942"/></node><node lat="45.435546" lon="-75.641175"  id="-73"  changeset="false" ><tag k="name" v="Tennis Courts - Rideau High School"/><tag k="leisure" v="pitch"/><tag k="sport" v="tennis"/><tag k="outdoor" v="yes"/><tag k="seasonal" v="yes"/><tag k="name:fr" v="Courts de tennis - Rideau High School"/><tag k="addr:street" v="Street Laurent Boulevard"/><tag k="addr:housenumber" v="815"/><tag k="description" v="School Board Sites"/><tag k="courts" v="4"/><tag k="surface" v="asphalt"/><tag k="wheelchair" v="no"/><tag k="source" v="City of Ottawa"/><tag k="source:date" v="2018-01-02"/><tag k="ref" v="36407"/><tag k="tennis:benches" v="no"/><tag k="tennis:fence" v="yes"/><tag k="tennis:backwall" v="no"/><tag k="tennis:clubhouse" v="no"/><tag k="lit" v="no"/><tag k="operator" v="School Board"/><tag k="access" v="customers"/></node><node lat="45.384408" lon="-75.665292"  id="-74"  changeset="false" ><tag k="name" v="Public Tennis Courts"/><tag k="leisure" v="pitch"/><tag k="sport" v="tennis"/><tag k="outdoor" v="yes"/><tag k="seasonal" v="yes"/><tag k="name:fr" v="Courts de tennis publics"/><tag k="addr:street" v="Randal Avenue"/><tag k="addr:housenumber" v="1349"/><tag k="description" v="Public Courts"/><tag k="courts" v="2"/><tag k="surface" v="acrylic"/><tag k="wheelchair" v="no"/><tag k="source" v="City of Ottawa"/><tag k="source:date" v="2018-01-02"/><tag k="ref" v="36408"/><tag k="tennis:benches" v="no"/><tag k="tennis:fence" v="yes"/><tag k="tennis:backwall" v="no"/><tag k="tennis:clubhouse" v="no"/><tag k="lit" v="no"/><tag k="operator" v="City of Ottawa"/><tag k="access" v="permissive"/></node><node lat="45.265768" lon="-75.715047"  id="-75"  changeset="false" ><tag k="name" v="Ryerson Tennis Club"/><tag k="leisure" v="pitch"/><tag k="sport" v="tennis"/><tag k="outdoor" v="yes"/><tag k="seasonal" v="yes"/><tag k="name:fr" v="Club de tennis Ryerson"/><tag k="addr:street" v="Ryerson Avenue"/><tag k="addr:housenumber" v="5"/><tag k="description" v="Membership Clubs"/><tag k="courts" v="2"/><tag k="surface" v="acrylic"/><tag k="wheelchair" v="no"/><tag k="source" v="City of Ottawa"/><tag k="source:date" v="2018-01-02"/><tag k="ref" v="27044"/><tag k="tennis:benches" v="yes"/><tag k="tennis:fence" v="yes"/><tag k="tennis:backwall" v="no"/><tag k="tennis:clubhouse" v="no"/><tag k="lit" v="yes"/><tag k="access" v="customers"/><tag k="ref:park" v="963"/></node><node lat="45.461525" lon="-75.457135"  id="-76"  changeset="false" ><tag k="name" v="Public Tennis Courts"/><tag k="leisure" v="pitch"/><tag k="sport" v="tennis"/><tag k="outdoor" v="yes"/><tag k="seasonal" v="yes"/><tag k="name:fr" v="Courts de tennis publics"/><tag k="addr:street" v="Provence Avenue"/><tag k="addr:housenumber" v="2095"/><tag k="description" v="Public Courts"/><tag k="courts" v="2"/><tag k="surface" v="acrylic"/><tag k="wheelchair" v="no"/><tag k="source" v="City of Ottawa"/><tag k="source:date" v="2018-01-02"/><tag k="ref" v="36409"/><tag k="tennis:benches" v="yes"/><tag k="tennis:fence" v="yes"/><tag k="tennis:backwall" v="no"/><tag k="tennis:clubhouse" v="no"/><tag k="lit" v="no"/><tag k="operator" v="City of Ottawa"/><tag k="access" v="permissive"/><tag k="ref:park" v="1960"/></node><node lat="45.377029" lon="-75.658868"  id="-77"  changeset="false" ><tag k="name" v="Tennis Courts - Ridgemont High School"/><tag k="leisure" v="pitch"/><tag k="sport" v="tennis"/><tag k="outdoor" v="yes"/><tag k="seasonal" v="yes"/><tag k="name:fr" v="Courts de tennis - Ridgemont High School"/><tag k="addr:street" v="Alta VIsta Drive"/><tag k="addr:housenumber" v="2597"/><tag k="description" v="School Board Sites"/><tag k="courts" v="4"/><tag k="surface" v="acrylic"/><tag k="wheelchair" v="no"/><tag k="source" v="City of Ottawa"/><tag k="source:date" v="2018-01-02"/><tag k="ref" v="36410"/><tag k="tennis:benches" v="no"/><tag k="tennis:fence" v="yes"/><tag k="tennis:backwall" v="no"/><tag k="tennis:clubhouse" v="no"/><tag k="lit" v="no"/><tag k="operator" v="School Board"/><tag k="access" v="customers"/></node><node lat="45.356718" lon="-75.78642"  id="-78"  changeset="false" ><tag k="name" v="Public Tennis Courts"/><tag k="leisure" v="pitch"/><tag k="sport" v="tennis"/><tag k="outdoor" v="yes"/><tag k="seasonal" v="yes"/><tag k="name:fr" v="Courts de tennis publics"/><tag k="addr:street" v="Alpine Avenue"/><tag k="addr:housenumber" v="950"/><tag k="description" v="Public Courts"/><tag k="courts" v="2"/><tag k="surface" v="asphalt"/><tag k="wheelchair" v="no"/><tag k="source" v="City of Ottawa"/><tag k="source:date" v="2018-01-02"/><tag k="ref" v="3737"/><tag k="tennis:benches" v="yes"/><tag k="tennis:fence" v="yes"/><tag k="tennis:backwall" v="yes"/><tag k="tennis:clubhouse" v="no"/><tag k="lit" v="no"/><tag k="operator" v="City of Ottawa"/><tag k="access" v="permissive"/><tag k="ref:park" v="22"/></node><node lat="45.407175" lon="-75.672593"  id="-79"  changeset="false" ><tag k="name" v="Public Tennis Courts"/><tag k="leisure" v="pitch"/><tag k="sport" v="tennis"/><tag k="outdoor" v="yes"/><tag k="seasonal" v="yes"/><tag k="name:fr" v="Courts de tennis publics"/><tag k="addr:street" v="Onslow Crescent"/><tag k="addr:housenumber" v="39"/><tag k="description" v="Public Courts"/><tag k="courts" v="2"/><tag k="surface" v="acrylic"/><tag k="wheelchair" v="no"/><tag k="source" v="City of Ottawa"/><tag k="source:date" v="2018-01-02"/><tag k="ref" v="3710"/><tag k="tennis:benches" v="yes"/><tag k="tennis:fence" v="yes"/><tag k="tennis:backwall" v="yes"/><tag k="tennis:clubhouse" v="no"/><tag k="lit" v="no"/><tag k="operator" v="City of Ottawa"/><tag k="access" v="permissive"/><tag k="ref:park" v="249"/></node><node lat="45.433792" lon="-75.695922"  id="-80"  changeset="false" ><tag k="name" v="Public Tennis Courts"/><tag k="leisure" v="pitch"/><tag k="sport" v="tennis"/><tag k="outdoor" v="yes"/><tag k="seasonal" v="yes"/><tag k="name:fr" v="Courts de tennis publics"/><tag k="addr:street" v="Cathcart Street"/><tag k="addr:housenumber" v="145"/><tag k="description" v="Public Courts"/><tag k="courts" v="1"/><tag k="surface" v="acrylic"/><tag k="wheelchair" v="no"/><tag k="source" v="City of Ottawa"/><tag k="source:date" v="2018-01-02"/><tag k="ref" v="3707"/><tag k="tennis:benches" v="no"/><tag k="tennis:fence" v="yes"/><tag k="tennis:backwall" v="no"/><tag k="tennis:clubhouse" v="no"/><tag k="lit" v="no"/><tag k="operator" v="City of Ottawa"/><tag k="access" v="permissive"/><tag k="ref:park" v="208"/></node><node lat="45.38403" lon="-75.753436"  id="-81"  changeset="false" ><tag k="name" v="Public Tennis Courts"/><tag k="leisure" v="pitch"/><tag k="sport" v="tennis"/><tag k="outdoor" v="yes"/><tag k="seasonal" v="yes"/><tag k="name:fr" v="Courts de tennis publics"/><tag k="addr:street" v="Dovercourt Avenue"/><tag k="addr:housenumber" v="411"/><tag k="description" v="Public Courts"/><tag k="courts" v="1"/><tag k="surface" v="asphalt"/><tag k="wheelchair" v="no"/><tag k="source" v="City of Ottawa"/><tag k="source:date" v="2018-01-02"/><tag k="ref" v="3792"/><tag k="tennis:benches" v="no"/><tag k="tennis:fence" v="yes"/><tag k="tennis:backwall" v="no"/><tag k="tennis:clubhouse" v="no"/><tag k="lit" v="no"/><tag k="operator" v="City of Ottawa"/><tag k="access" v="permissive"/><tag k="ref:park" v="338"/></node><node lat="45.221005" lon="-75.686922"  id="-82"  changeset="false" ><tag k="name" v="Manotick Tennis Club"/><tag k="leisure" v="pitch"/><tag k="sport" v="tennis"/><tag k="outdoor" v="yes"/><tag k="seasonal" v="yes"/><tag k="name:fr" v="Club de tennis de Manotick"/><tag k="addr:street" v="Doctor Leach Drive"/><tag k="addr:housenumber" v="5572"/><tag k="description" v="Membership Clubs"/><tag k="courts" v="6"/><tag k="surface" v="acrylic"/><tag k="wheelchair" v="no"/><tag k="source" v="City of Ottawa"/><tag k="source:date" v="2018-01-02"/><tag k="ref" v="27016"/><tag k="tennis:benches" v="yes"/><tag k="tennis:fence" v="yes"/><tag k="tennis:backwall" v="no"/><tag k="tennis:clubhouse" v="yes"/><tag k="lit" v="yes"/><tag k="access" v="customers"/><tag k="ref:park" v="330"/></node><node lat="45.320556" lon="-75.896094"  id="-83"  changeset="false" ><tag k="name" v="March Tennis Club"/><tag k="leisure" v="pitch"/><tag k="sport" v="tennis"/><tag k="outdoor" v="yes"/><tag k="seasonal" v="yes"/><tag k="name:fr" v="Club de tennis de March"/><tag k="addr:street" v="Campeau Drive"/><tag k="addr:housenumber" v="2500"/><tag k="description" v="Membership Clubs"/><tag k="courts" v="8"/><tag k="surface" v="acrylic"/><tag k="wheelchair" v="no"/><tag k="source" v="City of Ottawa"/><tag k="source:date" v="2018-01-02"/><tag k="ref" v="27033"/><tag k="tennis:benches" v="no"/><tag k="tennis:fence" v="yes"/><tag k="tennis:backwall" v="no"/><tag k="tennis:clubhouse" v="yes"/><tag k="lit" v="yes"/><tag k="access" v="customers"/><tag k="ref:park" v="164"/></node><node lat="45.440033" lon="-75.533033"  id="-84"  changeset="false" ><tag k="name" v="Public Tennis Courts"/><tag k="leisure" v="pitch"/><tag k="sport" v="tennis"/><tag k="outdoor" v="yes"/><tag k="seasonal" v="yes"/><tag k="name:fr" v="Courts de tennis publics"/><tag k="addr:street" v="Gladewoods Place"/><tag k="addr:housenumber" v="5831"/><tag k="description" v="Public Courts"/><tag k="courts" v="2"/><tag k="surface" v="acrylic"/><tag k="wheelchair" v="no"/><tag k="source" v="City of Ottawa"/><tag k="source:date" v="2018-01-02"/><tag k="ref" v="27006"/><tag k="tennis:benches" v="yes"/><tag k="tennis:fence" v="yes"/><tag k="tennis:backwall" v="yes"/><tag k="tennis:clubhouse" v="no"/><tag k="lit" v="yes"/><tag k="operator" v="City of Ottawa"/><tag k="access" v="permissive"/><tag k="ref:park" v="1323"/></node><node lat="45.471295" lon="-75.507657"  id="-85"  changeset="false" ><tag k="name" v="Queenswood/Fallingbrook Tennis Club"/><tag k="leisure" v="pitch"/><tag k="sport" v="tennis"/><tag k="outdoor" v="yes"/><tag k="seasonal" v="yes"/><tag k="name:fr" v="Club de tennis de Queenswood/Fallingbrook"/><tag k="addr:street" v="Duford Drive"/><tag k="addr:housenumber" v="1485"/><tag k="description" v="Membership Clubs"/><tag k="courts" v="3"/><tag k="surface" v="clay"/><tag k="wheelchair" v="no"/><tag k="source" v="City of Ottawa"/><tag k="source:date" v="2018-01-02"/><tag k="ref" v="27007"/><tag k="tennis:benches" v="yes"/><tag k="tennis:fence" v="yes"/><tag k="tennis:backwall" v="no"/><tag k="tennis:clubhouse" v="no"/><tag k="lit" v="yes"/><tag k="access" v="customers"/><tag k="ref:park" v="343"/></node><node lat="45.437865" lon="-75.686613"  id="-86"  changeset="false" ><tag k="name" v="Public Tennis Courts"/><tag k="leisure" v="pitch"/><tag k="sport" v="tennis"/><tag k="outdoor" v="yes"/><tag k="seasonal" v="yes"/><tag k="name:fr" v="Courts de tennis publics"/><tag k="addr:street" v="Stanley Avenue"/><tag k="addr:housenumber" v="193"/><tag k="description" v="Public Courts"/><tag k="courts" v="2"/><tag k="surface" v="acrylic"/><tag k="wheelchair" v="no"/><tag k="source" v="City of Ottawa"/><tag k="source:date" v="2018-01-02"/><tag k="ref" v="27040"/><tag k="tennis:benches" v="yes"/><tag k="tennis:fence" v="yes"/><tag k="tennis:backwall" v="yes"/><tag k="tennis:clubhouse" v="no"/><tag k="lit" v="no"/><tag k="operator" v="City of Ottawa"/><tag k="access" v="permissive"/><tag k="ref:park" v="1056"/></node><node lat="45.449897" lon="-75.656904"  id="-87"  changeset="false" ><tag k="name" v="Public Tennis Courts"/><tag k="leisure" v="pitch"/><tag k="sport" v="tennis"/><tag k="outdoor" v="yes"/><tag k="seasonal" v="yes"/><tag k="name:fr" v="Courts de tennis publics"/><tag k="addr:street" v="Braemar Street"/><tag k="addr:housenumber" v="100"/><tag k="description" v="Public Courts"/><tag k="courts" v="2"/><tag k="surface" v="acrylic"/><tag k="wheelchair" v="no"/><tag k="source" v="City of Ottawa"/><tag k="source:date" v="2018-01-02"/><tag k="ref" v="3760"/><tag k="tennis:benches" v="yes"/><tag k="tennis:fence" v="yes"/><tag k="tennis:backwall" v="no"/><tag k="tennis:clubhouse" v="no"/><tag k="lit" v="no"/><tag k="operator" v="City of Ottawa"/><tag k="access" v="permissive"/><tag k="ref:park" v="132"/></node><node lat="45.405988" lon="-75.696571"  id="-88"  changeset="false" ><tag k="name" v="Public Tennis Courts"/><tag k="leisure" v="pitch"/><tag k="sport" v="tennis"/><tag k="outdoor" v="yes"/><tag k="seasonal" v="yes"/><tag k="name:fr" v="Courts de tennis publics"/><tag k="addr:street" v="Chamberlain Avenue"/><tag k="addr:housenumber" v="80"/><tag k="description" v="Public Courts"/><tag k="courts" v="2"/><tag k="surface" v="acrylic"/><tag k="wheelchair" v="no"/><tag k="source" v="City of Ottawa"/><tag k="source:date" v="2018-01-02"/><tag k="ref" v="3725"/><tag k="tennis:benches" v="no"/><tag k="tennis:fence" v="yes"/><tag k="tennis:backwall" v="no"/><tag k="tennis:clubhouse" v="no"/><tag k="lit" v="no"/><tag k="operator" v="City of Ottawa"/><tag k="access" v="permissive"/><tag k="ref:park" v="223"/></node><node lat="45.39453" lon="-75.675449"  id="-89"  changeset="false" ><tag k="name" v="Public Tennis Courts"/><tag k="leisure" v="pitch"/><tag k="sport" v="tennis"/><tag k="outdoor" v="yes"/><tag k="seasonal" v="yes"/><tag k="name:fr" v="Courts de tennis publics"/><tag k="addr:street" v="Windsor Avenue"/><tag k="addr:housenumber" v="1B"/><tag k="description" v="Public Courts"/><tag k="courts" v="4"/><tag k="surface" v="acrylic"/><tag k="wheelchair" v="no"/><tag k="source" v="City of Ottawa"/><tag k="source:date" v="2018-01-02"/><tag k="ref" v="3794"/><tag k="tennis:benches" v="no"/><tag k="tennis:fence" v="yes"/><tag k="tennis:backwall" v="no"/><tag k="tennis:clubhouse" v="no"/><tag k="lit" v="no"/><tag k="operator" v="City of Ottawa"/><tag k="access" v="permissive"/><tag k="ref:park" v="1186"/></node><node lat="45.415486" lon="-75.686113"  id="-90"  changeset="false" ><tag k="name" v="Leon Katz Public Tennis Courts"/><tag k="leisure" v="pitch"/><tag k="sport" v="tennis"/><tag k="outdoor" v="yes"/><tag k="seasonal" v="yes"/><tag k="name:fr" v="Courts de tennis publics de Leon-Katz"/><tag k="addr:street" v="Frank Street"/><tag k="addr:housenumber" v="166"/><tag k="description" v="Public Courts"/><tag k="courts" v="2"/><tag k="surface" v="acrylic"/><tag k="wheelchair" v="no"/><tag k="source" v="City of Ottawa"/><tag k="source:date" v="2018-01-02"/><tag k="ref" v="3787"/><tag k="tennis:benches" v="yes"/><tag k="tennis:fence" v="yes"/><tag k="tennis:backwall" v="no"/><tag k="tennis:clubhouse" v="no"/><tag k="lit" v="yes"/><tag k="operator" v="City of Ottawa"/><tag k="access" v="permissive"/><tag k="ref:park" v="415"/></node><node lat="45.39807" lon="-75.718878"  id="-91"  changeset="false" ><tag k="name" v="Public Tennis Courts"/><tag k="leisure" v="pitch"/><tag k="sport" v="tennis"/><tag k="outdoor" v="yes"/><tag k="seasonal" v="yes"/><tag k="name:fr" v="Courts de tennis publics"/><tag k="addr:street" v="Fairmont Avenue"/><tag k="addr:housenumber" v="265"/><tag k="description" v="Public Courts"/><tag k="courts" v="2"/><tag k="surface" v="acrylic"/><tag k="wheelchair" v="no"/><tag k="source" v="City of Ottawa"/><tag k="source:date" v="2018-01-02"/><tag k="ref" v="3735"/><tag k="tennis:benches" v="yes"/><tag k="tennis:fence" v="yes"/><tag k="tennis:backwall" v="no"/><tag k="tennis:clubhouse" v="no"/><tag k="lit" v="no"/><tag k="operator" v="City of Ottawa"/><tag k="access" v="permissive"/><tag k="ref:park" v="385"/></node><node lat="45.420988" lon="-75.675777"  id="-92"  changeset="false" ><tag k="name" v="Public Tennis Courts"/><tag k="leisure" v="pitch"/><tag k="sport" v="tennis"/><tag k="outdoor" v="yes"/><tag k="seasonal" v="yes"/><tag k="name:fr" v="Courts de tennis publics"/><tag k="addr:street" v="Templeton Street"/><tag k="addr:housenumber" v="86"/><tag k="description" v="Public Courts"/><tag k="courts" v="3"/><tag k="surface" v="acrylic"/><tag k="wheelchair" v="no"/><tag k="source" v="City of Ottawa"/><tag k="source:date" v="2018-01-02"/><tag k="ref" v="3788"/><tag k="tennis:benches" v="no"/><tag k="tennis:fence" v="yes"/><tag k="tennis:backwall" v="no"/><tag k="tennis:clubhouse" v="no"/><tag k="lit" v="yes"/><tag k="operator" v="City of Ottawa"/><tag k="access" v="permissive"/><tag k="ref:park" v="1094"/></node><node lat="45.27569" lon="-75.690067"  id="-93"  changeset="false" ><tag k="name" v="Public Tennis Courts"/><tag k="leisure" v="pitch"/><tag k="sport" v="tennis"/><tag k="outdoor" v="yes"/><tag k="seasonal" v="yes"/><tag k="name:fr" v="Courts de tennis publics"/><tag k="addr:street" v="Spratt Road"/><tag k="addr:housenumber" v="4386"/><tag k="description" v="Public Courts"/><tag k="courts" v="2"/><tag k="surface" v="acrylic"/><tag k="wheelchair" v="no"/><tag k="source" v="City of Ottawa"/><tag k="source:date" v="2018-01-02"/><tag k="ref" v="27019"/><tag k="tennis:benches" v="yes"/><tag k="tennis:fence" v="yes"/><tag k="tennis:backwall" v="no"/><tag k="tennis:clubhouse" v="no"/><tag k="lit" v="no"/><tag k="operator" v="City of Ottawa"/><tag k="access" v="permissive"/><tag k="ref:park" v="1001"/></node><node lat="45.450823" lon="-75.538072"  id="-94"  changeset="false" ><tag k="name" v="Public Tennis Courts"/><tag k="leisure" v="pitch"/><tag k="sport" v="tennis"/><tag k="outdoor" v="yes"/><tag k="seasonal" v="yes"/><tag k="name:fr" v="Courts de tennis publics"/><tag k="addr:street" v="Forest Valley Drive"/><tag k="addr:housenumber" v="1556"/><tag k="description" v="Public Courts"/><tag k="courts" v="2"/><tag k="surface" v="acrylic"/><tag k="wheelchair" v="no"/><tag k="source" v="City of Ottawa"/><tag k="source:date" v="2018-01-02"/><tag k="ref" v="27005"/><tag k="tennis:benches" v="yes"/><tag k="tennis:fence" v="yes"/><tag k="tennis:backwall" v="yes"/><tag k="tennis:clubhouse" v="no"/><tag k="lit" v="no"/><tag k="operator" v="City of Ottawa"/><tag k="access" v="permissive"/><tag k="ref:park" v="326"/></node><node lat="45.397564" lon="-75.731335"  id="-95"  changeset="false" ><tag k="name" v="Elmdale Tennis Club"/><tag k="leisure" v="pitch"/><tag k="sport" v="tennis"/><tag k="outdoor" v="yes"/><tag k="seasonal" v="yes"/><tag k="name:fr" v="Club de tennis Elmdale"/><tag k="addr:street" v="Holland Avenue"/><tag k="addr:housenumber" v="250"/><tag k="description" v="Membership Clubs"/><tag k="courts" v="6"/><tag k="surface" v="clay"/><tag k="wheelchair" v="no"/><tag k="source" v="City of Ottawa"/><tag k="source:date" v="2018-01-02"/><tag k="ref" v="27054"/><tag k="tennis:benches" v="no"/><tag k="tennis:fence" v="yes"/><tag k="tennis:backwall" v="no"/><tag k="tennis:clubhouse" v="yes"/><tag k="lit" v="yes"/><tag k="access" v="customers"/><tag k="ref:park" v="495"/></node><node lat="45.333632" lon="-75.77425"  id="-96"  changeset="false" ><tag k="name" v="Craig Henry Tennis Club"/><tag k="leisure" v="pitch"/><tag k="sport" v="tennis"/><tag k="outdoor" v="yes"/><tag k="seasonal" v="yes"/><tag k="name:fr" v="Club de tennis Craig-Henry"/><tag k="addr:street" v="Craig Henry Drive"/><tag k="addr:housenumber" v="135"/><tag k="description" v="Membership Clubs"/><tag k="courts" v="8"/><tag k="surface" v="acrylic"/><tag k="wheelchair" v="no"/><tag k="source" v="City of Ottawa"/><tag k="source:date" v="2018-01-02"/><tag k="ref" v="27058"/><tag k="tennis:benches" v="yes"/><tag k="tennis:fence" v="yes"/><tag k="tennis:backwall" v="yes"/><tag k="tennis:clubhouse" v="yes"/><tag k="lit" v="yes"/><tag k="access" v="customers"/><tag k="ref:park" v="449"/></node><node lat="45.356132" lon="-75.798331"  id="-97"  changeset="false" ><tag k="name" v="Public Tennis Courts"/><tag k="leisure" v="pitch"/><tag k="sport" v="tennis"/><tag k="outdoor" v="yes"/><tag k="seasonal" v="yes"/><tag k="name:fr" v="Courts de tennis publics"/><tag k="addr:street" v="Grenon Avenue"/><tag k="addr:housenumber" v="837"/><tag k="description" v="Public Courts"/><tag k="courts" v="2"/><tag k="surface" v="asphalt"/><tag k="wheelchair" v="no"/><tag k="source" v="City of Ottawa"/><tag k="source:date" v="2018-01-02"/><tag k="ref" v="3748"/><tag k="tennis:benches" v="yes"/><tag k="tennis:fence" v="yes"/><tag k="tennis:backwall" v="no"/><tag k="tennis:clubhouse" v="no"/><tag k="lit" v="no"/><tag k="operator" v="City of Ottawa"/><tag k="access" v="permissive"/><tag k="ref:park" v="458"/></node><node lat="45.369665" lon="-75.618964"  id="-98"  changeset="false" ><tag k="name" v="Public Tennis Courts"/><tag k="leisure" v="pitch"/><tag k="sport" v="tennis"/><tag k="outdoor" v="yes"/><tag k="seasonal" v="yes"/><tag k="name:fr" v="Courts de tennis publics"/><tag k="addr:street" v="Blohm Drive"/><tag k="addr:housenumber" v="1161"/><tag k="description" v="Public Courts"/><tag k="courts" v="2"/><tag k="surface" v="acrylic"/><tag k="wheelchair" v="no"/><tag k="source" v="City of Ottawa"/><tag k="source:date" v="2018-01-02"/><tag k="ref" v="27049"/><tag k="tennis:benches" v="yes"/><tag k="tennis:fence" v="yes"/><tag k="tennis:backwall" v="no"/><tag k="tennis:clubhouse" v="no"/><tag k="lit" v="no"/><tag k="operator" v="City of Ottawa"/><tag k="access" v="permissive"/><tag k="ref:park" v="120"/></node><node lat="45.260128" lon="-75.925138"  id="-99"  changeset="false" ><tag k="name" v="Public Tennis Courts"/><tag k="leisure" v="pitch"/><tag k="sport" v="tennis"/><tag k="outdoor" v="yes"/><tag k="seasonal" v="yes"/><tag k="name:fr" v="Courts de tennis publics"/><tag k="addr:street" v="Warner Colpitts Lane"/><tag k="addr:housenumber" v="10"/><tag k="description" v="Public Courts"/><tag k="courts" v="3"/><tag k="surface" v="acrylic"/><tag k="wheelchair" v="no"/><tag k="source" v="City of Ottawa"/><tag k="source:date" v="2018-01-02"/><tag k="ref" v="27062"/><tag k="tennis:benches" v="no"/><tag k="tennis:fence" v="yes"/><tag k="tennis:backwall" v="yes"/><tag k="tennis:clubhouse" v="no"/><tag k="lit" v="yes"/><tag k="operator" v="City of Ottawa"/><tag k="access" v="permissive"/><tag k="ref:park" v="1160"/></node><node lat="45.350476" lon="-76.037547"  id="-100"  changeset="false" ><tag k="name" v="Carp Tennis Club"/><tag k="leisure" v="pitch"/><tag k="sport" v="tennis"/><tag k="outdoor" v="yes"/><tag k="seasonal" v="yes"/><tag k="name:fr" v="Club de tennis de Carp"/><tag k="addr:street" v="Juanita Avenue"/><tag k="addr:housenumber" v="108"/><tag k="description" v="Membership Clubs"/><tag k="courts" v="2"/><tag k="surface" v="acrylic"/><tag k="wheelchair" v="no"/><tag k="source" v="City of Ottawa"/><tag k="source:date" v="2018-01-02"/><tag k="ref" v="27038"/><tag k="tennis:benches" v="yes"/><tag k="tennis:fence" v="yes"/><tag k="tennis:backwall" v="yes"/><tag k="tennis:clubhouse" v="no"/><tag k="lit" v="yes"/><tag k="access" v="customers"/><tag k="ref:park" v="541"/></node><node lat="45.254035" lon="-75.737077"  id="-101"  changeset="false" ><tag k="name" v="Public Tennis Courts"/><tag k="leisure" v="pitch"/><tag k="sport" v="tennis"/><tag k="outdoor" v="yes"/><tag k="seasonal" v="yes"/><tag k="name:fr" v="Courts de tennis publics"/><tag k="addr:street" v="Cambrian Road"/><tag k="addr:housenumber" v="3525"/><tag k="description" v="Public Courts"/><tag k="courts" v="2"/><tag k="surface" v="acrylic"/><tag k="wheelchair" v="no"/><tag k="source" v="City of Ottawa"/><tag k="source:date" v="2018-01-02"/><tag k="ref" v="34744"/><tag k="tennis:benches" v="no"/><tag k="tennis:fence" v="yes"/><tag k="tennis:backwall" v="no"/><tag k="tennis:clubhouse" v="no"/><tag k="lit" v="yes"/><tag k="operator" v="City of Ottawa"/><tag k="access" v="permissive"/><tag k="ref:park" v="2389"/></node><node lat="45.348768" lon="-75.681784"  id="-102"  changeset="false" ><tag k="name" v="Public Tennis Courts"/><tag k="leisure" v="pitch"/><tag k="sport" v="tennis"/><tag k="outdoor" v="yes"/><tag k="seasonal" v="yes"/><tag k="name:fr" v="Courts de tennis publics"/><tag k="addr:street" v="Uplands Drive"/><tag k="addr:housenumber" v="3165"/><tag k="description" v="Public Courts"/><tag k="courts" v="2"/><tag k="surface" v="acrylic"/><tag k="wheelchair" v="no"/><tag k="source" v="City of Ottawa"/><tag k="source:date" v="2018-01-02"/><tag k="ref" v="3791"/><tag k="tennis:benches" v="yes"/><tag k="tennis:fence" v="yes"/><tag k="tennis:backwall" v="no"/><tag k="tennis:clubhouse" v="no"/><tag k="lit" v="no"/><tag k="operator" v="City of Ottawa"/><tag k="access" v="permissive"/><tag k="ref:park" v="1122"/></node><node lat="45.270919" lon="-75.733362"  id="-103"  changeset="false" ><tag k="name" v="Public Tennis Courts"/><tag k="leisure" v="pitch"/><tag k="sport" v="tennis"/><tag k="outdoor" v="yes"/><tag k="seasonal" v="yes"/><tag k="name:fr" v="Courts de tennis publics"/><tag k="addr:street" v="Mancini Way"/><tag k="addr:housenumber" v="110"/><tag k="description" v="Public Courts"/><tag k="courts" v="2"/><tag k="surface" v="acrylic"/><tag k="wheelchair" v="no"/><tag k="source" v="City of Ottawa"/><tag k="source:date" v="2018-01-02"/><tag k="ref" v="35118"/><tag k="operator" v="City of Ottawa"/><tag k="access" v="permissive"/><tag k="ref:park" v="2508"/></node><node lat="45.273612" lon="-75.846481"  id="-104"  changeset="false" ><tag k="name" v="Public Tennis Courts"/><tag k="leisure" v="pitch"/><tag k="sport" v="tennis"/><tag k="outdoor" v="yes"/><tag k="seasonal" v="yes"/><tag k="name:fr" v="Courts de tennis publics"/><tag k="addr:street" v="Meadowbreeze Drive"/><tag k="addr:housenumber" v="290"/><tag k="description" v="Public Courts"/><tag k="courts" v="2"/><tag k="surface" v="acrylic"/><tag k="wheelchair" v="yes"/><tag k="source" v="City of Ottawa"/><tag k="source:date" v="2018-01-02"/><tag k="ref" v="35117"/><tag k="tennis:benches" v="no"/><tag k="tennis:fence" v="yes"/><tag k="tennis:backwall" v="no"/><tag k="tennis:clubhouse" v="no"/><tag k="lit" v="yes"/><tag k="operator" v="City of Ottawa"/><tag k="access" v="permissive"/><tag k="ref:park" v="2494"/></node><node lat="45.266411" lon="-75.550834"  id="-105"  changeset="false" ><tag k="name" v="Public Tennis Courts"/><tag k="leisure" v="pitch"/><tag k="sport" v="tennis"/><tag k="outdoor" v="yes"/><tag k="seasonal" v="yes"/><tag k="name:fr" v="Courts de tennis publics"/><tag k="addr:street" v="Parkway Road"/><tag k="addr:housenumber" v="7292"/><tag k="description" v="Public Courts"/><tag k="courts" v="2"/><tag k="surface" v="acrylic"/><tag k="wheelchair" v="yes"/><tag k="source" v="City of Ottawa"/><tag k="source:date" v="2018-01-02"/><tag k="ref" v="35821"/><tag k="tennis:benches" v="no"/><tag k="tennis:fence" v="yes"/><tag k="tennis:backwall" v="no"/><tag k="tennis:clubhouse" v="no"/><tag k="lit" v="yes"/><tag k="operator" v="City of Ottawa"/><tag k="access" v="permissive"/><tag k="ref:park" v="2488"/></node><node lat="45.230271" lon="-75.64203"  id="-106"  changeset="false" ><tag k="name" v="Public Tennis Courts"/><tag k="leisure" v="pitch"/><tag k="sport" v="tennis"/><tag k="outdoor" v="yes"/><tag k="seasonal" v="yes"/><tag k="name:fr" v="Courts de tennis publics"/><tag k="addr:street" v="Scobie Crescent"/><tag k="addr:housenumber" v="5650"/><tag k="description" v="Public Courts"/><tag k="courts" v="1"/><tag k="surface" v="acrylic"/><tag k="wheelchair" v="no"/><tag k="source" v="City of Ottawa"/><tag k="source:date" v="2018-01-02"/><tag k="ref" v="27039"/><tag k="tennis:benches" v="yes"/><tag k="tennis:fence" v="yes"/><tag k="tennis:backwall" v="no"/><tag k="tennis:clubhouse" v="no"/><tag k="lit" v="no"/><tag k="operator" v="City of Ottawa"/><tag k="access" v="permissive"/><tag k="ref:park" v="976"/></node><node lat="45.485502" lon="-75.512999"  id="-107"  changeset="false" ><tag k="name" v="Public Tennis Courts"/><tag k="leisure" v="pitch"/><tag k="sport" v="tennis"/><tag k="outdoor" v="yes"/><tag k="seasonal" v="yes"/><tag k="name:fr" v="Courts de tennis publics"/><tag k="addr:street" v="Lawnsberry Drive"/><tag k="addr:housenumber" v="855"/><tag k="description" v="Public Courts"/><tag k="courts" v="2"/><tag k="surface" v="acrylic"/><tag k="wheelchair" v="no"/><tag k="source" v="City of Ottawa"/><tag k="source:date" v="2018-01-02"/><tag k="ref" v="27011"/><tag k="tennis:benches" v="no"/><tag k="tennis:fence" v="yes"/><tag k="tennis:backwall" v="no"/><tag k="tennis:clubhouse" v="no"/><tag k="lit" v="yes"/><tag k="operator" v="City of Ottawa"/><tag k="access" v="permissive"/><tag k="ref:park" v="591"/></node><node lat="45.361549" lon="-75.681691"  id="-108"  changeset="false" ><tag k="name" v="Public Tennis Courts"/><tag k="leisure" v="pitch"/><tag k="sport" v="tennis"/><tag k="outdoor" v="yes"/><tag k="seasonal" v="yes"/><tag k="name:fr" v="Courts de tennis publics"/><tag k="addr:street" v="Hartman Crescent"/><tag k="addr:housenumber" v="691"/><tag k="description" v="Public Courts"/><tag k="courts" v="2"/><tag k="surface" v="acrylic"/><tag k="wheelchair" v="no"/><tag k="source" v="City of Ottawa"/><tag k="source:date" v="2018-01-02"/><tag k="ref" v="3703"/><tag k="tennis:benches" v="no"/><tag k="tennis:fence" v="yes"/><tag k="tennis:backwall" v="no"/><tag k="tennis:clubhouse" v="no"/><tag k="lit" v="no"/><tag k="operator" v="City of Ottawa"/><tag k="access" v="permissive"/><tag k="ref:park" v="468"/></node><node lat="45.46795" lon="-75.498167"  id="-109"  changeset="false" ><tag k="name" v="Queenswood/Fallingbrook Tennis Club - Kinsella"/><tag k="leisure" v="pitch"/><tag k="sport" v="tennis"/><tag k="outdoor" v="yes"/><tag k="seasonal" v="yes"/><tag k="name:fr" v="Club de tennis de Queenswood/Fallingbrook - Kinsella"/><tag k="addr:street" v="Prestwick Drive"/><tag k="addr:housenumber" v="1600"/><tag k="description" v="Membership Clubs"/><tag k="courts" v="4"/><tag k="surface" v="acrylic"/><tag k="wheelchair" v="no"/><tag k="source" v="City of Ottawa"/><tag k="source:date" v="2018-01-02"/><tag k="ref" v="27002"/><tag k="tennis:benches" v="yes"/><tag k="tennis:fence" v="yes"/><tag k="tennis:backwall" v="no"/><tag k="tennis:clubhouse" v="yes"/><tag k="lit" v="yes"/><tag k="access" v="customers"/><tag k="ref:park" v="843"/></node><node lat="45.42851" lon="-75.668569"  id="-110"  changeset="false" ><tag k="name" v="Public Tennis Courts"/><tag k="leisure" v="pitch"/><tag k="sport" v="tennis"/><tag k="outdoor" v="yes"/><tag k="seasonal" v="yes"/><tag k="name:fr" v="Courts de tennis publics"/><tag k="addr:street" v="North River Road"/><tag k="addr:housenumber" v="400"/><tag k="description" v="Public Courts"/><tag k="courts" v="4"/><tag k="surface" v="acrylic"/><tag k="wheelchair" v="no"/><tag k="source" v="City of Ottawa"/><tag k="source:date" v="2018-01-02"/><tag k="ref" v="27064"/><tag k="tennis:benches" v="yes"/><tag k="tennis:fence" v="yes"/><tag k="tennis:backwall" v="no"/><tag k="tennis:clubhouse" v="no"/><tag k="lit" v="yes"/><tag k="operator" v="City of Ottawa"/><tag k="access" v="permissive"/><tag k="ref:park" v="921"/></node><node lat="45.355479" lon="-75.636165"  id="-111"  changeset="false" ><tag k="name" v="Public Tennis Courts"/><tag k="leisure" v="pitch"/><tag k="sport" v="tennis"/><tag k="outdoor" v="yes"/><tag k="seasonal" v="yes"/><tag k="name:fr" v="Courts de tennis publics"/><tag k="addr:street" v="Sable Ridge Drive"/><tag k="addr:housenumber" v="2999"/><tag k="description" v="Public Courts"/><tag k="courts" v="2"/><tag k="surface" v="asphalt"/><tag k="wheelchair" v="no"/><tag k="source" v="City of Ottawa"/><tag k="source:date" v="2018-01-02"/><tag k="ref" v="27048"/><tag k="tennis:benches" v="yes"/><tag k="tennis:fence" v="yes"/><tag k="tennis:backwall" v="no"/><tag k="tennis:clubhouse" v="no"/><tag k="lit" v="yes"/><tag k="operator" v="City of Ottawa"/><tag k="access" v="permissive"/><tag k="ref:park" v="964"/></node><node lat="45.2828" lon="-75.76183"  id="-112"  changeset="false" ><tag k="name" v="Barrhaven Tennis Club"/><tag k="leisure" v="pitch"/><tag k="sport" v="tennis"/><tag k="outdoor" v="yes"/><tag k="seasonal" v="yes"/><tag k="name:fr" v="Club de tennis de Barrhaven"/><tag k="addr:street" v="Larkin Drive"/><tag k="addr:housenumber" v="76"/><tag k="description" v="Membership Clubs"/><tag k="courts" v="8"/><tag k="surface" v="acrylic"/><tag k="wheelchair" v="no"/><tag k="source" v="City of Ottawa"/><tag k="source:date" v="2018-01-02"/><tag k="ref" v="7081"/><tag k="tennis:benches" v="no"/><tag k="tennis:fence" v="yes"/><tag k="tennis:backwall" v="yes"/><tag k="tennis:clubhouse" v="yes"/><tag k="lit" v="yes"/><tag k="access" v="customers"/><tag k="ref:park" v="582"/></node><node lat="45.452405" lon="-75.672848"  id="-113"  changeset="false" ><tag k="name" v="Rockcliffe Lawn Tennis Club"/><tag k="leisure" v="pitch"/><tag k="sport" v="tennis"/><tag k="outdoor" v="yes"/><tag k="seasonal" v="yes"/><tag k="name:fr" v="Club de Tennis Rockcliffe"/><tag k="addr:street" v="Lawsdowne Road North"/><tag k="addr:housenumber" v="465"/><tag k="description" v="Private Clubs"/><tag k="courts" v="8"/><tag k="surface" v="clay"/><tag k="wheelchair" v="no"/><tag k="source" v="City of Ottawa"/><tag k="source:date" v="2018-01-02"/><tag k="ref" v="35589"/><tag k="tennis:benches" v="yes"/><tag k="tennis:fence" v="yes"/><tag k="tennis:backwall" v="no"/><tag k="tennis:clubhouse" v="yes"/><tag k="lit" v="no"/><tag k="operator" v="Private Club"/><tag k="access" v="private"/></node><node lat="45.45591" lon="-75.677243"  id="-114"  changeset="false" ><tag k="name" v="Ottawa New Edinburgh Club"/><tag k="leisure" v="pitch"/><tag k="sport" v="tennis"/><tag k="outdoor" v="yes"/><tag k="seasonal" v="yes"/><tag k="name:fr" v="Ottawa New Edinburgh Club"/><tag k="addr:street" v="Sir George-Étienne Cartier Parkway"/><tag k="addr:housenumber" v="504"/><tag k="description" v="Private Clubs"/><tag k="courts" v="11"/><tag k="surface" v="clay"/><tag k="wheelchair" v="no"/><tag k="source" v="City of Ottawa"/><tag k="source:date" v="2018-01-02"/><tag k="ref" v="35587"/><tag k="tennis:benches" v="yes"/><tag k="tennis:fence" v="yes"/><tag k="tennis:backwall" v="no"/><tag k="tennis:clubhouse" v="yes"/><tag k="lit" v="yes"/><tag k="operator" v="Private Club"/><tag k="access" v="private"/></node><node lat="45.268009" lon="-75.695665"  id="-115"  changeset="false" ><tag k="name" v="Public Tennis Courts"/><tag k="leisure" v="pitch"/><tag k="sport" v="tennis"/><tag k="outdoor" v="yes"/><tag k="seasonal" v="yes"/><tag k="name:fr" v="Courts de tennis publics"/><tag k="addr:street" v="Summerhill Street"/><tag k="addr:housenumber" v="560"/><tag k="description" v="Public Courts"/><tag k="courts" v="2"/><tag k="surface" v="acrylic"/><tag k="wheelchair" v="no"/><tag k="source" v="City of Ottawa"/><tag k="source:date" v="2018-01-02"/><tag k="ref" v="35617"/><tag k="tennis:benches" v="no"/><tag k="tennis:fence" v="yes"/><tag k="tennis:backwall" v="no"/><tag k="tennis:clubhouse" v="no"/><tag k="lit" v="yes"/><tag k="operator" v="City of Ottawa"/><tag k="access" v="permissive"/><tag k="ref:park" v="2499"/></node><node lat="45.435954" lon="-75.687416"  id="-116"  changeset="false" ><tag k="name" v="Public Tennis Courts"/><tag k="leisure" v="pitch"/><tag k="sport" v="tennis"/><tag k="outdoor" v="yes"/><tag k="seasonal" v="yes"/><tag k="name:fr" v="Courts de tennis publics"/><tag k="addr:street" v="Bruyère Street"/><tag k="addr:housenumber" v="349"/><tag k="description" v="Public Courts"/><tag k="courts" v="2"/><tag k="surface" v="acrylic"/><tag k="wheelchair" v="no"/><tag k="source" v="City of Ottawa"/><tag k="source:date" v="2018-01-02"/><tag k="ref" v="3708"/><tag k="tennis:benches" v="yes"/><tag k="tennis:fence" v="yes"/><tag k="tennis:backwall" v="no"/><tag k="tennis:clubhouse" v="no"/><tag k="lit" v="no"/><tag k="operator" v="City of Ottawa"/><tag k="access" v="permissive"/><tag k="ref:park" v="150"/></node><node lat="45.391544" lon="-75.644815"  id="-117"  changeset="false" ><tag k="name" v="Public Tennis Courts"/><tag k="leisure" v="pitch"/><tag k="sport" v="tennis"/><tag k="outdoor" v="yes"/><tag k="seasonal" v="yes"/><tag k="name:fr" v="Courts de tennis publics"/><tag k="addr:street" v="Playfair Drive"/><tag k="addr:housenumber" v="1801"/><tag k="description" v="Public Courts"/><tag k="courts" v="2"/><tag k="surface" v="asphalt"/><tag k="wheelchair" v="no"/><tag k="source" v="City of Ottawa"/><tag k="source:date" v="2018-01-02"/><tag k="ref" v="3166"/><tag k="tennis:benches" v="yes"/><tag k="tennis:fence" v="yes"/><tag k="tennis:backwall" v="no"/><tag k="tennis:clubhouse" v="no"/><tag k="lit" v="no"/><tag k="operator" v="City of Ottawa"/><tag k="access" v="permissive"/><tag k="ref:park" v="831"/></node><node lat="45.34498" lon="-75.795281"  id="-118"  changeset="false" ><tag k="name" v="Public Tennis Courts"/><tag k="leisure" v="pitch"/><tag k="sport" v="tennis"/><tag k="outdoor" v="yes"/><tag k="seasonal" v="yes"/><tag k="name:fr" v="Courts de tennis publics"/><tag k="addr:street" v="Morrison Drive"/><tag k="addr:housenumber" v="1095"/><tag k="description" v="Public Courts"/><tag k="courts" v="2"/><tag k="surface" v="asphalt"/><tag k="wheelchair" v="no"/><tag k="source" v="City of Ottawa"/><tag k="source:date" v="2018-01-02"/><tag k="ref" v="3799"/><tag k="tennis:benches" v="yes"/><tag k="tennis:fence" v="yes"/><tag k="tennis:backwall" v="no"/><tag k="tennis:clubhouse" v="no"/><tag k="lit" v="no"/><tag k="operator" v="City of Ottawa"/><tag k="access" v="permissive"/><tag k="ref:park" v="728"/></node><node lat="45.452427" lon="-75.518639"  id="-119"  changeset="false" ><tag k="name" v="Public Tennis Courts"/><tag k="leisure" v="pitch"/><tag k="sport" v="tennis"/><tag k="outdoor" v="yes"/><tag k="seasonal" v="yes"/><tag k="name:fr" v="Courts de tennis publics"/><tag k="addr:street" v="Simard Drive"/><tag k="addr:housenumber" v="1855"/><tag k="description" v="Public Courts"/><tag k="courts" v="1"/><tag k="surface" v="acrylic"/><tag k="wheelchair" v="no"/><tag k="source" v="City of Ottawa"/><tag k="source:date" v="2018-01-02"/><tag k="ref" v="27004"/><tag k="tennis:benches" v="yes"/><tag k="tennis:fence" v="yes"/><tag k="tennis:backwall" v="no"/><tag k="tennis:clubhouse" v="no"/><tag k="lit" v="no"/><tag k="operator" v="City of Ottawa"/><tag k="access" v="permissive"/><tag k="ref:park" v="1005"/></node><node lat="45.362664" lon="-75.798677"  id="-120"  changeset="false" ><tag k="name" v="West Ottawa Tennis Centre"/><tag k="leisure" v="pitch"/><tag k="sport" v="tennis"/><tag k="outdoor" v="yes"/><tag k="seasonal" v="yes"/><tag k="name:fr" v="Centre de tennis d'Ottawa-Ouest"/><tag k="addr:street" v="Carling Avenue"/><tag k="addr:housenumber" v="2805"/><tag k="description" v="Membership Clubs"/><tag k="courts" v="7"/><tag k="surface" v="clay"/><tag k="wheelchair" v="no"/><tag k="source" v="City of Ottawa"/><tag k="source:date" v="2018-01-02"/><tag k="ref" v="3712"/><tag k="tennis:benches" v="yes"/><tag k="tennis:fence" v="yes"/><tag k="tennis:backwall" v="yes"/><tag k="tennis:clubhouse" v="yes"/><tag k="tennis:indoor_courts" v="yes"/><tag k="lit" v="yes"/><tag k="access" v="customers"/><tag k="ref:park" v="182"/></node><node lat="45.414806" lon="-75.689602"  id="-121"  changeset="false" ><tag k="name" v="Public Tennis Courts"/><tag k="leisure" v="pitch"/><tag k="sport" v="tennis"/><tag k="outdoor" v="yes"/><tag k="seasonal" v="yes"/><tag k="name:fr" v="Courts de tennis publics"/><tag k="addr:street" v="Jack Purcell Lane"/><tag k="addr:housenumber" v="320"/><tag k="description" v="Public Courts"/><tag k="courts" v="1"/><tag k="surface" v="acrylic"/><tag k="wheelchair" v="no"/><tag k="source" v="City of Ottawa"/><tag k="source:date" v="2018-01-02"/><tag k="ref" v="3747"/><tag k="tennis:benches" v="yes"/><tag k="tennis:fence" v="yes"/><tag k="tennis:backwall" v="no"/><tag k="tennis:clubhouse" v="no"/><tag k="lit" v="yes"/><tag k="operator" v="City of Ottawa"/><tag k="access" v="permissive"/><tag k="ref:park" v="522"/></node><node lat="45.162866" lon="-75.939583"  id="-122"  changeset="false" ><tag k="name" v="Public Tennis Courts"/><tag k="leisure" v="pitch"/><tag k="sport" v="tennis"/><tag k="outdoor" v="yes"/><tag k="seasonal" v="yes"/><tag k="name:fr" v="Courts de tennis publics"/><tag k="addr:street" v="Munster Road"/><tag k="addr:housenumber" v="2890"/><tag k="description" v="Public Courts"/><tag k="courts" v="2"/><tag k="surface" v="asphalt"/><tag k="wheelchair" v="no"/><tag k="source" v="City of Ottawa"/><tag k="source:date" v="2018-01-02"/><tag k="ref" v="27066"/><tag k="tennis:benches" v="no"/><tag k="tennis:fence" v="yes"/><tag k="tennis:backwall" v="no"/><tag k="tennis:clubhouse" v="no"/><tag k="lit" v="yes"/><tag k="operator" v="City of Ottawa"/><tag k="access" v="permissive"/><tag k="ref:park" v="734"/></node><node lat="45.401426" lon="-75.613085"  id="-123"  changeset="false" ><tag k="name" v="Ottawa Athletic Club (Tennis)"/><tag k="leisure" v="pitch"/><tag k="sport" v="tennis"/><tag k="outdoor" v="yes"/><tag k="seasonal" v="yes"/><tag k="name:fr" v="Club d'athlétisme d'Ottawa (tennis)"/><tag k="addr:street" v="Lancaster Road"/><tag k="addr:housenumber" v="2525"/><tag k="description" v="Private Clubs"/><tag k="courts" v="6"/><tag k="surface" v="acrylic"/><tag k="wheelchair" v="no"/><tag k="source" v="City of Ottawa"/><tag k="source:date" v="2018-01-02"/><tag k="ref" v="36404"/><tag k="tennis:benches" v="yes"/><tag k="tennis:fence" v="yes"/><tag k="tennis:backwall" v="no"/><tag k="tennis:clubhouse" v="yes"/><tag k="tennis:indoor_courts" v="yes"/><tag k="lit" v="yes"/><tag k="operator" v="Private Club"/><tag k="access" v="private"/></node></osm>
