<?xml version="1.0" encoding="UTF-8"?><osm version="0.6" generator="https://github.com/Rub21/geojson2osm"><node lat="45.420249" lon="-75.695326"  id="-1"  changeset="false" ><tag k="amenity" v="grit_bin"/><tag k="access" v="yes"/><tag k="operator" v="City of Ottawa"/><tag k="source" v="City of Ottawa"/><tag k="ref" v="30"/><tag k="source:date" v="2018-08-03"/><tag k="description" v="Grit box located near Laurier and Metcalfe (Ottawa Public Library)"/></node><node lat="45.360453" lon="-75.793434"  id="-2"  changeset="false" ><tag k="amenity" v="grit_bin"/><tag k="access" v="yes"/><tag k="operator" v="City of Ottawa"/><tag k="source" v="City of Ottawa"/><tag k="ref" v="2"/><tag k="source:date" v="2018-08-03"/><tag k="description" v="Grit box located near Britannia at Carling"/></node><node lat="45.370194" lon="-75.680131"  id="-3"  changeset="false" ><tag k="amenity" v="grit_bin"/><tag k="access" v="yes"/><tag k="operator" v="City of Ottawa"/><tag k="source" v="City of Ottawa"/><tag k="ref" v="71"/><tag k="source:date" v="2018-08-03"/><tag k="description" v="Grit box located near 905 Springland at Flannery Tunnel"/></node><node lat="45.517803" lon="-75.409006"  id="-4"  changeset="false" ><tag k="amenity" v="grit_bin"/><tag k="access" v="yes"/><tag k="operator" v="City of Ottawa"/><tag k="source" v="City of Ottawa"/><tag k="ref" v="80"/><tag k="source:date" v="2018-08-03"/><tag k="description" v="Grit box located near Trepannier at Sparkle"/></node><node lat="45.40465" lon="-75.723609"  id="-5"  changeset="false" ><tag k="amenity" v="grit_bin"/><tag k="access" v="yes"/><tag k="operator" v="City of Ottawa"/><tag k="source" v="City of Ottawa"/><tag k="ref" v="18"/><tag k="source:date" v="2018-08-03"/><tag k="description" v="Grit box located near 25 Fairmont at Wellington"/></node><node lat="45.421975" lon="-75.693391"  id="-6"  changeset="false" ><tag k="amenity" v="grit_bin"/><tag k="access" v="yes"/><tag k="operator" v="City of Ottawa"/><tag k="source" v="City of Ottawa"/><tag k="ref" v="37"/><tag k="source:date" v="2018-08-03"/><tag k="description" v="Grit box located near Elgin and Slater (south of ramp)"/></node><node lat="45.358977" lon="-75.684772"  id="-7"  changeset="false" ><tag k="amenity" v="grit_bin"/><tag k="access" v="yes"/><tag k="operator" v="City of Ottawa"/><tag k="source" v="City of Ottawa"/><tag k="ref" v="73"/><tag k="source:date" v="2018-08-03"/><tag k="description" v="Grit box located near 2947 Otterson at Otterson Tunnel"/></node><node lat="45.358705" lon="-75.684264"  id="-8"  changeset="false" ><tag k="amenity" v="grit_bin"/><tag k="access" v="yes"/><tag k="operator" v="City of Ottawa"/><tag k="source" v="City of Ottawa"/><tag k="ref" v="74"/><tag k="source:date" v="2018-08-03"/><tag k="description" v="Grit box located near 587 Fielding at Otterson Tunnel"/></node><node lat="45.428883" lon="-75.683547"  id="-9"  changeset="false" ><tag k="amenity" v="grit_bin"/><tag k="access" v="yes"/><tag k="operator" v="City of Ottawa"/><tag k="source" v="City of Ottawa"/><tag k="ref" v="51"/><tag k="source:date" v="2018-08-03"/><tag k="description" v="Grit box located near Sandy Hill Health Centre - Nelson at Besserer"/></node><node lat="45.391367" lon="-75.753516"  id="-10"  changeset="false" ><tag k="amenity" v="grit_bin"/><tag k="access" v="yes"/><tag k="operator" v="City of Ottawa"/><tag k="source" v="City of Ottawa"/><tag k="ref" v="13"/><tag k="source:date" v="2018-08-03"/><tag k="description" v="Grit box located near Danforth at Churchill"/></node><node lat="45.146386" lon="-75.604331"  id="-11"  changeset="false" ><tag k="amenity" v="grit_bin"/><tag k="access" v="yes"/><tag k="operator" v="City of Ottawa"/><tag k="source" v="City of Ottawa"/><tag k="ref" v="78"/><tag k="source:date" v="2018-08-03"/><tag k="description" v="Grit box located near Main at Vance, Osgoode"/></node><node lat="45.420825" lon="-75.693161"  id="-12"  changeset="false" ><tag k="amenity" v="grit_bin"/><tag k="access" v="yes"/><tag k="operator" v="City of Ottawa"/><tag k="source" v="City of Ottawa"/><tag k="ref" v="38"/><tag k="source:date" v="2018-08-03"/><tag k="description" v="Grit box located near Elgin and Laurier - S/W corner"/></node><node lat="45.432746" lon="-75.676492"  id="-13"  changeset="false" ><tag k="amenity" v="grit_bin"/><tag k="access" v="yes"/><tag k="operator" v="City of Ottawa"/><tag k="source" v="City of Ottawa"/><tag k="ref" v="56"/><tag k="source:date" v="2018-08-03"/><tag k="description" v="Grit box located near Charlotte at Rideau"/></node><node lat="45.37022" lon="-75.679791"  id="-14"  changeset="false" ><tag k="amenity" v="grit_bin"/><tag k="access" v="yes"/><tag k="operator" v="City of Ottawa"/><tag k="source" v="City of Ottawa"/><tag k="ref" v="72"/><tag k="source:date" v="2018-08-03"/><tag k="description" v="Grit box located near 917 Cromwell at Flannery Tunnel"/></node><node lat="45.435073" lon="-75.676644"  id="-15"  changeset="false" ><tag k="amenity" v="grit_bin"/><tag k="access" v="yes"/><tag k="operator" v="City of Ottawa"/><tag k="source" v="City of Ottawa"/><tag k="ref" v="55"/><tag k="source:date" v="2018-08-03"/><tag k="description" v="Grit box located near Heney at Wurtemburg"/></node><node lat="45.437359" lon="-75.657871"  id="-16"  changeset="false" ><tag k="amenity" v="grit_bin"/><tag k="access" v="yes"/><tag k="operator" v="City of Ottawa"/><tag k="source" v="City of Ottawa"/><tag k="ref" v="60"/><tag k="source:date" v="2018-08-03"/><tag k="description" v="Grit box located near Lacasse at Montreal"/></node><node lat="45.373639" lon="-75.778941"  id="-17"  changeset="false" ><tag k="amenity" v="grit_bin"/><tag k="access" v="yes"/><tag k="operator" v="City of Ottawa"/><tag k="source" v="City of Ottawa"/><tag k="ref" v="7"/><tag k="source:date" v="2018-08-03"/><tag k="description" v="Grit box located near New Orchard at Richmond"/></node><node lat="45.353235" lon="-75.730209"  id="-18"  changeset="false" ><tag k="amenity" v="grit_bin"/><tag k="access" v="yes"/><tag k="operator" v="City of Ottawa"/><tag k="source" v="City of Ottawa"/><tag k="ref" v="17"/><tag k="source:date" v="2018-08-03"/><tag k="description" v="Grit box located near Chesterton at Meadowlands"/></node><node lat="45.385034" lon="-75.673"  id="-19"  changeset="false" ><tag k="amenity" v="grit_bin"/><tag k="access" v="yes"/><tag k="operator" v="City of Ottawa"/><tag k="source" v="City of Ottawa"/><tag k="ref" v="70"/><tag k="source:date" v="2018-08-03"/><tag k="description" v="Grit box located near Ohio at Bank"/></node><node lat="45.378272" lon="-75.777855"  id="-20"  changeset="false" ><tag k="amenity" v="grit_bin"/><tag k="access" v="yes"/><tag k="operator" v="City of Ottawa"/><tag k="source" v="City of Ottawa"/><tag k="ref" v="8"/><tag k="source:date" v="2018-08-03"/><tag k="description" v="Grit box located near Deschenes at Pooler"/></node><node lat="45.389739" lon="-75.75468"  id="-21"  changeset="false" ><tag k="amenity" v="grit_bin"/><tag k="access" v="yes"/><tag k="operator" v="City of Ottawa"/><tag k="source" v="City of Ottawa"/><tag k="ref" v="12"/><tag k="source:date" v="2018-08-03"/><tag k="description" v="Grit box located near Ravenhill at Melbourne"/></node><node lat="45.362065" lon="-75.784545"  id="-22"  changeset="false" ><tag k="amenity" v="grit_bin"/><tag k="access" v="yes"/><tag k="operator" v="City of Ottawa"/><tag k="source" v="City of Ottawa"/><tag k="ref" v="3"/><tag k="source:date" v="2018-08-03"/><tag k="description" v="Grit box located near Connaught at Sackville"/></node><node lat="45.375917" lon="-75.733257"  id="-23"  changeset="false" ><tag k="amenity" v="grit_bin"/><tag k="access" v="yes"/><tag k="operator" v="City of Ottawa"/><tag k="source" v="City of Ottawa"/><tag k="ref" v="16"/><tag k="source:date" v="2018-08-03"/><tag k="description" v="Grit box located near Morisset at Merivale"/></node><node lat="45.433177" lon="-75.67482"  id="-24"  changeset="false" ><tag k="amenity" v="grit_bin"/><tag k="access" v="yes"/><tag k="operator" v="City of Ottawa"/><tag k="source" v="City of Ottawa"/><tag k="ref" v="57"/><tag k="source:date" v="2018-08-03"/><tag k="description" v="Grit box located near Wurtemburg at Rideau"/></node><node lat="45.426024" lon="-75.691827"  id="-25"  changeset="false" ><tag k="amenity" v="grit_bin"/><tag k="access" v="yes"/><tag k="operator" v="City of Ottawa"/><tag k="source" v="City of Ottawa"/><tag k="ref" v="42"/><tag k="source:date" v="2018-08-03"/><tag k="description" v="Grit box located near Rideau at The Bay"/></node><node lat="45.427307" lon="-75.691705"  id="-26"  changeset="false" ><tag k="amenity" v="grit_bin"/><tag k="access" v="yes"/><tag k="operator" v="City of Ottawa"/><tag k="source" v="City of Ottawa"/><tag k="ref" v="41"/><tag k="source:date" v="2018-08-03"/><tag k="description" v="Grit box located near George at William Mall"/></node><node lat="45.394396" lon="-75.683329"  id="-27"  changeset="false" ><tag k="amenity" v="grit_bin"/><tag k="access" v="yes"/><tag k="operator" v="City of Ottawa"/><tag k="source" v="City of Ottawa"/><tag k="ref" v="66"/><tag k="source:date" v="2018-08-03"/><tag k="description" v="Grit box located near Sunnyside and Bank"/></node><node lat="45.446737" lon="-75.672443"  id="-28"  changeset="false" ><tag k="amenity" v="grit_bin"/><tag k="access" v="yes"/><tag k="operator" v="City of Ottawa"/><tag k="source" v="City of Ottawa"/><tag k="ref" v="58"/><tag k="source:date" v="2018-08-03"/><tag k="description" v="Grit box located near Maple and Acacia"/></node><node lat="45.417106" lon="-75.689265"  id="-29"  changeset="false" ><tag k="amenity" v="grit_bin"/><tag k="access" v="yes"/><tag k="operator" v="City of Ottawa"/><tag k="source" v="City of Ottawa"/><tag k="ref" v="46"/><tag k="source:date" v="2018-08-03"/><tag k="description" v="Grit box located near Maclaren and Elgin"/></node><node lat="45.428303" lon="-75.692627"  id="-30"  changeset="false" ><tag k="amenity" v="grit_bin"/><tag k="access" v="yes"/><tag k="operator" v="City of Ottawa"/><tag k="source" v="City of Ottawa"/><tag k="ref" v="40"/><tag k="source:date" v="2018-08-03"/><tag k="description" v="Grit box located near William at York"/></node><node lat="45.433372" lon="-75.678833"  id="-31"  changeset="false" ><tag k="amenity" v="grit_bin"/><tag k="access" v="yes"/><tag k="operator" v="City of Ottawa"/><tag k="source" v="City of Ottawa"/><tag k="ref" v="53"/><tag k="source:date" v="2018-08-03"/><tag k="description" v="Grit box located near Beausoleil at Cobourg"/></node><node lat="45.400074" lon="-75.719234"  id="-32"  changeset="false" ><tag k="amenity" v="grit_bin"/><tag k="access" v="yes"/><tag k="operator" v="City of Ottawa"/><tag k="source" v="City of Ottawa"/><tag k="ref" v="20"/><tag k="source:date" v="2018-08-03"/><tag k="description" v="Grit box located near Young between Bayswater and Fairmont"/></node><node lat="45.405537" lon="-75.711328"  id="-33"  changeset="false" ><tag k="amenity" v="grit_bin"/><tag k="access" v="yes"/><tag k="operator" v="City of Ottawa"/><tag k="source" v="City of Ottawa"/><tag k="ref" v="23"/><tag k="source:date" v="2018-08-03"/><tag k="description" v="Grit box located near Balsam between Rochester and Preston"/></node><node lat="45.410747" lon="-75.71144"  id="-34"  changeset="false" ><tag k="amenity" v="grit_bin"/><tag k="access" v="yes"/><tag k="operator" v="City of Ottawa"/><tag k="source" v="City of Ottawa"/><tag k="ref" v="22"/><tag k="source:date" v="2018-08-03"/><tag k="description" v="Grit box located near Rochester and Elm - S/W corner"/></node><node lat="45.434144" lon="-75.695781"  id="-35"  changeset="false" ><tag k="amenity" v="grit_bin"/><tag k="access" v="yes"/><tag k="operator" v="City of Ottawa"/><tag k="source" v="City of Ottawa"/><tag k="ref" v="34"/><tag k="source:date" v="2018-08-03"/><tag k="description" v="Grit box located near Dalhousie and Bolton"/></node><node lat="45.403378" lon="-75.716495"  id="-36"  changeset="false" ><tag k="amenity" v="grit_bin"/><tag k="access" v="yes"/><tag k="operator" v="City of Ottawa"/><tag k="source" v="City of Ottawa"/><tag k="ref" v="21"/><tag k="source:date" v="2018-08-03"/><tag k="description" v="Grit box located near Gladstone between Breezehill and Loretta"/></node><node lat="45.402442" lon="-75.718908"  id="-37"  changeset="false" ><tag k="amenity" v="grit_bin"/><tag k="access" v="yes"/><tag k="operator" v="City of Ottawa"/><tag k="source" v="City of Ottawa"/><tag k="ref" v="19"/><tag k="source:date" v="2018-08-03"/><tag k="description" v="Grit box located near Gladstone between Bayswater and Spadina"/></node><node lat="45.39604" lon="-75.678887"  id="-38"  changeset="false" ><tag k="amenity" v="grit_bin"/><tag k="access" v="yes"/><tag k="operator" v="City of Ottawa"/><tag k="source" v="City of Ottawa"/><tag k="ref" v="68"/><tag k="source:date" v="2018-08-03"/><tag k="description" v="Grit box located near Sunnyside and Riverdale"/></node><node lat="45.369073" lon="-75.765883"  id="-39"  changeset="false" ><tag k="amenity" v="grit_bin"/><tag k="access" v="yes"/><tag k="operator" v="City of Ottawa"/><tag k="source" v="City of Ottawa"/><tag k="ref" v="10"/><tag k="source:date" v="2018-08-03"/><tag k="description" v="Grit box located near Lenester and Iroquois"/></node><node lat="45.416268" lon="-75.691278"  id="-40"  changeset="false" ><tag k="amenity" v="grit_bin"/><tag k="access" v="yes"/><tag k="operator" v="City of Ottawa"/><tag k="source" v="City of Ottawa"/><tag k="ref" v="45"/><tag k="source:date" v="2018-08-03"/><tag k="description" v="Grit box located near Metcalfe and  MacLaren"/></node><node lat="45.374253" lon="-75.740418"  id="-41"  changeset="false" ><tag k="amenity" v="grit_bin"/><tag k="access" v="yes"/><tag k="operator" v="City of Ottawa"/><tag k="source" v="City of Ottawa"/><tag k="ref" v="14"/><tag k="source:date" v="2018-08-03"/><tag k="description" v="Grit box located near Lepage and McBride"/></node><node lat="45.37343" lon="-75.739797"  id="-42"  changeset="false" ><tag k="amenity" v="grit_bin"/><tag k="access" v="yes"/><tag k="operator" v="City of Ottawa"/><tag k="source" v="City of Ottawa"/><tag k="ref" v="15"/><tag k="source:date" v="2018-08-03"/><tag k="description" v="Grit box located near Edgecliffe and Caldwell"/></node><node lat="45.425274" lon="-75.69332"  id="-43"  changeset="false" ><tag k="amenity" v="grit_bin"/><tag k="access" v="yes"/><tag k="operator" v="City of Ottawa"/><tag k="source" v="City of Ottawa"/><tag k="ref" v="36"/><tag k="source:date" v="2018-08-03"/><tag k="description" v="Grit box located near Rideau and Colonel By"/></node><node lat="45.425018" lon="-75.693923"  id="-44"  changeset="false" ><tag k="amenity" v="grit_bin"/><tag k="access" v="yes"/><tag k="operator" v="City of Ottawa"/><tag k="source" v="City of Ottawa"/><tag k="ref" v="35"/><tag k="source:date" v="2018-08-03"/><tag k="description" v="Grit box located near Rideau and Mackenzie"/></node><node lat="45.417337" lon="-75.688631"  id="-45"  changeset="false" ><tag k="amenity" v="grit_bin"/><tag k="access" v="yes"/><tag k="operator" v="City of Ottawa"/><tag k="source" v="City of Ottawa"/><tag k="ref" v="50"/><tag k="source:date" v="2018-08-03"/><tag k="description" v="Grit box located near 150 MacLaren (south side)"/></node><node lat="45.417487" lon="-75.695223"  id="-46"  changeset="false" ><tag k="amenity" v="grit_bin"/><tag k="access" v="yes"/><tag k="operator" v="City of Ottawa"/><tag k="source" v="City of Ottawa"/><tag k="ref" v="31"/><tag k="source:date" v="2018-08-03"/><tag k="description" v="Grit box located near 264 Lisgar"/></node><node lat="45.414734" lon="-75.695961"  id="-47"  changeset="false" ><tag k="amenity" v="grit_bin"/><tag k="access" v="yes"/><tag k="operator" v="City of Ottawa"/><tag k="source" v="City of Ottawa"/><tag k="ref" v="32"/><tag k="source:date" v="2018-08-03"/><tag k="description" v="Grit box located near Bank and MacLaren - N/W corner"/></node><node lat="45.405419" lon="-75.709654"  id="-48"  changeset="false" ><tag k="amenity" v="grit_bin"/><tag k="access" v="yes"/><tag k="operator" v="City of Ottawa"/><tag k="source" v="City of Ottawa"/><tag k="ref" v="25"/><tag k="source:date" v="2018-08-03"/><tag k="description" v="Grit box located near Rochester and Gladstone - N/E corner"/></node><node lat="45.365413" lon="-75.397289"  id="-49"  changeset="false" ><tag k="amenity" v="grit_bin"/><tag k="access" v="yes"/><tag k="operator" v="City of Ottawa"/><tag k="source" v="City of Ottawa"/><tag k="ref" v="81"/><tag k="source:date" v="2018-08-03"/><tag k="description" v="Grit box located near 5112 Sand (near Russell)"/></node><node lat="45.418285" lon="-75.688544"  id="-50"  changeset="false" ><tag k="amenity" v="grit_bin"/><tag k="access" v="yes"/><tag k="operator" v="City of Ottawa"/><tag k="source" v="City of Ottawa"/><tag k="ref" v="49"/><tag k="source:date" v="2018-08-03"/><tag k="description" v="Grit box located near 60 Cartier"/></node><node lat="45.332237" lon="-75.694752"  id="-51"  changeset="false" ><tag k="amenity" v="grit_bin"/><tag k="access" v="yes"/><tag k="operator" v="City of Ottawa"/><tag k="source" v="City of Ottawa"/><tag k="ref" v="76"/><tag k="source:date" v="2018-08-03"/><tag k="description" v="Grit box located near 4120 Riverside  (easement)"/></node><node lat="45.333204" lon="-75.695013"  id="-52"  changeset="false" ><tag k="amenity" v="grit_bin"/><tag k="access" v="yes"/><tag k="operator" v="City of Ottawa"/><tag k="source" v="City of Ottawa"/><tag k="ref" v="75"/><tag k="source:date" v="2018-08-03"/><tag k="description" v="Grit box located near 4120 Riverside (easement)"/></node><node lat="45.418506" lon="-75.690711"  id="-53"  changeset="false" ><tag k="amenity" v="grit_bin"/><tag k="access" v="yes"/><tag k="operator" v="City of Ottawa"/><tag k="source" v="City of Ottawa"/><tag k="ref" v="44"/><tag k="source:date" v="2018-08-03"/><tag k="description" v="Grit box located near Elgin and Cooper - S/E corner"/></node><node lat="45.433276" lon="-75.662259"  id="-54"  changeset="false" ><tag k="amenity" v="grit_bin"/><tag k="access" v="yes"/><tag k="operator" v="City of Ottawa"/><tag k="source" v="City of Ottawa"/><tag k="ref" v="59"/><tag k="source:date" v="2018-08-03"/><tag k="description" v="Grit box located near 327 Cyr"/></node><node lat="45.224485" lon="-75.684595"  id="-55"  changeset="false" ><tag k="amenity" v="grit_bin"/><tag k="access" v="yes"/><tag k="operator" v="City of Ottawa"/><tag k="source" v="City of Ottawa"/><tag k="ref" v="77"/><tag k="source:date" v="2018-08-03"/><tag k="description" v="Grit box located near 5550 Ann"/></node><node lat="45.41359" lon="-75.710527"  id="-56"  changeset="false" ><tag k="amenity" v="grit_bin"/><tag k="access" v="yes"/><tag k="operator" v="City of Ottawa"/><tag k="source" v="City of Ottawa"/><tag k="ref" v="24"/><tag k="source:date" v="2018-08-03"/><tag k="description" v="Grit box located near Albert and Empress - S/E corner"/></node><node lat="45.421807" lon="-75.696285"  id="-57"  changeset="false" ><tag k="amenity" v="grit_bin"/><tag k="access" v="yes"/><tag k="operator" v="City of Ottawa"/><tag k="source" v="City of Ottawa"/><tag k="ref" v="29"/><tag k="source:date" v="2018-08-03"/><tag k="description" v="Grit box located near Albert and Metcalfe - N/E corner"/></node><node lat="45.411467" lon="-75.708747"  id="-58"  changeset="false" ><tag k="amenity" v="grit_bin"/><tag k="access" v="yes"/><tag k="operator" v="City of Ottawa"/><tag k="source" v="City of Ottawa"/><tag k="ref" v="26"/><tag k="source:date" v="2018-08-03"/><tag k="description" v="Grit box located near 100 Empress"/></node><node lat="45.431844" lon="-75.696922"  id="-59"  changeset="false" ><tag k="amenity" v="grit_bin"/><tag k="access" v="yes"/><tag k="operator" v="City of Ottawa"/><tag k="source" v="City of Ottawa"/><tag k="ref" v="33"/><tag k="source:date" v="2018-08-03"/><tag k="description" v="Grit box located near 75 Bruyere"/></node><node lat="45.432579" lon="-75.680317"  id="-60"  changeset="false" ><tag k="amenity" v="grit_bin"/><tag k="access" v="yes"/><tag k="operator" v="City of Ottawa"/><tag k="source" v="City of Ottawa"/><tag k="ref" v="52"/><tag k="source:date" v="2018-08-03"/><tag k="description" v="Grit box located near Dead end of Augusta"/></node><node lat="45.368952" lon="-75.780754"  id="-61"  changeset="false" ><tag k="amenity" v="grit_bin"/><tag k="access" v="yes"/><tag k="operator" v="City of Ottawa"/><tag k="source" v="City of Ottawa"/><tag k="ref" v="6"/><tag k="source:date" v="2018-08-03"/><tag k="description" v="Grit box located near 441 Edgeworth"/></node><node lat="45.434773" lon="-75.643549"  id="-62"  changeset="false" ><tag k="amenity" v="grit_bin"/><tag k="access" v="yes"/><tag k="operator" v="City of Ottawa"/><tag k="source" v="City of Ottawa"/><tag k="ref" v="61"/><tag k="source:date" v="2018-08-03"/><tag k="description" v="Grit box located near 800 St. Laurent"/></node><node lat="45.322032" lon="-75.931004"  id="-63"  changeset="false" ><tag k="amenity" v="grit_bin"/><tag k="access" v="yes"/><tag k="operator" v="City of Ottawa"/><tag k="source" v="City of Ottawa"/><tag k="ref" v="1"/><tag k="source:date" v="2018-08-03"/><tag k="description" v="Grit box located near 434 Brunskill"/></node><node lat="45.372898" lon="-75.783204"  id="-64"  changeset="false" ><tag k="amenity" v="grit_bin"/><tag k="access" v="yes"/><tag k="operator" v="City of Ottawa"/><tag k="source" v="City of Ottawa"/><tag k="ref" v="4"/><tag k="source:date" v="2018-08-03"/><tag k="description" v="Grit box located near 31 McEwen"/></node><node lat="45.398769" lon="-75.686524"  id="-65"  changeset="false" ><tag k="amenity" v="grit_bin"/><tag k="access" v="yes"/><tag k="operator" v="City of Ottawa"/><tag k="source" v="City of Ottawa"/><tag k="ref" v="65"/><tag k="source:date" v="2018-08-03"/><tag k="description" v="Grit box located near 77 Monk"/></node><node lat="45.371916" lon="-75.782743"  id="-66"  changeset="false" ><tag k="amenity" v="grit_bin"/><tag k="access" v="yes"/><tag k="operator" v="City of Ottawa"/><tag k="source" v="City of Ottawa"/><tag k="ref" v="5"/><tag k="source:date" v="2018-08-03"/><tag k="description" v="Grit box located near 61 McEwen"/></node><node lat="45.398697" lon="-75.678605"  id="-67"  changeset="false" ><tag k="amenity" v="grit_bin"/><tag k="access" v="yes"/><tag k="operator" v="City of Ottawa"/><tag k="source" v="City of Ottawa"/><tag k="ref" v="67"/><tag k="source:date" v="2018-08-03"/><tag k="description" v="Grit box located near Dead end of Echo"/></node><node lat="45.346241" lon="-75.763071"  id="-68"  changeset="false" ><tag k="amenity" v="grit_bin"/><tag k="access" v="yes"/><tag k="operator" v="City of Ottawa"/><tag k="source" v="City of Ottawa"/><tag k="ref" v="11"/><tag k="source:date" v="2018-08-03"/><tag k="description" v="Grit box located near 100 Constellation"/></node><node lat="45.505845" lon="-75.423576"  id="-69"  changeset="false" ><tag k="amenity" v="grit_bin"/><tag k="access" v="yes"/><tag k="operator" v="City of Ottawa"/><tag k="source" v="City of Ottawa"/><tag k="ref" v="79"/><tag k="source:date" v="2018-08-03"/><tag k="description" v="Grit box located near 1200 Quigley Hill"/></node><node lat="45.375295" lon="-75.773409"  id="-70"  changeset="false" ><tag k="amenity" v="grit_bin"/><tag k="access" v="yes"/><tag k="operator" v="City of Ottawa"/><tag k="source" v="City of Ottawa"/><tag k="ref" v="9"/><tag k="source:date" v="2018-08-03"/><tag k="description" v="Grit box located near 207 Woodroffe"/></node><node lat="45.415054" lon="-75.697403"  id="-71"  changeset="false" ><tag k="amenity" v="grit_bin"/><tag k="access" v="yes"/><tag k="operator" v="City of Ottawa"/><tag k="source" v="City of Ottawa"/><tag k="ref" v="28"/><tag k="source:date" v="2018-08-03"/><tag k="description" v="Grit box located near 395 Somerset"/></node><node lat="45.393551" lon="-75.695815"  id="-72"  changeset="false" ><tag k="amenity" v="grit_bin"/><tag k="access" v="yes"/><tag k="operator" v="City of Ottawa"/><tag k="source" v="City of Ottawa"/><tag k="ref" v="64"/><tag k="source:date" v="2018-08-03"/><tag k="description" v="Grit box located near Bronson - south side of canal bridge (east stairs)"/></node><node lat="45.381825" lon="-75.688098"  id="-73"  changeset="false" ><tag k="amenity" v="grit_bin"/><tag k="access" v="yes"/><tag k="operator" v="City of Ottawa"/><tag k="source" v="City of Ottawa"/><tag k="ref" v="69"/><tag k="source:date" v="2018-08-03"/><tag k="description" v="Grit box located near Bronson - under Dunbar bridge between stairs"/></node><node lat="45.421582" lon="-75.700196"  id="-74"  changeset="false" ><tag k="amenity" v="grit_bin"/><tag k="access" v="yes"/><tag k="operator" v="City of Ottawa"/><tag k="source" v="City of Ottawa"/><tag k="ref" v="27"/><tag k="source:date" v="2018-08-03"/><tag k="description" v="Grit box located near Spark Street Mall between Elgin and Lyon"/></node><node lat="45.394497" lon="-75.696337"  id="-75"  changeset="false" ><tag k="amenity" v="grit_bin"/><tag k="access" v="yes"/><tag k="operator" v="City of Ottawa"/><tag k="source" v="City of Ottawa"/><tag k="ref" v="62"/><tag k="source:date" v="2018-08-03"/><tag k="description" v="Grit box located near Bronson - north side of canal bridge (west stairs)"/></node><node lat="45.394655" lon="-75.695961"  id="-76"  changeset="false" ><tag k="amenity" v="grit_bin"/><tag k="access" v="yes"/><tag k="operator" v="City of Ottawa"/><tag k="source" v="City of Ottawa"/><tag k="ref" v="63"/><tag k="source:date" v="2018-08-03"/><tag k="description" v="Grit box located near Bronson - north side of canal bridge (east stairs)"/></node><node lat="45.422885" lon="-75.691829"  id="-77"  changeset="false" ><tag k="amenity" v="grit_bin"/><tag k="access" v="yes"/><tag k="operator" v="City of Ottawa"/><tag k="source" v="City of Ottawa"/><tag k="ref" v="43"/><tag k="source:date" v="2018-08-03"/><tag k="description" v="Grit box located near Mackenzie King Bridge stairs - top"/></node><node lat="45.424741" lon="-75.688673"  id="-78"  changeset="false" ><tag k="amenity" v="grit_bin"/><tag k="access" v="yes"/><tag k="operator" v="City of Ottawa"/><tag k="source" v="City of Ottawa"/><tag k="ref" v="47"/><tag k="source:date" v="2018-08-03"/><tag k="description" v="Grit box located near Nicholas at stairs to Mackenzie King"/></node><node lat="45.422715" lon="-75.689169"  id="-79"  changeset="false" ><tag k="amenity" v="grit_bin"/><tag k="access" v="yes"/><tag k="operator" v="City of Ottawa"/><tag k="source" v="City of Ottawa"/><tag k="ref" v="48"/><tag k="source:date" v="2018-08-03"/><tag k="description" v="Grit box located near Laurier Bridge stairs - top"/></node><node lat="45.436726" lon="-75.69202"  id="-80"  changeset="false" ><tag k="amenity" v="grit_bin"/><tag k="access" v="yes"/><tag k="operator" v="City of Ottawa"/><tag k="source" v="City of Ottawa"/><tag k="ref" v="39"/><tag k="source:date" v="2018-08-03"/><tag k="description" v="Grit box located near King Edward and Union - base of pathway"/></node><node lat="45.456074" lon="-75.679965"  id="-81"  changeset="false" ><tag k="amenity" v="grit_bin"/><tag k="access" v="yes"/><tag k="operator" v="City of Ottawa"/><tag k="source" v="City of Ottawa"/><tag k="ref" v="54"/><tag k="source:date" v="2018-08-03"/><tag k="description" v="Grit box located near Acacia Lane - top of hill (south side)"/></node></osm>