<?xml version="1.0" encoding="UTF-8"?><osm version="0.6" generator="https://github.com/Rub21/geojson2osm"><node lat="45.414719" lon="-75.695199"  id="-1"  changeset="false" ><tag k="amenity" v="car_sharing"/><tag k="name" v="Vrtucar #01"/><tag k="description" v="356 MacLaren St. at Bank St."/><tag k="operator" v="Vrtucar"/><tag k="website" v="https://www.vrtucar.com"/><tag k="ref" v="120"/></node><node lat="45.428975" lon="-75.68136"  id="-2"  changeset="false" ><tag k="amenity" v="car_sharing"/><tag k="name" v="Vrtucar #03"/><tag k="description" v="240 Daly Ave. at Friel St. (White Wind Zen Bldg.)"/><tag k="operator" v="Vrtucar"/><tag k="website" v="https://www.vrtucar.com"/><tag k="ref" v="122"/></node><node lat="45.412301" lon="-75.712314"  id="-3"  changeset="false" ><tag k="amenity" v="car_sharing"/><tag k="name" v="Vrtucar #04"/><tag k="description" v="190 Booth St"/><tag k="operator" v="Vrtucar"/><tag k="website" v="https://www.vrtucar.com"/><tag k="ref" v="123"/></node><node lat="45.403126" lon="-75.689208"  id="-4"  changeset="false" ><tag k="amenity" v="car_sharing"/><tag k="name" v="Vrtucar #06"/><tag k="description" v="170 Second Ave. at Bank - City Garage - level 1"/><tag k="operator" v="Vrtucar"/><tag k="website" v="https://www.vrtucar.com"/><tag k="ref" v="463"/></node><node lat="45.399943" lon="-75.732067"  id="-5"  changeset="false" ><tag k="amenity" v="car_sharing"/><tag k="name" v="Vrtucar #07"/><tag k="description" v="118 Holland Ave. at Wellington St."/><tag k="operator" v="Vrtucar"/><tag k="website" v="https://www.vrtucar.com"/><tag k="ref" v="126"/></node><node lat="45.410306" lon="-75.697689"  id="-6"  changeset="false" ><tag k="amenity" v="car_sharing"/><tag k="name" v="Vrtucar #08"/><tag k="description" v="498 Gladstone Ave. at Lyon St. N."/><tag k="operator" v="Vrtucar"/><tag k="website" v="https://www.vrtucar.com"/><tag k="ref" v="205"/></node><node lat="45.41368" lon="-75.69329"  id="-7"  changeset="false" ><tag k="amenity" v="car_sharing"/><tag k="name" v="Vrtucar #09"/><tag k="description" v="357 Waverley St. ([In]tempo Design)"/><tag k="operator" v="Vrtucar"/><tag k="website" v="https://www.vrtucar.com"/><tag k="ref" v="208"/></node><node lat="45.422561" lon="-75.679488"  id="-8"  changeset="false" ><tag k="amenity" v="car_sharing"/><tag k="name" v="Vrtucar #10"/><tag k="description" v="197 Somerset St. E. at Henderson Ave. (SH Co-op)"/><tag k="operator" v="Vrtucar"/><tag k="website" v="https://www.vrtucar.com"/><tag k="ref" v="209"/></node><node lat="45.402614" lon="-75.709901"  id="-9"  changeset="false" ><tag k="amenity" v="car_sharing"/><tag k="name" v="Vrtucar #100"/><tag k="description" v="333 Preston St. - Preston Square."/><tag k="operator" v="Vrtucar"/><tag k="website" v="https://www.vrtucar.com"/><tag k="ref" v="942"/></node><node lat="45.409528" lon="-75.716168"  id="-10"  changeset="false" ><tag k="amenity" v="car_sharing"/><tag k="name" v="Vrtucar #101"/><tag k="description" v="148 Elm St (at the cul-de-sac)"/><tag k="operator" v="Vrtucar"/><tag k="website" v="https://www.vrtucar.com"/><tag k="ref" v="947"/></node><node lat="45.383355" lon="-75.753573"  id="-11"  changeset="false" ><tag k="amenity" v="car_sharing"/><tag k="name" v="Vrtucar #102"/><tag k="description" v="411 Dovercourt Ave. (Dovercourt Recreation Centre)"/><tag k="operator" v="Vrtucar"/><tag k="website" v="https://www.vrtucar.com"/><tag k="ref" v="945"/></node><node lat="45.404666" lon="-75.682775"  id="-12"  changeset="false" ><tag k="amenity" v="car_sharing"/><tag k="name" v="Vrtucar #103"/><tag k="description" v="350 Queen Elizabeth Dr - Access via 3rd Ave."/><tag k="operator" v="Vrtucar"/><tag k="website" v="https://www.vrtucar.com"/><tag k="ref" v="948"/></node><node lat="45.405635" lon="-75.705551"  id="-13"  changeset="false" ><tag k="amenity" v="car_sharing"/><tag k="name" v="Vrtucar #104"/><tag k="description" v="270 Bell St North (LIV Building)"/><tag k="operator" v="Vrtucar"/><tag k="website" v="https://www.vrtucar.com"/><tag k="ref" v="956"/></node><node lat="45.449582" lon="-75.651324"  id="-14"  changeset="false" ><tag k="amenity" v="car_sharing"/><tag k="name" v="Vrtucar #105"/><tag k="description" v="345 St. Laurent Blvd. (Rockcliffe Crossing)"/><tag k="operator" v="Vrtucar"/><tag k="website" v="https://www.vrtucar.com"/><tag k="ref" v="955"/></node><node lat="45.399588" lon="-75.693401"  id="-15"  changeset="false" ><tag k="amenity" v="car_sharing"/><tag k="name" v="Vrtucar #106"/><tag k="description" v="261 Fifth Ave. at Percy St"/><tag k="operator" v="Vrtucar"/><tag k="website" v="https://www.vrtucar.com"/><tag k="ref" v="1005"/></node><node lat="45.411936" lon="-75.703468"  id="-16"  changeset="false" ><tag k="amenity" v="car_sharing"/><tag k="name" v="Vrtucar #107"/><tag k="description" v="141-A Percy St at Somerset Ave W."/><tag k="operator" v="Vrtucar"/><tag k="website" v="https://www.vrtucar.com"/><tag k="ref" v="1006"/></node><node lat="45.414709" lon="-75.691685"  id="-17"  changeset="false" ><tag k="amenity" v="car_sharing"/><tag k="name" v="Vrtucar #108"/><tag k="description" v="376 Lewis St. (Fleming Property)"/><tag k="operator" v="Vrtucar"/><tag k="website" v="https://www.vrtucar.com"/><tag k="ref" v="1007"/></node><node lat="45.430502" lon="-75.686856"  id="-18"  changeset="false" ><tag k="amenity" v="car_sharing"/><tag k="name" v="Vrtucar #109"/><tag k="description" v="327 King Edward Ave.  York St (Champagne Pool)"/><tag k="operator" v="Vrtucar"/><tag k="website" v="https://www.vrtucar.com"/><tag k="ref" v="1008"/></node><node lat="45.399644" lon="-75.712306"  id="-19"  changeset="false" ><tag k="amenity" v="car_sharing"/><tag k="name" v="Vrtucar #110"/><tag k="description" v="116 Beech St at Champagne Ave S (Di Rienzo's)"/><tag k="operator" v="Vrtucar"/><tag k="website" v="https://www.vrtucar.com"/><tag k="ref" v="1012"/></node><node lat="45.411119" lon="-75.708972"  id="-20"  changeset="false" ><tag k="amenity" v="car_sharing"/><tag k="name" v="Vrtucar #111"/><tag k="description" v="100 Empress Ave - Desjardins Co-Op"/><tag k="operator" v="Vrtucar"/><tag k="website" v="https://www.vrtucar.com"/><tag k="ref" v="1045"/></node><node lat="45.431297" lon="-75.659725"  id="-21"  changeset="false" ><tag k="amenity" v="car_sharing"/><tag k="name" v="Vrtucar #112"/><tag k="description" v="248 McArthur Ave @ Crete Place"/><tag k="operator" v="Vrtucar"/><tag k="website" v="https://www.vrtucar.com"/><tag k="ref" v="1048"/></node><node lat="45.431008" lon="-75.68528"  id="-22"  changeset="false" ><tag k="amenity" v="car_sharing"/><tag k="name" v="Vrtucar #113"/><tag k="description" v="96 Nelson St  York Ave (Spark Auto)"/><tag k="operator" v="Vrtucar"/><tag k="website" v="https://www.vrtucar.com"/><tag k="ref" v="1049"/></node><node lat="45.355402" lon="-75.783018"  id="-23"  changeset="false" ><tag k="amenity" v="car_sharing"/><tag k="name" v="Vrtucar #114"/><tag k="description" v="2611 Queensview Dr.  (WSP Offices)"/><tag k="operator" v="Vrtucar"/><tag k="website" v="https://www.vrtucar.com"/><tag k="ref" v="1051"/></node><node lat="45.417178" lon="-75.686483"  id="-24"  changeset="false" ><tag k="amenity" v="car_sharing"/><tag k="name" v="Vrtucar #115"/><tag k="description" v="Lewis St  Cartier St. (99 Cartier St)"/><tag k="operator" v="Vrtucar"/><tag k="website" v="https://www.vrtucar.com"/><tag k="ref" v="1052"/></node><node lat="45.391916" lon="-75.722601"  id="-25"  changeset="false" ><tag k="amenity" v="car_sharing"/><tag k="name" v="Vrtucar #116"/><tag k="description" v="751 Parkdale Ave -Ottawa Civic Hospital Residence"/><tag k="operator" v="Vrtucar"/><tag k="website" v="https://www.vrtucar.com"/><tag k="ref" v="1162"/></node><node lat="45.371986" lon="-75.78275"  id="-26"  changeset="false" ><tag k="amenity" v="car_sharing"/><tag k="name" v="Vrtucar #117"/><tag k="description" v="61 McEwen Ave @ Ambleside Dr (McEwen Towers)"/><tag k="operator" v="Vrtucar"/><tag k="website" v="https://www.vrtucar.com"/><tag k="ref" v="1147"/></node><node lat="45.395088" lon="-75.683462"  id="-27"  changeset="false" ><tag k="amenity" v="car_sharing"/><tag k="name" v="Vrtucar #118"/><tag k="description" v="1063 Bank St @ Euclid Ave - Old Roy Barber lot"/><tag k="operator" v="Vrtucar"/><tag k="website" v="https://www.vrtucar.com"/><tag k="ref" v="1146"/></node><node lat="45.428114" lon="-75.67848"  id="-28"  changeset="false" ><tag k="amenity" v="car_sharing"/><tag k="name" v="Vrtucar #119"/><tag k="description" v="275 Chapel St  Wilbrod St"/><tag k="operator" v="Vrtucar"/><tag k="website" v="https://www.vrtucar.com"/><tag k="ref" v="1148"/></node><node lat="45.394468" lon="-75.68313"  id="-29"  changeset="false" ><tag k="amenity" v="car_sharing"/><tag k="name" v="Vrtucar #12"/><tag k="description" v="1075 Bank St. at Sunnyside Ave."/><tag k="operator" v="Vrtucar"/><tag k="website" v="https://www.vrtucar.com"/><tag k="ref" v="249"/></node><node lat="45.390665" lon="-75.680172"  id="-30"  changeset="false" ><tag k="amenity" v="car_sharing"/><tag k="name" v="Vrtucar #12a"/><tag k="description" v="1242 Bank St. at Chesley St. (Bond's Decor)"/><tag k="operator" v="Vrtucar"/><tag k="website" v="https://www.vrtucar.com"/><tag k="ref" v="482"/></node><node lat="45.431439" lon="-75.693215"  id="-31"  changeset="false" ><tag k="amenity" v="car_sharing"/><tag k="name" v="Vrtucar #14"/><tag k="description" v="223/253 Dalhousie St. at Guigues Ave."/><tag k="operator" v="Vrtucar"/><tag k="website" v="https://www.vrtucar.com"/><tag k="ref" v="239"/></node><node lat="45.432277" lon="-75.693902"  id="-32"  changeset="false" ><tag k="amenity" v="car_sharing"/><tag k="name" v="Vrtucar #14a"/><tag k="description" v="139 St. Andrew St. at Dalhousie St."/><tag k="operator" v="Vrtucar"/><tag k="website" v="https://www.vrtucar.com"/><tag k="ref" v="438"/></node><node lat="45.401328" lon="-75.721773"  id="-33"  changeset="false" ><tag k="amenity" v="car_sharing"/><tag k="name" v="Vrtucar #15"/><tag k="description" v="102 Fairmont at Gladstone (New ! - Merry Dairy)."/><tag k="operator" v="Vrtucar"/><tag k="website" v="https://www.vrtucar.com"/><tag k="ref" v="247"/></node><node lat="45.399834" lon="-75.726973"  id="-34"  changeset="false" ><tag k="amenity" v="car_sharing"/><tag k="name" v="Vrtucar #15A"/><tag k="description" v="1177 Gladstone Ave. at Parkdale Ave."/><tag k="operator" v="Vrtucar"/><tag k="website" v="https://www.vrtucar.com"/><tag k="ref" v="551"/></node><node lat="45.390927" lon="-75.754721"  id="-35"  changeset="false" ><tag k="amenity" v="car_sharing"/><tag k="name" v="Vrtucar #16"/><tag k="description" v="366 Richmond Rd. (Mountain Equipment Co-op)"/><tag k="operator" v="Vrtucar"/><tag k="website" v="https://www.vrtucar.com"/><tag k="ref" v="253"/></node><node lat="45.411235" lon="-75.706476"  id="-36"  changeset="false" ><tag k="amenity" v="car_sharing"/><tag k="name" v="Vrtucar #17"/><tag k="description" v="687 Somerset W. at Cambridge N. (City lot - Arch)"/><tag k="operator" v="Vrtucar"/><tag k="website" v="https://www.vrtucar.com"/><tag k="ref" v="256"/></node><node lat="45.442357" lon="-75.671197"  id="-37"  changeset="false" ><tag k="amenity" v="car_sharing"/><tag k="name" v="Vrtucar #18"/><tag k="description" v="188 Beechwood Ave. at Marier Ave. (Beechwood Auto)"/><tag k="operator" v="Vrtucar"/><tag k="website" v="https://www.vrtucar.com"/><tag k="ref" v="288"/></node><node lat="45.415469" lon="-75.682964"  id="-38"  changeset="false" ><tag k="amenity" v="car_sharing"/><tag k="name" v="Vrtucar #19"/><tag k="description" v="1 McLeod St. at Queen Elizabeth Dr."/><tag k="operator" v="Vrtucar"/><tag k="website" v="https://www.vrtucar.com"/><tag k="ref" v="259"/></node><node lat="45.41732" lon="-75.699709"  id="-39"  changeset="false" ><tag k="amenity" v="car_sharing"/><tag k="name" v="Vrtucar #21"/><tag k="description" v="218 Gloucester St. (btwn Bank St. and Kent St.)"/><tag k="operator" v="Vrtucar"/><tag k="website" v="https://www.vrtucar.com"/><tag k="ref" v="283"/></node><node lat="45.431533" lon="-75.679488"  id="-40"  changeset="false" ><tag k="amenity" v="car_sharing"/><tag k="name" v="Vrtucar #22"/><tag k="description" v="475 Rideau St. at Augusta  St. (Econolodge)"/><tag k="operator" v="Vrtucar"/><tag k="website" v="https://www.vrtucar.com"/><tag k="ref" v="314"/></node><node lat="45.418832" lon="-75.685844"  id="-41"  changeset="false" ><tag k="amenity" v="car_sharing"/><tag k="name" v="Vrtucar #23"/><tag k="description" v="50 MacLaren St. at MacDonald St."/><tag k="operator" v="Vrtucar"/><tag k="website" v="https://www.vrtucar.com"/><tag k="ref" v="322"/></node><node lat="45.415516" lon="-75.684487"  id="-42"  changeset="false" ><tag k="amenity" v="car_sharing"/><tag k="name" v="Vrtucar #24"/><tag k="description" v="64 Delaware Ave. - East of Cartier St"/><tag k="operator" v="Vrtucar"/><tag k="website" v="https://www.vrtucar.com"/><tag k="ref" v="332"/></node><node lat="45.407282" lon="-75.676848"  id="-43"  changeset="false" ><tag k="amenity" v="car_sharing"/><tag k="name" v="Vrtucar #25"/><tag k="description" v="223 Main St. at Herridge St. (St. Paul's U.)"/><tag k="operator" v="Vrtucar"/><tag k="website" v="https://www.vrtucar.com"/><tag k="ref" v="336"/></node><node lat="45.399497" lon="-75.73461"  id="-44"  changeset="false" ><tag k="amenity" v="car_sharing"/><tag k="name" v="Vrtucar #27"/><tag k="description" v="1277 Wellington St. at Caroline Ave. (Bridgehead)"/><tag k="operator" v="Vrtucar"/><tag k="website" v="https://www.vrtucar.com"/><tag k="ref" v="355"/></node><node lat="45.413676" lon="-75.693117"  id="-45"  changeset="false" ><tag k="amenity" v="car_sharing"/><tag k="name" v="Vrtucar #30"/><tag k="description" v="354 Waverley St. at Bank St."/><tag k="operator" v="Vrtucar"/><tag k="website" v="https://www.vrtucar.com"/><tag k="ref" v="386"/></node><node lat="45.409491" lon="-75.727926"  id="-46"  changeset="false" ><tag k="amenity" v="car_sharing"/><tag k="name" v="Vrtucar #31"/><tag k="description" v="7 Bayview Rd. - Innovation Centre at Bayview Yards"/><tag k="operator" v="Vrtucar"/><tag k="website" v="https://www.vrtucar.com"/><tag k="ref" v="429"/></node><node lat="45.423761" lon="-75.68147"  id="-47"  changeset="false" ><tag k="amenity" v="car_sharing"/><tag k="name" v="Vrtucar #32"/><tag k="description" v="King Edward Ave. at Osgoode St. (U of O, Lot J)"/><tag k="operator" v="Vrtucar"/><tag k="website" v="https://www.vrtucar.com"/><tag k="ref" v="442"/></node><node lat="45.403235" lon="-75.711036"  id="-48"  changeset="false" ><tag k="amenity" v="car_sharing"/><tag k="name" v="Vrtucar #33"/><tag k="description" v="301 Preston St. at 417 (City Lot north of 417)"/><tag k="operator" v="Vrtucar"/><tag k="website" v="https://www.vrtucar.com"/><tag k="ref" v="430"/></node><node lat="45.441674" lon="-75.645027"  id="-49"  changeset="false" ><tag k="amenity" v="car_sharing"/><tag k="name" v="Vrtucar #34"/><tag k="description" v="562 Montreal Rd. at St. Laurent Blvd. (Beer Store)"/><tag k="operator" v="Vrtucar"/><tag k="website" v="https://www.vrtucar.com"/><tag k="ref" v="447"/></node><node lat="45.430712" lon="-75.66907"  id="-50"  changeset="false" ><tag k="amenity" v="car_sharing"/><tag k="name" v="Vrtucar #35"/><tag k="description" v="400 North River Rd. at MacArthur Ave. (Park)"/><tag k="operator" v="Vrtucar"/><tag k="website" v="https://www.vrtucar.com"/><tag k="ref" v="453"/></node><node lat="45.393389" lon="-75.75272"  id="-51"  changeset="false" ><tag k="amenity" v="car_sharing"/><tag k="name" v="Vrtucar #36"/><tag k="description" v="277 Richmond Rd. - Access via Picton Ave."/><tag k="operator" v="Vrtucar"/><tag k="website" v="https://www.vrtucar.com"/><tag k="ref" v="454"/></node><node lat="45.421447" lon="-75.689396"  id="-52"  changeset="false" ><tag k="amenity" v="car_sharing"/><tag k="name" v="Vrtucar #37"/><tag k="description" v="110 Laurier St. W. (City Hall)"/><tag k="operator" v="Vrtucar"/><tag k="website" v="https://www.vrtucar.com"/><tag k="ref" v="485"/></node><node lat="45.397539" lon="-75.740483"  id="-53"  changeset="false" ><tag k="amenity" v="car_sharing"/><tag k="name" v="Vrtucar #38"/><tag k="description" v="1422 Wellington St. W. at Piccadilly Ave."/><tag k="operator" v="Vrtucar"/><tag k="website" v="https://www.vrtucar.com"/><tag k="ref" v="455"/></node><node lat="45.430154" lon="-75.662682"  id="-54"  changeset="false" ><tag k="amenity" v="car_sharing"/><tag k="name" v="Vrtucar #39"/><tag k="description" v="158 McArthur St. - Chateau Vanier - Tower B"/><tag k="operator" v="Vrtucar"/><tag k="website" v="https://www.vrtucar.com"/><tag k="ref" v="549"/></node><node lat="45.427226" lon="-75.679396"  id="-55"  changeset="false" ><tag k="amenity" v="car_sharing"/><tag k="name" v="Vrtucar #40"/><tag k="description" v="353 Friel St. at Laurier St. E. (Sandy Hill Apt.)"/><tag k="operator" v="Vrtucar"/><tag k="website" v="https://www.vrtucar.com"/><tag k="ref" v="223"/></node><node lat="45.418124" lon="-75.689806"  id="-56"  changeset="false" ><tag k="amenity" v="car_sharing"/><tag k="name" v="Vrtucar #41"/><tag k="description" v="154 Somerset St. W. at Elgin St. (St. John's)"/><tag k="operator" v="Vrtucar"/><tag k="website" v="https://www.vrtucar.com"/><tag k="ref" v="487"/></node><node lat="45.417518" lon="-75.703976"  id="-57"  changeset="false" ><tag k="amenity" v="car_sharing"/><tag k="name" v="Vrtucar #42"/><tag k="description" v="185 Lyon St. at Slater St. (Minto Place - Surface)"/><tag k="operator" v="Vrtucar"/><tag k="website" v="https://www.vrtucar.com"/><tag k="ref" v="494"/></node><node lat="45.417486" lon="-75.702123"  id="-58"  changeset="false" ><tag k="amenity" v="car_sharing"/><tag k="name" v="Vrtucar #42A"/><tag k="description" v="350 Slater St. at Lyon St. N. (Minto Place - P1)"/><tag k="operator" v="Vrtucar"/><tag k="website" v="https://www.vrtucar.com"/><tag k="ref" v="550"/></node><node lat="45.374311" lon="-75.769696"  id="-59"  changeset="false" ><tag k="amenity" v="car_sharing"/><tag k="name" v="Vrtucar #44"/><tag k="description" v="2090 Neepawa Ave. at Saville Row (Saville Apt.)"/><tag k="operator" v="Vrtucar"/><tag k="website" v="https://www.vrtucar.com"/><tag k="ref" v="510"/></node><node lat="45.439532" lon="-75.677294"  id="-60"  changeset="false" ><tag k="amenity" v="car_sharing"/><tag k="name" v="Vrtucar #45"/><tag k="description" v="420 Mackay St. - New Edinburgh Retirement - P1"/><tag k="operator" v="Vrtucar"/><tag k="website" v="https://www.vrtucar.com"/><tag k="ref" v="516"/></node><node lat="45.429058" lon="-75.679431"  id="-61"  changeset="false" ><tag k="amenity" v="car_sharing"/><tag k="name" v="Vrtucar #46"/><tag k="description" v="255 Stewart St. at Chapel St.(Nissan NV minicargo)"/><tag k="operator" v="Vrtucar"/><tag k="website" v="https://www.vrtucar.com"/><tag k="ref" v="532"/></node><node lat="45.414965" lon="-75.690511"  id="-62"  changeset="false" ><tag k="amenity" v="car_sharing"/><tag k="name" v="Vrtucar #47"/><tag k="description" v="301 Metcalfe St. at Waverley St."/><tag k="operator" v="Vrtucar"/><tag k="website" v="https://www.vrtucar.com"/><tag k="ref" v="533"/></node><node lat="45.385666" lon="-75.695291"  id="-63"  changeset="false" ><tag k="amenity" v="car_sharing"/><tag k="name" v="Vrtucar #48"/><tag k="description" v="University Dr. (Carleton U., O-Train Station, P-4)"/><tag k="operator" v="Vrtucar"/><tag k="website" v="https://www.vrtucar.com"/><tag k="ref" v="545"/></node><node lat="45.421105" lon="-75.698299"  id="-64"  changeset="false" ><tag k="amenity" v="car_sharing"/><tag k="name" v="Vrtucar #49"/><tag k="description" v="45 O'Connor St. (World Ex.Plaza - P1)"/><tag k="operator" v="Vrtucar"/><tag k="website" v="https://www.vrtucar.com"/><tag k="ref" v="546"/></node><node lat="45.414648" lon="-75.708319"  id="-65"  changeset="false" ><tag k="amenity" v="car_sharing"/><tag k="name" v="Vrtucar #50"/><tag k="description" v="600 Laurier Ave. W. at Bronson Ave. (Northcliff)"/><tag k="operator" v="Vrtucar"/><tag k="website" v="https://www.vrtucar.com"/><tag k="ref" v="433"/></node><node lat="45.346407" lon="-75.761483"  id="-66"  changeset="false" ><tag k="amenity" v="car_sharing"/><tag k="name" v="Vrtucar #51"/><tag k="description" v="100 Constellation Dr. at Baseline Transit Station"/><tag k="operator" v="Vrtucar"/><tag k="website" v="https://www.vrtucar.com"/><tag k="ref" v="373"/></node><node lat="45.395964" lon="-75.74988"  id="-67"  changeset="false" ><tag k="amenity" v="car_sharing"/><tag k="name" v="Vrtucar #52"/><tag k="description" v="317  McRae Ave - (Farm Boy) P1 space #148"/><tag k="operator" v="Vrtucar"/><tag k="website" v="https://www.vrtucar.com"/><tag k="ref" v="255"/></node><node lat="45.421046" lon="-75.669698"  id="-68"  changeset="false" ><tag k="amenity" v="car_sharing"/><tag k="name" v="Vrtucar #53"/><tag k="description" v="140 Mann Ave. (Conservation Co-op  Wiggins Pvt)"/><tag k="operator" v="Vrtucar"/><tag k="website" v="https://www.vrtucar.com"/><tag k="ref" v="531"/></node><node lat="45.429941" lon="-75.691126"  id="-69"  changeset="false" ><tag k="amenity" v="car_sharing"/><tag k="name" v="Vrtucar #54"/><tag k="description" v="141 Clarence at Dalhousie (City Garage )"/><tag k="operator" v="Vrtucar"/><tag k="website" v="https://www.vrtucar.com"/><tag k="ref" v="219"/></node><node lat="45.4163" lon="-75.650584"  id="-70"  changeset="false" ><tag k="amenity" v="car_sharing"/><tag k="name" v="Vrtucar #55"/><tag k="description" v="200 Tremblay Rd. (VIA Rail Station, P2)"/><tag k="operator" v="Vrtucar"/><tag k="website" v="https://www.vrtucar.com"/><tag k="ref" v="590"/></node><node lat="45.415658" lon="-75.713624"  id="-71"  changeset="false" ><tag k="amenity" v="car_sharing"/><tag k="name" v="Vrtucar #56"/><tag k="description" v="90 Booth St. at Fleet St. (Claridge Design Centre)"/><tag k="operator" v="Vrtucar"/><tag k="website" v="https://www.vrtucar.com"/><tag k="ref" v="604"/></node><node lat="45.423395" lon="-75.68652"  id="-72"  changeset="false" ><tag k="amenity" v="car_sharing"/><tag k="name" v="Vrtucar #58"/><tag k="description" v="50 Laurier Ave. E. at Waller St."/><tag k="operator" v="Vrtucar"/><tag k="website" v="https://www.vrtucar.com"/><tag k="ref" v="623"/></node><node lat="45.41588" lon="-75.669378"  id="-73"  changeset="false" ><tag k="amenity" v="car_sharing"/><tag k="name" v="Vrtucar #60"/><tag k="description" v="200 Lees Ave. at Transitway (U of O, Lees Campus)"/><tag k="operator" v="Vrtucar"/><tag k="website" v="https://www.vrtucar.com"/><tag k="ref" v="626"/></node><node lat="45.403519" lon="-75.715488"  id="-74"  changeset="false" ><tag k="amenity" v="car_sharing"/><tag k="name" v="Vrtucar #61"/><tag k="description" v="950 Gladstone Ave. at Loretta Ave. N."/><tag k="operator" v="Vrtucar"/><tag k="website" v="https://www.vrtucar.com"/><tag k="ref" v="631"/></node><node lat="45.364494" lon="-75.789335"  id="-75"  changeset="false" ><tag k="amenity" v="car_sharing"/><tag k="name" v="Vrtucar #62"/><tag k="description" v="Richmond Rd. at Forest St."/><tag k="operator" v="Vrtucar"/><tag k="website" v="https://www.vrtucar.com"/><tag k="ref" v="632"/></node><node lat="45.416123" lon="-75.692282"  id="-76"  changeset="false" ><tag k="amenity" v="car_sharing"/><tag k="name" v="Vrtucar #63"/><tag k="description" v="260 MacLaren St. at Metcalfe St. (Indigo Lot)"/><tag k="operator" v="Vrtucar"/><tag k="website" v="https://www.vrtucar.com"/><tag k="ref" v="642"/></node><node lat="45.38809" lon="-75.67581"  id="-77"  changeset="false" ><tag k="amenity" v="car_sharing"/><tag k="name" v="Vrtucar #64"/><tag k="description" v="1355 Bank St. at Riverside Dr. E."/><tag k="operator" v="Vrtucar"/><tag k="website" v="https://www.vrtucar.com"/><tag k="ref" v="645"/></node><node lat="45.347282" lon="-75.760163"  id="-78"  changeset="false" ><tag k="amenity" v="car_sharing"/><tag k="name" v="Vrtucar #65"/><tag k="description" v="1408 Woodroffe - Algonquin College (ACCE Bldg.)"/><tag k="operator" v="Vrtucar"/><tag k="website" v="https://www.vrtucar.com"/><tag k="ref" v="646"/></node><node lat="45.413638" lon="-75.693114"  id="-79"  changeset="false" ><tag k="amenity" v="car_sharing"/><tag k="name" v="Vrtucar #66"/><tag k="description" v="362 Waverley St (MiniCargo Van)"/><tag k="operator" v="Vrtucar"/><tag k="website" v="https://www.vrtucar.com"/><tag k="ref" v="647"/></node><node lat="45.405531" lon="-75.689986"  id="-80"  changeset="false" ><tag k="amenity" v="car_sharing"/><tag k="name" v="Vrtucar #67"/><tag k="description" v="680 Bank St. at Clemow Ave. (Kunstadt Sports)"/><tag k="operator" v="Vrtucar"/><tag k="website" v="https://www.vrtucar.com"/><tag k="ref" v="651"/></node><node lat="45.390332" lon="-75.758484"  id="-81"  changeset="false" ><tag k="amenity" v="car_sharing"/><tag k="name" v="Vrtucar #68"/><tag k="description" v="420 Berkley Ave. at Richmond Rd. (The Exchange)"/><tag k="operator" v="Vrtucar"/><tag k="website" v="https://www.vrtucar.com"/><tag k="ref" v="658"/></node><node lat="45.367426" lon="-75.7376"  id="-82"  changeset="false" ><tag k="amenity" v="car_sharing"/><tag k="name" v="Vrtucar #69"/><tag k="description" v="130 Central Park Dr. at Staten Way"/><tag k="operator" v="Vrtucar"/><tag k="website" v="https://www.vrtucar.com"/><tag k="ref" v="664"/></node><node lat="45.421107" lon="-75.698299"  id="-83"  changeset="false" ><tag k="amenity" v="car_sharing"/><tag k="name" v="Vrtucar #70"/><tag k="description" v="45 O'Connor St.  (PHEV) World Ex.Plaza - P1"/><tag k="operator" v="Vrtucar"/><tag k="website" v="https://www.vrtucar.com"/><tag k="ref" v="665"/></node><node lat="45.403081" lon="-75.727198"  id="-84"  changeset="false" ><tag k="amenity" v="car_sharing"/><tag k="name" v="Vrtucar #71"/><tag k="description" v="277 *NEW* Carruthers Ave  Armstrong St"/><tag k="operator" v="Vrtucar"/><tag k="website" v="https://www.vrtucar.com"/><tag k="ref" v="666"/></node><node lat="45.406361" lon="-75.732169"  id="-85"  changeset="false" ><tag k="amenity" v="car_sharing"/><tag k="name" v="Vrtucar #72"/><tag k="description" v="201 Parkdale Ave. (SoHo Parkway)"/><tag k="operator" v="Vrtucar"/><tag k="website" v="https://www.vrtucar.com"/><tag k="ref" v="667"/></node><node lat="45.419111" lon="-75.687609"  id="-86"  changeset="false" ><tag k="amenity" v="car_sharing"/><tag k="name" v="Vrtucar #73"/><tag k="description" v="47 Somerset St. W. at MacDonald St."/><tag k="operator" v="Vrtucar"/><tag k="website" v="https://www.vrtucar.com"/><tag k="ref" v="678"/></node><node lat="45.411508" lon="-75.688266"  id="-87"  changeset="false" ><tag k="amenity" v="car_sharing"/><tag k="name" v="Vrtucar #74"/><tag k="description" v="160 Argyle Ave. at Metcalfe St. (Beaver Barracks)"/><tag k="operator" v="Vrtucar"/><tag k="website" v="https://www.vrtucar.com"/><tag k="ref" v="746"/></node><node lat="45.428724" lon="-75.687775"  id="-88"  changeset="false" ><tag k="amenity" v="car_sharing"/><tag k="name" v="Vrtucar #76"/><tag k="description" v="Cumberland St. at George St. (Byward Market Metro)"/><tag k="operator" v="Vrtucar"/><tag k="website" v="https://www.vrtucar.com"/><tag k="ref" v="797"/></node><node lat="45.413342" lon="-75.687585"  id="-89"  changeset="false" ><tag k="amenity" v="car_sharing"/><tag k="name" v="Vrtucar #77"/><tag k="description" v="240 McLeod St. at Metcalfe St. (Museum of Nature)"/><tag k="operator" v="Vrtucar"/><tag k="website" v="https://www.vrtucar.com"/><tag k="ref" v="800"/></node><node lat="45.37939" lon="-75.773314"  id="-90"  changeset="false" ><tag k="amenity" v="car_sharing"/><tag k="name" v="Vrtucar #78"/><tag k="description" v="851 Richmond Rd. (Lord Richmond Apartments)"/><tag k="operator" v="Vrtucar"/><tag k="website" v="https://www.vrtucar.com"/><tag k="ref" v="369"/></node><node lat="45.386437" lon="-75.732749"  id="-91"  changeset="false" ><tag k="amenity" v="car_sharing"/><tag k="name" v="Vrtucar #79"/><tag k="description" v="1274 Carling Ave. at Merivale Rd. (Best Western)"/><tag k="operator" v="Vrtucar"/><tag k="website" v="https://www.vrtucar.com"/><tag k="ref" v="804"/></node><node lat="45.401399" lon="-75.701076"  id="-92"  changeset="false" ><tag k="amenity" v="car_sharing"/><tag k="name" v="Vrtucar #80"/><tag k="description" v="Clemow Ave at Cambridge St. South"/><tag k="operator" v="Vrtucar"/><tag k="website" v="https://www.vrtucar.com"/><tag k="ref" v="808"/></node><node lat="45.413622" lon="-75.707936"  id="-93"  changeset="false" ><tag k="amenity" v="car_sharing"/><tag k="name" v="Vrtucar #81"/><tag k="description" v="200 Bronson Ave. (Cambridge St. across Hospital)"/><tag k="operator" v="Vrtucar"/><tag k="website" v="https://www.vrtucar.com"/><tag k="ref" v="854"/></node><node lat="45.410787" lon="-75.692944"  id="-94"  changeset="false" ><tag k="amenity" v="car_sharing"/><tag k="name" v="Vrtucar #82"/><tag k="description" v="68 Flora St. at Bank St."/><tag k="operator" v="Vrtucar"/><tag k="website" v="https://www.vrtucar.com"/><tag k="ref" v="858"/></node><node lat="45.405571" lon="-75.719775"  id="-95"  changeset="false" ><tag k="amenity" v="car_sharing"/><tag k="name" v="Vrtucar #83"/><tag k="description" v="57 Bayswater Ave. at Somerset St. W. (CLV Bldg.)"/><tag k="operator" v="Vrtucar"/><tag k="website" v="https://www.vrtucar.com"/><tag k="ref" v="824"/></node><node lat="45.435" lon="-75.663569"  id="-96"  changeset="false" ><tag k="amenity" v="car_sharing"/><tag k="name" v="Vrtucar #84"/><tag k="description" v="283 Cyr Ave. at Montreal Rd. (City lot)"/><tag k="operator" v="Vrtucar"/><tag k="website" v="https://www.vrtucar.com"/><tag k="ref" v="834"/></node><node lat="45.433129" lon="-75.691595"  id="-97"  changeset="false" ><tag k="amenity" v="car_sharing"/><tag k="name" v="Vrtucar #85"/><tag k="description" v="227 Cumberland St. at St. Andrew St. (Levesque's)"/><tag k="operator" v="Vrtucar"/><tag k="website" v="https://www.vrtucar.com"/><tag k="ref" v="843"/></node><node lat="45.395805" lon="-75.712756"  id="-98"  changeset="false" ><tag k="amenity" v="car_sharing"/><tag k="name" v="Vrtucar #86"/><tag k="description" v="111 Sherwood Dr. at Carling Ave. (Sherwood Market)"/><tag k="operator" v="Vrtucar"/><tag k="website" v="https://www.vrtucar.com"/><tag k="ref" v="855"/></node><node lat="45.395674" lon="-75.753235"  id="-99"  changeset="false" ><tag k="amenity" v="car_sharing"/><tag k="name" v="Vrtucar #87"/><tag k="description" v="2026 Scott St. (Granite Curling) Mini Cargo NV200"/><tag k="operator" v="Vrtucar"/><tag k="website" v="https://www.vrtucar.com"/><tag k="ref" v="875"/></node><node lat="45.39952" lon="-75.731689"  id="-100"  changeset="false" ><tag k="amenity" v="car_sharing"/><tag k="name" v="Vrtucar #90"/><tag k="description" v="131 Holland Ave. at Wellington St. W. (One3One)"/><tag k="operator" v="Vrtucar"/><tag k="website" v="https://www.vrtucar.com"/><tag k="ref" v="877"/></node><node lat="45.443559" lon="-75.677695"  id="-101"  changeset="false" ><tag k="amenity" v="car_sharing"/><tag k="name" v="Vrtucar #91"/><tag k="description" v="80 Rideau Terr. at Springfield Rd. (Apt. building)"/><tag k="operator" v="Vrtucar"/><tag k="website" v="https://www.vrtucar.com"/><tag k="ref" v="888"/></node><node lat="45.420054" lon="-75.693583"  id="-102"  changeset="false" ><tag k="amenity" v="car_sharing"/><tag k="name" v="Vrtucar #92"/><tag k="description" v="150 Elgin St. at Gloucester St. (Morguard Bldg-P1)"/><tag k="operator" v="Vrtucar"/><tag k="website" v="https://www.vrtucar.com"/><tag k="ref" v="889"/></node><node lat="45.406918" lon="-75.702542"  id="-103"  changeset="false" ><tag k="amenity" v="car_sharing"/><tag k="name" v="Vrtucar #93"/><tag k="description" v="341 Flora St. at Bronson Ave. (Arista Flats Bldg.)"/><tag k="operator" v="Vrtucar"/><tag k="website" v="https://www.vrtucar.com"/><tag k="ref" v="890"/></node><node lat="45.430038" lon="-75.680953"  id="-104"  changeset="false" ><tag k="amenity" v="car_sharing"/><tag k="name" v="Vrtucar #94"/><tag k="description" v="385 Besserer St. at Chapel St. (The Belgarde)"/><tag k="operator" v="Vrtucar"/><tag k="website" v="https://www.vrtucar.com"/><tag k="ref" v="891"/></node><node lat="45.430897" lon="-75.674899"  id="-105"  changeset="false" ><tag k="amenity" v="car_sharing"/><tag k="name" v="Vrtucar #95"/><tag k="description" v="234 Charlotte St. at Stewart St. (The Pickwick)"/><tag k="operator" v="Vrtucar"/><tag k="website" v="https://www.vrtucar.com"/><tag k="ref" v="901"/></node><node lat="45.369801" lon="-75.701503"  id="-106"  changeset="false" ><tag k="amenity" v="car_sharing"/><tag k="name" v="Vrtucar #96"/><tag k="description" v="1435 Prince of Wales Dr. (across from Tim Hortons)"/><tag k="operator" v="Vrtucar"/><tag k="website" v="https://www.vrtucar.com"/><tag k="ref" v="624"/></node><node lat="45.366833" lon="-75.779502"  id="-107"  changeset="false" ><tag k="amenity" v="car_sharing"/><tag k="name" v="Vrtucar #97"/><tag k="description" v="2385 Carling Ave. at Edgeworth Ave. (Apt. Bldg.)"/><tag k="operator" v="Vrtucar"/><tag k="website" v="https://www.vrtucar.com"/><tag k="ref" v="898"/></node><node lat="45.419193" lon="-75.693533"  id="-108"  changeset="false" ><tag k="amenity" v="car_sharing"/><tag k="name" v="Vrtucar #98"/><tag k="description" v="50 Nepean St. - Tribeca West tower P2-B"/><tag k="operator" v="Vrtucar"/><tag k="website" v="https://www.vrtucar.com"/><tag k="ref" v="908"/></node></osm>