<?xml version="1.0" encoding="UTF-8"?><osm version="0.6" generator="https://github.com/Rub21/geojson2osm"><node lat="45.348427" lon="-75.944447"  id="-1"  changeset="false" ><tag k="landuse" v="allotments"/><tag k="name" v="Kanata North Community Gardens"/><tag k="name:fr" v="Jardins communautaires de Kanata-Nord"/><tag k="operator" v="City of Ottawa"/><tag k="source" v="City of Ottawa"/><tag k="source:date" v="2018-08-02"/><tag k="website" v="http://justfood.ca/community-gardening-network/"/><tag k="description" v="Community garden located at Behind 83 Scampton Drive"/></node><node lat="45.410483" lon="-75.692121"  id="-2"  changeset="false" ><tag k="landuse" v="allotments"/><tag k="name" v="Centretown United Centre 507 Community Garden"/><tag k="name:fr" v="Jardin communautaire de l’église unie du centre-ville (autre nom : jardin communautaire du Centre 507)"/><tag k="operator" v="City of Ottawa"/><tag k="source" v="City of Ottawa"/><tag k="source:date" v="2018-08-02"/><tag k="website" v="http://justfood.ca/community-gardening-network/"/><tag k="description" v="Community garden located at 507 Bank St"/></node><node lat="45.42996" lon="-75.559529"  id="-3"  changeset="false" ><tag k="landuse" v="allotments"/><tag k="name" v="Gloucester Allotment Gardens Association (Location 2)"/><tag k="name:fr" v="Jardins collectifs de Gloucester (emplacement no 2)"/><tag k="operator" v="City of Ottawa"/><tag k="source" v="City of Ottawa"/><tag k="source:date" v="2018-08-02"/><tag k="website" v="http://justfood.ca/community-gardening-network/"/><tag k="description" v="Community garden located at Orient Park Drive / 5131 Renaud Rd"/></node><node lat="45.444521" lon="-75.674938"  id="-4"  changeset="false" ><tag k="landuse" v="allotments"/><tag k="name" v="Lindenlea Food  Wildlife Gardens"/><tag k="name:fr" v="Jardin alimentaire et Faunique de Lindenlea"/><tag k="operator" v="City of Ottawa"/><tag k="source" v="City of Ottawa"/><tag k="source:date" v="2018-08-02"/><tag k="website" v="http://justfood.ca/community-gardening-network/"/><tag k="description" v="Community garden located at 15 Rockcliffe Way"/></node><node lat="45.356648" lon="-75.788585"  id="-5"  changeset="false" ><tag k="landuse" v="allotments"/><tag k="name" v="Queensway Terrace North Community Gardens"/><tag k="name:fr" v="Jardins Communautaire de Queensway Terrace"/><tag k="operator" v="City of Ottawa"/><tag k="source" v="City of Ottawa"/><tag k="source:date" v="2018-08-02"/><tag k="website" v="http://justfood.ca/community-gardening-network/"/><tag k="description" v="Community garden located at 950 Alpine Ave."/></node><node lat="45.333751" lon="-75.841493"  id="-6"  changeset="false" ><tag k="landuse" v="allotments"/><tag k="name" v="Maple Hill Urban Farm Community Garden"/><tag k="name:fr" v="Jardin Communautaire Maple Hill Urban Farm"/><tag k="operator" v="City of Ottawa"/><tag k="source" v="City of Ottawa"/><tag k="source:date" v="2018-08-02"/><tag k="website" v="http://justfood.ca/community-gardening-network/"/><tag k="description" v="Community garden located at 200 Moodie Dr."/></node><node lat="45.365574" lon="-75.63076"  id="-7"  changeset="false" ><tag k="landuse" v="allotments"/><tag k="name" v="Revell Court Community Garden"/><tag k="name:fr" v="Jardin Communautaire de Revell Court"/><tag k="operator" v="City of Ottawa"/><tag k="source" v="City of Ottawa"/><tag k="source:date" v="2018-08-02"/><tag k="website" v="http://justfood.ca/community-gardening-network/"/><tag k="description" v="Community garden located at Siren Priv."/></node><node lat="45.43471" lon="-75.644372"  id="-8"  changeset="false" ><tag k="landuse" v="allotments"/><tag k="name" v="800 St.Laurent Community Garden"/><tag k="name:fr" v="Jardin Communautaire de 800 St.Laurent"/><tag k="operator" v="City of Ottawa"/><tag k="source" v="City of Ottawa"/><tag k="source:date" v="2018-08-02"/><tag k="website" v="http://justfood.ca/community-gardening-network/"/><tag k="description" v="Community garden located at 800 St.Laurent Blvd."/></node><node lat="45.397883" lon="-75.618505"  id="-9"  changeset="false" ><tag k="landuse" v="allotments"/><tag k="name" v="Russell Gardens Community Garden"/><tag k="name:fr" v="Jardin Communautaire de Russell Gardens"/><tag k="operator" v="City of Ottawa"/><tag k="source" v="City of Ottawa"/><tag k="source:date" v="2018-08-02"/><tag k="website" v="http://justfood.ca/community-gardening-network/"/><tag k="description" v="Community garden located at 2100 Russell Rd."/></node><node lat="45.350638" lon="-75.677528"  id="-10"  changeset="false" ><tag k="landuse" v="allotments"/><tag k="name" v="The Peaceful Garden"/><tag k="name:fr" v="Le Jardin paisible"/><tag k="operator" v="City of Ottawa"/><tag k="source" v="City of Ottawa"/><tag k="source:date" v="2018-08-02"/><tag k="website" v="http://justfood.ca/community-gardening-network/"/><tag k="description" v="Community garden located at 3225 Uplands Dr."/></node><node lat="45.419646" lon="-75.668028"  id="-11"  changeset="false" ><tag k="landuse" v="allotments"/><tag k="name" v="Sandy Hill CG"/><tag k="name:fr" v="Jardin Communautaire de la Côte-de-Sable"/><tag k="operator" v="City of Ottawa"/><tag k="source" v="City of Ottawa"/><tag k="source:date" v="2018-08-02"/><tag k="website" v="http://justfood.ca/community-gardening-network/"/><tag k="description" v="Community garden located at 154 Mann Ave"/></node><node lat="45.38654" lon="-75.635198"  id="-12"  changeset="false" ><tag k="landuse" v="allotments"/><tag k="name" v="Greenstar Enterprises"/><tag k="name:fr" v="Jardin communautaire Greenstar"/><tag k="operator" v="City of Ottawa"/><tag k="source" v="City of Ottawa"/><tag k="source:date" v="2018-08-02"/><tag k="website" v="http://justfood.ca/community-gardening-network/"/><tag k="description" v="Community garden located at Kilborn Ave, Pleasant Park Ave"/></node><node lat="45.408773" lon="-75.703871"  id="-13"  changeset="false" ><tag k="landuse" v="allotments"/><tag k="name" v="McNabb Park Community Garden"/><tag k="name:fr" v="Jardin communautaire du parc McNabb"/><tag k="operator" v="City of Ottawa"/><tag k="source" v="City of Ottawa"/><tag k="source:date" v="2018-08-02"/><tag k="website" v="http://justfood.ca/community-gardening-network/"/><tag k="description" v="Community garden located at 435 Bronson Ave"/></node><node lat="45.392023" lon="-75.677935"  id="-14"  changeset="false" ><tag k="landuse" v="allotments"/><tag k="name" v="Lexington Green Life Gardens"/><tag k="name:fr" v="Jardin Communautaire Lexington Green Life"/><tag k="operator" v="City of Ottawa"/><tag k="source" v="City of Ottawa"/><tag k="source:date" v="2018-08-02"/><tag k="website" v="http://justfood.ca/community-gardening-network/"/><tag k="description" v="Community garden located at 507 Riverdale Ave."/></node><node lat="45.288886" lon="-75.727086"  id="-15"  changeset="false" ><tag k="landuse" v="allotments"/><tag k="name" v="South Nepean Muslim Centre Community Garden"/><tag k="name:fr" v="Jardin Communautaire de South Nepean Muslim Centre"/><tag k="operator" v="City of Ottawa"/><tag k="source" v="City of Ottawa"/><tag k="source:date" v="2018-08-02"/><tag k="website" v="http://justfood.ca/community-gardening-network/"/><tag k="description" v="Community garden located at 3020 Woodroffe Ave."/></node><node lat="45.391272" lon="-75.638779"  id="-16"  changeset="false" ><tag k="landuse" v="allotments"/><tag k="name" v="Kilborn Allotment Garden"/><tag k="name:fr" v="Jardins Collectifs Kilborn"/><tag k="operator" v="City of Ottawa"/><tag k="source" v="City of Ottawa"/><tag k="source:date" v="2018-08-02"/><tag k="website" v="http://justfood.ca/community-gardening-network/"/><tag k="description" v="Community garden located at 1909/1975 Kilborn Ave."/></node><node lat="45.352028" lon="-75.35267"  id="-17"  changeset="false" ><tag k="landuse" v="allotments"/><tag k="name" v="Vars Community Garden"/><tag k="name:fr" v="Jardin Communautaire Vars"/><tag k="operator" v="City of Ottawa"/><tag k="source" v="City of Ottawa"/><tag k="source:date" v="2018-08-02"/><tag k="website" v="http://justfood.ca/community-gardening-network/"/><tag k="description" v="Community garden located at 5859 Centre St."/></node><node lat="45.414278" lon="-75.671659"  id="-18"  changeset="false" ><tag k="landuse" v="allotments"/><tag k="name" v="Lees Ave Community Garden"/><tag k="name:fr" v="Jardin Communautaire de l'avenue Lees"/><tag k="operator" v="City of Ottawa"/><tag k="source" v="City of Ottawa"/><tag k="source:date" v="2018-08-02"/><tag k="website" v="http://justfood.ca/community-gardening-network/"/><tag k="description" v="Community garden located at 166 Lees Ave."/></node><node lat="45.388645" lon="-75.691291"  id="-19"  changeset="false" ><tag k="landuse" v="allotments"/><tag k="name" v="Brewer Park Community Garden"/><tag k="name:fr" v="Jardin Communautaire de Parc Brewer"/><tag k="operator" v="City of Ottawa"/><tag k="source" v="City of Ottawa"/><tag k="source:date" v="2018-08-02"/><tag k="website" v="http://justfood.ca/community-gardening-network/"/><tag k="description" v="Community garden located at 151 Brewer Way"/></node><node lat="45.352793" lon="-75.775528"  id="-20"  changeset="false" ><tag k="landuse" v="allotments"/><tag k="name" v="Pinecrest Terrace Community Garden"/><tag k="name:fr" v="Jardin Communautaire de Pinecrest Terrace"/><tag k="operator" v="City of Ottawa"/><tag k="source" v="City of Ottawa"/><tag k="source:date" v="2018-08-02"/><tag k="website" v="http://justfood.ca/community-gardening-network/"/><tag k="description" v="Community garden located at 2483 B Iris St."/></node><node lat="45.160115" lon="-75.462098"  id="-21"  changeset="false" ><tag k="landuse" v="allotments"/><tag k="name" v="Osgoode Township Museum Heritage School Garden"/><tag k="name:fr" v="Jardin communautaire du Musée d’Osgoode"/><tag k="operator" v="City of Ottawa"/><tag k="source" v="City of Ottawa"/><tag k="source:date" v="2018-08-02"/><tag k="website" v="http://justfood.ca/community-gardening-network/"/><tag k="description" v="Community garden located at 7818 Lawrence St, Vernon"/></node><node lat="45.425117" lon="-75.684259"  id="-22"  changeset="false" ><tag k="landuse" v="allotments"/><tag k="name" v="St. Joe's Supper Table"/><tag k="name:fr" v="Jardin de la St. Joe’s Supper Table"/><tag k="operator" v="City of Ottawa"/><tag k="source" v="City of Ottawa"/><tag k="source:date" v="2018-08-02"/><tag k="website" v="http://justfood.ca/community-gardening-network/"/><tag k="description" v="Community garden located at 151 Laurier Ave"/></node><node lat="45.271053" lon="-75.757695"  id="-23"  changeset="false" ><tag k="landuse" v="allotments"/><tag k="name" v="West Barrhaven Community Garden"/><tag k="name:fr" v="Jardin communautaire de Barrhaven-Ouest"/><tag k="operator" v="City of Ottawa"/><tag k="source" v="City of Ottawa"/><tag k="source:date" v="2018-08-02"/><tag k="website" v="http://justfood.ca/community-gardening-network/"/><tag k="description" v="Community garden located at 3058 Jockvale Rd."/></node><node lat="45.434638" lon="-75.681301"  id="-24"  changeset="false" ><tag k="landuse" v="allotments"/><tag k="name" v="Lowertown/Basseville Community Garden (AKA: Angel Square Garden / Location 2)"/><tag k="name:fr" v="Jardin communautaire Lowertown/Basse-ville (autre nom : jardin Angel Square / emplacement no 2)"/><tag k="operator" v="City of Ottawa"/><tag k="source" v="City of Ottawa"/><tag k="source:date" v="2018-08-02"/><tag k="website" v="http://justfood.ca/community-gardening-network/"/><tag k="description" v="Community garden located at 40 Cobourg St."/></node><node lat="45.390834" lon="-75.61903"  id="-25"  changeset="false" ><tag k="landuse" v="allotments"/><tag k="name" v="St.Laurent Community Garden"/><tag k="name:fr" v="Jardin communautaire St-Laurent"/><tag k="operator" v="City of Ottawa"/><tag k="source" v="City of Ottawa"/><tag k="source:date" v="2018-08-02"/><tag k="website" v="http://justfood.ca/community-gardening-network/"/><tag k="description" v="Community garden located at 2178-2186 St.Laurent Blvd"/></node><node lat="45.478835" lon="-75.457578"  id="-26"  changeset="false" ><tag k="landuse" v="allotments"/><tag k="name" v="Cardinal Creek Children's Community Garden"/><tag k="name:fr" v="Jardin communautaire pour enfants de Cardinal Creek"/><tag k="operator" v="City of Ottawa"/><tag k="source" v="City of Ottawa"/><tag k="source:date" v="2018-08-02"/><tag k="website" v="http://justfood.ca/community-gardening-network/"/><tag k="description" v="Community garden located at 1825 Trim Rd"/></node><node lat="45.346417" lon="-76.037267"  id="-27"  changeset="false" ><tag k="landuse" v="allotments"/><tag k="name" v="Neighbourhood Tomato Community Garden-West Carleton"/><tag k="name:fr" v="Potager de tomates communautaire de West Carleton"/><tag k="operator" v="City of Ottawa"/><tag k="source" v="City of Ottawa"/><tag k="source:date" v="2018-08-02"/><tag k="website" v="http://justfood.ca/community-gardening-network/"/><tag k="description" v="Community garden located at 3774 Carp Rd."/></node><node lat="45.429355" lon="-75.683103"  id="-28"  changeset="false" ><tag k="landuse" v="allotments"/><tag k="name" v="Oasis Food Growing Project"/><tag k="name:fr" v="Jardin Communautaire Oasis"/><tag k="operator" v="City of Ottawa"/><tag k="source" v="City of Ottawa"/><tag k="source:date" v="2018-08-02"/><tag k="website" v="http://justfood.ca/community-gardening-network/"/><tag k="description" v="Community garden located at 221 Nelson St."/></node><node lat="45.425791" lon="-75.655329"  id="-29"  changeset="false" ><tag k="landuse" v="allotments"/><tag k="name" v="Overbrook Community Garden"/><tag k="name:fr" v="Jardin Communautaire Overbrook"/><tag k="operator" v="City of Ottawa"/><tag k="source" v="City of Ottawa"/><tag k="source:date" v="2018-08-02"/><tag k="website" v="http://justfood.ca/community-gardening-network/"/><tag k="description" v="Community garden located at 33 Quill St."/></node><node lat="45.334284" lon="-75.78754"  id="-30"  changeset="false" ><tag k="landuse" v="allotments"/><tag k="name" v="Leslie Park Community Garden"/><tag k="name:fr" v="Jardin Communautaire de Parc Leslie"/><tag k="operator" v="City of Ottawa"/><tag k="source" v="City of Ottawa"/><tag k="source:date" v="2018-08-02"/><tag k="website" v="http://justfood.ca/community-gardening-network/"/><tag k="description" v="Community garden located at 21 Dayton Cres."/></node><node lat="45.338093" lon="-75.777072"  id="-31"  changeset="false" ><tag k="landuse" v="allotments"/><tag k="name" v="28th Nepean Girl Guide Garden"/><tag k="name:fr" v="Jardin Communautaire des 28e guides"/><tag k="operator" v="City of Ottawa"/><tag k="source" v="City of Ottawa"/><tag k="source:date" v="2018-08-02"/><tag k="website" v="http://justfood.ca/community-gardening-network/"/><tag k="description" v="Community garden located at 19 Parkfield Cres."/></node><node lat="45.350656" lon="-75.810002"  id="-32"  changeset="false" ><tag k="landuse" v="allotments"/><tag k="name" v="Bayshore Community Garden"/><tag k="name:fr" v="Jardin Communautaire Bayshore"/><tag k="operator" v="City of Ottawa"/><tag k="source" v="City of Ottawa"/><tag k="source:date" v="2018-08-02"/><tag k="website" v="http://justfood.ca/community-gardening-network/"/><tag k="description" v="Community garden located at 175 Woodridge Cres."/></node><node lat="45.404151" lon="-75.629053"  id="-33"  changeset="false" ><tag k="landuse" v="allotments"/><tag k="name" v="Russell Heights Community Garden"/><tag k="name:fr" v="Jardin Communautaire de Russell Heights"/><tag k="operator" v="City of Ottawa"/><tag k="source" v="City of Ottawa"/><tag k="source:date" v="2018-08-02"/><tag k="website" v="http://justfood.ca/community-gardening-network/"/><tag k="description" v="Community garden located at 1799 Russell Rd."/></node><node lat="45.439893" lon="-75.665098"  id="-34"  changeset="false" ><tag k="landuse" v="allotments"/><tag k="name" v="Partage Vanier Community Garden"/><tag k="name:fr" v="Jardin Communautaire de Partage Vanier"/><tag k="operator" v="City of Ottawa"/><tag k="source" v="City of Ottawa"/><tag k="source:date" v="2018-08-02"/><tag k="website" v="http://justfood.ca/community-gardening-network/"/><tag k="description" v="Community garden located at 161 Marier St."/></node><node lat="45.438535" lon="-75.661198"  id="-35"  changeset="false" ><tag k="landuse" v="allotments"/><tag k="name" v="Fatima Manor for Seniors"/><tag k="name:fr" v="Manior Fatima Manor"/><tag k="operator" v="City of Ottawa"/><tag k="source" v="City of Ottawa"/><tag k="source:date" v="2018-08-02"/><tag k="website" v="http://justfood.ca/community-gardening-network/"/><tag k="description" v="Community garden located at 280 Montfort St."/></node><node lat="45.405536" lon="-75.649066"  id="-36"  changeset="false" ><tag k="landuse" v="allotments"/><tag k="name" v="Trinity Community Garden"/><tag k="name:fr" v="Jardin Communautaire de Trinity"/><tag k="operator" v="City of Ottawa"/><tag k="source" v="City of Ottawa"/><tag k="source:date" v="2018-08-02"/><tag k="website" v="http://justfood.ca/community-gardening-network/"/><tag k="description" v="Community garden located at 480 Avalon Place"/></node><node lat="45.401471" lon="-75.725522"  id="-37"  changeset="false" ><tag k="landuse" v="allotments"/><tag k="name" v="Ottawa Salus Gladstone Rosemount Garden"/><tag k="name:fr" v="Jardin Communautaire d'Ottawa Salus Gladstone Rosemount"/><tag k="operator" v="City of Ottawa"/><tag k="source" v="City of Ottawa"/><tag k="source:date" v="2018-08-02"/><tag k="website" v="http://justfood.ca/community-gardening-network/"/><tag k="description" v="Community garden located at 31/33 Rosemount Ave"/></node><node lat="45.432997" lon="-75.683721"  id="-38"  changeset="false" ><tag k="landuse" v="allotments"/><tag k="name" v="Beausoleil Garden"/><tag k="name:fr" v="Jardin Beausoleil"/><tag k="operator" v="City of Ottawa"/><tag k="source" v="City of Ottawa"/><tag k="source:date" v="2018-08-02"/><tag k="website" v="http://justfood.ca/community-gardening-network/"/><tag k="description" v="Community garden located at 362 Murray Street"/></node><node lat="45.374809" lon="-75.745209"  id="-39"  changeset="false" ><tag k="landuse" v="allotments"/><tag k="name" v="Carlington Community Garden"/><tag k="name:fr" v="Jardin Communautaire Carlington   Jardin Communautaire Carlington   Jardin Communautaire Carlington   Jardin Communautaire Carlington   Jardin Communautaire Carlington   Jardin Communautaire Carlington   Jardin Communautaire Carlington"/><tag k="operator" v="City of Ottawa"/><tag k="source" v="City of Ottawa"/><tag k="source:date" v="2018-08-02"/><tag k="website" v="http://justfood.ca/community-gardening-network/"/><tag k="description" v="Community garden located at 937 Clyde Ave"/></node><node lat="45.420835" lon="-75.567405"  id="-40"  changeset="false" ><tag k="landuse" v="allotments"/><tag k="name" v="Gloucester Allotment Gardens Association (Location 1)"/><tag k="name:fr" v="Jardins collectifs de Gloucester (emplacement no 1)"/><tag k="operator" v="City of Ottawa"/><tag k="source" v="City of Ottawa"/><tag k="source:date" v="2018-08-02"/><tag k="website" v="http://justfood.ca/community-gardening-network/"/><tag k="description" v="Community garden located at Corner of Weir and Anderson"/></node><node lat="45.34652" lon="-75.718044"  id="-41"  changeset="false" ><tag k="landuse" v="allotments"/><tag k="name" v="Nepean Allotment Gardens Association"/><tag k="name:fr" v="Jardins Collectifs de Nepean"/><tag k="operator" v="City of Ottawa"/><tag k="source" v="City of Ottawa"/><tag k="source:date" v="2018-08-02"/><tag k="website" v="http://justfood.ca/community-gardening-network/"/><tag k="description" v="Community garden located at 230 Viewmount Dr."/></node><node lat="45.418741" lon="-75.669426"  id="-42"  changeset="false" ><tag k="landuse" v="allotments"/><tag k="name" v="Strathcona Heights Community Garden"/><tag k="name:fr" v="Jardin Communautaire de Strathcona Heights"/><tag k="operator" v="City of Ottawa"/><tag k="source" v="City of Ottawa"/><tag k="source:date" v="2018-08-02"/><tag k="website" v="http://justfood.ca/community-gardening-network/"/><tag k="description" v="Community garden located at 430 Wiggins Private"/></node><node lat="45.411803" lon="-75.713344"  id="-43"  changeset="false" ><tag k="landuse" v="allotments"/><tag k="name" v="Sweet Willow Community Garden"/><tag k="name:fr" v="Jardin Communautaire Sweet Willow"/><tag k="operator" v="City of Ottawa"/><tag k="source" v="City of Ottawa"/><tag k="source:date" v="2018-08-02"/><tag k="website" v="http://justfood.ca/community-gardening-network/"/><tag k="description" v="Community garden located at 31 Rochester St."/></node><node lat="45.368132" lon="-75.706743"  id="-44"  changeset="false" ><tag k="landuse" v="allotments"/><tag k="name" v="Debra Dynes Family House Community Garden"/><tag k="name:fr" v="Jardin Communautaire de la maison de la famille de Debra Dynes"/><tag k="operator" v="City of Ottawa"/><tag k="source" v="City of Ottawa"/><tag k="source:date" v="2018-08-02"/><tag k="website" v="http://justfood.ca/community-gardening-network/"/><tag k="description" v="Community garden located at 955 Debra Ave."/></node><node lat="45.405043" lon="-75.699174"  id="-45"  changeset="false" ><tag k="landuse" v="allotments"/><tag k="name" v="Bytown Urban Gardens (BUGs) CG"/><tag k="name:fr" v="Jardin Communautaire Bytown Urban Gardens (BUGs)"/><tag k="operator" v="City of Ottawa"/><tag k="source" v="City of Ottawa"/><tag k="source:date" v="2018-08-02"/><tag k="website" v="http://justfood.ca/community-gardening-network/"/><tag k="description" v="Community garden located at 75 Glendale Ave."/></node><node lat="45.443767" lon="-75.658551"  id="-46"  changeset="false" ><tag k="landuse" v="allotments"/><tag k="name" v="Vanier Community Garden"/><tag k="name:fr" v="Jardin Communautaire Vanier"/><tag k="operator" v="City of Ottawa"/><tag k="source" v="City of Ottawa"/><tag k="source:date" v="2018-08-02"/><tag k="website" v="http://justfood.ca/community-gardening-network/"/><tag k="description" v="Community garden located at 300 Des Pères-Blancs Ave."/></node><node lat="45.427429" lon="-75.677131"  id="-47"  changeset="false" ><tag k="landuse" v="allotments"/><tag k="name" v="Urban Shades Community Garden"/><tag k="name:fr" v="Jardin Communautaire Urban Shades"/><tag k="operator" v="City of Ottawa"/><tag k="source" v="City of Ottawa"/><tag k="source:date" v="2018-08-02"/><tag k="website" v="http://justfood.ca/community-gardening-network/"/><tag k="description" v="Community garden located at 14 Blackburn Ave"/></node><node lat="45.440644" lon="-75.683109"  id="-48"  changeset="false" ><tag k="landuse" v="allotments"/><tag k="name" v="New Edinburgh Community Garden"/><tag k="name:fr" v="Jardin Communautaire de New Edinburgh"/><tag k="operator" v="City of Ottawa"/><tag k="source" v="City of Ottawa"/><tag k="source:date" v="2018-08-02"/><tag k="website" v="http://justfood.ca/community-gardening-network/"/><tag k="description" v="Community garden located at 255 MacKay Street"/></node><node lat="45.415158" lon="-75.685567"  id="-49"  changeset="false" ><tag k="landuse" v="allotments"/><tag k="name" v="Brooke Tower Communal Garden"/><tag k="name:fr" v="Jardin Communautaire Brooke Tower"/><tag k="operator" v="City of Ottawa"/><tag k="source" v="City of Ottawa"/><tag k="source:date" v="2018-08-02"/><tag k="website" v="http://justfood.ca/community-gardening-network/"/><tag k="description" v="Community garden located at 125 Mcleod St."/></node><node lat="45.4152" lon="-75.701676"  id="-50"  changeset="false" ><tag k="landuse" v="allotments"/><tag k="name" v="Centretown Community Gardening Project"/><tag k="name:fr" v="Jardin communautaire du Centre-ville"/><tag k="operator" v="City of Ottawa"/><tag k="source" v="City of Ottawa"/><tag k="source:date" v="2018-08-02"/><tag k="website" v="http://justfood.ca/community-gardening-network/"/><tag k="description" v="Community garden located at 461 Lisgar St."/></node><node lat="45.389434" lon="-75.731063"  id="-51"  changeset="false" ><tag k="landuse" v="allotments"/><tag k="name" v="Growing Up Organic"/><tag k="name:fr" v="Grandir Bio, Les Potagers Scolaires"/><tag k="operator" v="City of Ottawa"/><tag k="source" v="City of Ottawa"/><tag k="source:date" v="2018-08-02"/><tag k="website" v="http://justfood.ca/community-gardening-network/"/><tag k="description" v="Community garden located at 1145 Carling Ave"/></node><node lat="45.401456" lon="-75.650081"  id="-52"  changeset="false" ><tag k="landuse" v="allotments"/><tag k="name" v="CHEO Healing Garden"/><tag k="name:fr" v="Le jardin thérapeutique du CHEO"/><tag k="operator" v="City of Ottawa"/><tag k="source" v="City of Ottawa"/><tag k="source:date" v="2018-08-02"/><tag k="website" v="http://justfood.ca/community-gardening-network/"/><tag k="description" v="Community garden located at 401 Smyth Rd."/></node><node lat="45.401804" lon="-75.625885"  id="-53"  changeset="false" ><tag k="landuse" v="allotments"/><tag k="name" v="Russell Manor Community Garden"/><tag k="name:fr" v="Jardin Communautaire de Russell Manor"/><tag k="operator" v="City of Ottawa"/><tag k="source" v="City of Ottawa"/><tag k="source:date" v="2018-08-02"/><tag k="website" v="http://justfood.ca/community-gardening-network/"/><tag k="description" v="Community garden located at 1909 Russell Road"/></node><node lat="45.427365" lon="-75.636196"  id="-54"  changeset="false" ><tag k="landuse" v="allotments"/><tag k="name" v="Friendship Community Garden"/><tag k="name:fr" v="Jardin Communautaire de l'Amitié"/><tag k="operator" v="City of Ottawa"/><tag k="source" v="City of Ottawa"/><tag k="source:date" v="2018-08-02"/><tag k="website" v="http://justfood.ca/community-gardening-network/"/><tag k="description" v="Community garden located at 1240/1244 Donald St."/></node><node lat="45.33662" lon="-75.730383"  id="-55"  changeset="false" ><tag k="landuse" v="allotments"/><tag k="name" v="Tanglewood Park Community Garden"/><tag k="name:fr" v="Jardin Communautaire de Parc Tanglewood"/><tag k="operator" v="City of Ottawa"/><tag k="source" v="City of Ottawa"/><tag k="source:date" v="2018-08-02"/><tag k="website" v="http://justfood.ca/community-gardening-network/"/><tag k="description" v="Community garden located at 30 Woodfield Dr."/></node><node lat="45.410132" lon="-75.708393"  id="-56"  changeset="false" ><tag k="landuse" v="allotments"/><tag k="name" v="St.Lukes Supper Table"/><tag k="name:fr" v="St.Lukes Supper Table"/><tag k="operator" v="City of Ottawa"/><tag k="source" v="City of Ottawa"/><tag k="source:date" v="2018-08-02"/><tag k="website" v="http://justfood.ca/community-gardening-network/"/><tag k="description" v="Community garden located at 760 Somerset St. West"/></node><node lat="45.417563" lon="-75.709287"  id="-57"  changeset="false" ><tag k="landuse" v="allotments"/><tag k="name" v="Kitigànensag"/><tag k="name:fr" v="Kitigànensag"/><tag k="operator" v="City of Ottawa"/><tag k="source" v="City of Ottawa"/><tag k="source:date" v="2018-08-02"/><tag k="website" v="http://justfood.ca/community-gardening-network/"/><tag k="description" v="Community garden located at 1125 Bronson Ave"/></node><node lat="45.254984" lon="-75.914155"  id="-58"  changeset="false" ><tag k="landuse" v="allotments"/><tag k="name" v="Free Food Project"/><tag k="name:fr" v="Free Food Project"/><tag k="operator" v="City of Ottawa"/><tag k="source" v="City of Ottawa"/><tag k="source:date" v="2018-08-02"/><tag k="website" v="http://justfood.ca/community-gardening-network/"/><tag k="description" v="Community garden located at 1 Carleton Cathcart Street"/></node><node lat="45.35884" lon="-75.800298"  id="-59"  changeset="false" ><tag k="landuse" v="allotments"/><tag k="name" v="Brittania Woods Community Garden"/><tag k="name:fr" v="Jardin Communautaire Brittania Woods"/><tag k="operator" v="City of Ottawa"/><tag k="source" v="City of Ottawa"/><tag k="source:date" v="2018-08-02"/><tag k="website" v="http://justfood.ca/community-gardening-network/"/><tag k="description" v="Community garden located at 107 Ritchie Street"/></node><node lat="45.420498" lon="-75.680228"  id="-60"  changeset="false" ><tag k="landuse" v="allotments"/><tag k="name" v="University of Ottawa Sustainability Office"/><tag k="name:fr" v="Bureau de la durabilité de l'Université d'Ottawa"/><tag k="operator" v="City of Ottawa"/><tag k="source" v="City of Ottawa"/><tag k="source:date" v="2018-08-02"/><tag k="website" v="http://justfood.ca/community-gardening-network/"/><tag k="description" v="Community garden located at 141 Louis-Pasteur Private"/></node><node lat="45.316164" lon="-75.900714"  id="-61"  changeset="false" ><tag k="landuse" v="allotments"/><tag k="name" v="Care  Share Garden"/><tag k="name:fr" v="Jardin communautaire Care and Share"/><tag k="operator" v="City of Ottawa"/><tag k="source" v="City of Ottawa"/><tag k="source:date" v="2018-08-02"/><tag k="website" v="http://justfood.ca/community-gardening-network/"/><tag k="description" v="Community garden located at 3501 Campeau Dr"/></node><node lat="45.44575" lon="-75.610739"  id="-62"  changeset="false" ><tag k="landuse" v="allotments"/><tag k="name" v="Lotus Peace Garden"/><tag k="name:fr" v="Jardin Lotus Peace"/><tag k="operator" v="City of Ottawa"/><tag k="source" v="City of Ottawa"/><tag k="source:date" v="2018-08-02"/><tag k="website" v="http://justfood.ca/community-gardening-network/"/><tag k="description" v="Community garden located at 1722 Montreal Rd"/></node><node lat="45.186248" lon="-75.85169"  id="-63"  changeset="false" ><tag k="landuse" v="allotments"/><tag k="name" v="Richmond Fair Garden"/><tag k="name:fr" v="Jardin de Richmond Fair"/><tag k="operator" v="City of Ottawa"/><tag k="source" v="City of Ottawa"/><tag k="source:date" v="2018-08-02"/><tag k="website" v="http://justfood.ca/community-gardening-network/"/><tag k="description" v="Community garden located at 6121 Perth Street"/></node><node lat="45.372377" lon="-75.649243"  id="-64"  changeset="false" ><tag k="landuse" v="allotments"/><tag k="name" v="Clementine Towers Community Garden"/><tag k="name:fr" v="Jardin communautaire Clementine Towers"/><tag k="operator" v="City of Ottawa"/><tag k="source" v="City of Ottawa"/><tag k="source:date" v="2018-08-02"/><tag k="website" v="http://justfood.ca/community-gardening-network/"/><tag k="description" v="Community garden located at 1535 Heatherington Rd"/></node><node lat="45.326044" lon="-75.77417"  id="-65"  changeset="false" ><tag k="landuse" v="allotments"/><tag k="name" v="Knox Church Community Garden"/><tag k="name:fr" v="Jardin Communautaire de l'église Knox"/><tag k="operator" v="City of Ottawa"/><tag k="source" v="City of Ottawa"/><tag k="source:date" v="2018-08-02"/><tag k="website" v="http://justfood.ca/community-gardening-network/"/><tag k="description" v="Community garden located at 25 Gibard Ave"/></node><node lat="45.372377" lon="-75.649243"  id="-66"  changeset="false" ><tag k="landuse" v="allotments"/><tag k="name" v="The Hope Garden"/><tag k="name:fr" v="Le Jardin L'espoir"/><tag k="operator" v="City of Ottawa"/><tag k="source" v="City of Ottawa"/><tag k="source:date" v="2018-08-02"/><tag k="website" v="http://justfood.ca/community-gardening-network/"/><tag k="description" v="Community garden located at 1535 Heatherington Rd"/></node><node lat="45.392127" lon="-75.754812"  id="-67"  changeset="false" ><tag k="landuse" v="allotments"/><tag k="name" v="Westboro Food Bank"/><tag k="name:fr" v="Banque alimentaire de Westboro"/><tag k="operator" v="City of Ottawa"/><tag k="source" v="City of Ottawa"/><tag k="source:date" v="2018-08-02"/><tag k="website" v="http://justfood.ca/community-gardening-network/"/><tag k="description" v="Community garden located at 347 Richmond Rd"/></node><node lat="45.404063" lon="-75.713059"  id="-68"  changeset="false" ><tag k="landuse" v="allotments"/><tag k="name" v="Ottawa Salus Gladstone Rosemount Garden"/><tag k="name:fr" v="Jardin Communautaire d'Ottawa Salus Gladstone Rosemount"/><tag k="operator" v="City of Ottawa"/><tag k="source" v="City of Ottawa"/><tag k="source:date" v="2018-08-02"/><tag k="website" v="http://justfood.ca/community-gardening-network/"/><tag k="description" v="Community garden located at 930 Gladstone Ave"/></node><node lat="45.295978" lon="-75.887041"  id="-69"  changeset="false" ><tag k="landuse" v="allotments"/><tag k="name" v="Kanata South Community Garden"/><tag k="name:fr" v="Jardins communautaires de Kanata-Sud"/><tag k="operator" v="City of Ottawa"/><tag k="source" v="City of Ottawa"/><tag k="source:date" v="2018-08-02"/><tag k="website" v="http://justfood.ca/community-gardening-network/"/><tag k="description" v="Community garden located at 46 Castlefrank Rd"/></node><node lat="45.291422" lon="-75.880456"  id="-70"  changeset="false" ><tag k="landuse" v="allotments"/><tag k="name" v="Hope Living Community Garden"/><tag k="name:fr" v="Jardin Communautaire Hope Living"/><tag k="operator" v="City of Ottawa"/><tag k="source" v="City of Ottawa"/><tag k="source:date" v="2018-08-02"/><tag k="website" v="http://justfood.ca/community-gardening-network/"/><tag k="description" v="Community garden located at 145 Castlefrank Rd"/></node><node lat="45.368201" lon="-75.772885"  id="-71"  changeset="false" ><tag k="landuse" v="allotments"/><tag k="name" v="Patsy's Planting Patch"/><tag k="name:fr" v="Patsy's Planting Patch"/><tag k="operator" v="City of Ottawa"/><tag k="source" v="City of Ottawa"/><tag k="source:date" v="2018-08-02"/><tag k="website" v="http://justfood.ca/community-gardening-network/"/><tag k="description" v="Community garden located at 820 Woodroffe Ave"/></node><node lat="45.254764" lon="-75.871906"  id="-72"  changeset="false" ><tag k="landuse" v="allotments"/><tag k="name" v="Chapel Ridge Garden"/><tag k="name:fr" v="Jardin Chapel Ridge"/><tag k="operator" v="City of Ottawa"/><tag k="source" v="City of Ottawa"/><tag k="source:date" v="2018-08-02"/><tag k="website" v="http://justfood.ca/community-gardening-network/"/><tag k="description" v="Community garden located at 5660 Flewellyn Rd"/></node><node lat="45.417365" lon="-75.697335"  id="-73"  changeset="false" ><tag k="landuse" v="allotments"/><tag k="name" v="Off Bank"/><tag k="name:fr" v="Off Bank"/><tag k="operator" v="City of Ottawa"/><tag k="source" v="City of Ottawa"/><tag k="source:date" v="2018-08-02"/><tag k="website" v="http://justfood.ca/community-gardening-network/"/><tag k="description" v="Community garden located at 176 Nepean Street"/></node><node lat="45.378683" lon="-75.650521"  id="-74"  changeset="false" ><tag k="landuse" v="allotments"/><tag k="name" v="Heron Gate Community Garden"/><tag k="name:fr" v="Jardin Communautaire de Heron Gate"/><tag k="operator" v="City of Ottawa"/><tag k="source" v="City of Ottawa"/><tag k="source:date" v="2018-08-02"/><tag k="website" v="http://justfood.ca/community-gardening-network/"/><tag k="description" v="Community garden located at 2851 Baycrest Dr."/></node><node lat="45.483766" lon="-75.498949"  id="-75"  changeset="false" ><tag k="landuse" v="allotments"/><tag k="name" v="Orleans Community Garden"/><tag k="name:fr" v="Jardin Communautaire d'Orléans"/><tag k="operator" v="City of Ottawa"/><tag k="source" v="City of Ottawa"/><tag k="source:date" v="2018-08-02"/><tag k="website" v="http://justfood.ca/community-gardening-network/"/><tag k="description" v="Community garden located at 3350 St Joseph Blvd."/></node><node lat="45.355244" lon="-75.800579"  id="-76"  changeset="false" ><tag k="landuse" v="allotments"/><tag k="name" v="Michele Heights Community Garden"/><tag k="name:fr" v="Jardin Communautaire de Michele Heights"/><tag k="operator" v="City of Ottawa"/><tag k="source" v="City of Ottawa"/><tag k="source:date" v="2018-08-02"/><tag k="website" v="http://justfood.ca/community-gardening-network/"/><tag k="description" v="Community garden located at 2955 Michele Dr."/></node><node lat="45.345495" lon="-75.773372"  id="-77"  changeset="false" ><tag k="landuse" v="allotments"/><tag k="name" v="Bethany Church Community Garden"/><tag k="name:fr" v="Jardin Communautaire de l'église Bethany"/><tag k="operator" v="City of Ottawa"/><tag k="source" v="City of Ottawa"/><tag k="source:date" v="2018-08-02"/><tag k="website" v="http://justfood.ca/community-gardening-network/"/><tag k="description" v="Community garden located at 382 Centrepointe Dr."/></node><node lat="45.434776" lon="-75.681768"  id="-78"  changeset="false" ><tag k="landuse" v="allotments"/><tag k="name" v="Lowertown/Basseville Community Garden (Location 1)"/><tag k="name:fr" v="Jardin Communautaire Lowertown/Basseville (emplacement no 1)"/><tag k="operator" v="City of Ottawa"/><tag k="source" v="City of Ottawa"/><tag k="source:date" v="2018-08-02"/><tag k="website" v="http://justfood.ca/community-gardening-network/"/><tag k="description" v="Community garden located at 40 Cobourg St."/></node><node lat="45.429319" lon="-75.657705"  id="-79"  changeset="false" ><tag k="landuse" v="allotments"/><tag k="name" v="Chateau Donald Community Garden"/><tag k="name:fr" v="Jardin Communautaire de Chateau Donald"/><tag k="operator" v="City of Ottawa"/><tag k="source" v="City of Ottawa"/><tag k="source:date" v="2018-08-02"/><tag k="website" v="http://justfood.ca/community-gardening-network/"/><tag k="description" v="Community garden located at 251 Donald St."/></node><node lat="45.415313" lon="-75.707487"  id="-80"  changeset="false" ><tag k="landuse" v="allotments"/><tag k="name" v="Nanny Goat Hill Community Garden"/><tag k="name:fr" v="Jardin Communautaire Nanny Goat Hill"/><tag k="operator" v="City of Ottawa"/><tag k="source" v="City of Ottawa"/><tag k="source:date" v="2018-08-02"/><tag k="website" v="http://justfood.ca/community-gardening-network/"/><tag k="description" v="Community garden located at 575/551 Laurier Ave. West"/></node><node lat="45.4061" lon="-75.675998"  id="-81"  changeset="false" ><tag k="landuse" v="allotments"/><tag k="name" v="Ottawa Children's Garden"/><tag k="name:fr" v="Jardin pour enfants d'Ottawa"/><tag k="operator" v="City of Ottawa"/><tag k="source" v="City of Ottawa"/><tag k="source:date" v="2018-08-02"/><tag k="website" v="http://justfood.ca/community-gardening-network/"/><tag k="description" v="Community garden located at 321 Main St."/></node><node lat="45.40796" lon="-75.675381"  id="-82"  changeset="false" ><tag k="landuse" v="allotments"/><tag k="name" v="Ottawa East Community Garden"/><tag k="name:fr" v="Jardin Communautaire d'Ottawa-Est"/><tag k="operator" v="City of Ottawa"/><tag k="source" v="City of Ottawa"/><tag k="source:date" v="2018-08-02"/><tag k="website" v="http://justfood.ca/community-gardening-network/"/><tag k="description" v="Community garden located at 249/223/175 Main St."/></node><node lat="45.43856" lon="-75.595378"  id="-83"  changeset="false" ><tag k="landuse" v="allotments"/><tag k="name" v="Jardin Arrowsmith Thyme-Less Community Garden"/><tag k="name:fr" v="Jardin Communautaire Arrowsmith Thyme-Less"/><tag k="operator" v="City of Ottawa"/><tag k="source" v="City of Ottawa"/><tag k="source:date" v="2018-08-02"/><tag k="website" v="http://justfood.ca/community-gardening-network/"/><tag k="description" v="Community garden located at 2040 Arrowsmith Dr."/></node></osm>