<?xml version="1.0" encoding="UTF-8"?>
<osm version="0.6" generator="https://github.com/Rub21/geojson2osm" upload='never'>
  <node lat="45.383322" lon="-75.337299"  id="-1"  changeset="false" >
    <tag k="name" v="Bearbrook Skateboard Park"/>
    <tag k="leisure" v="pitch"/>
    <tag k="sport" v="skateboard"/>
    <tag k="name:fr" v="Planchodrome Bearbrook"/>
    <tag k="addr:street" v="Russell Road"/>
    <tag k="addr:housenumber" v="8720"/>
    <tag k="description" v="Flat asphalt surface, 5 components"/>
    <tag k="operator" v="City of Ottawa"/>
    <tag k="source" v="City of Ottawa"/>
    <tag k="source:date" v="2017-12-30"/>
    <tag k="ref" v="28014"/>
  </node>
  <node lat="45.467135" lon="-75.546518"  id="-2"  changeset="false" >
    <tag k="name" v="Bob MacQuarrie Skateboard Park (SK8 Extreme Park)"/>
    <tag k="leisure" v="pitch"/>
    <tag k="sport" v="skateboard"/>
    <tag k="name:fr" v="Planchodrome Bob-MacQuarrie (Parc SK8 Extreme)"/>
    <tag k="addr:street" v="Youville Drive"/>
    <tag k="addr:housenumber" v="1490"/>
    <tag k="description" v="Flat asphalt surface, 10 components, City run learn to skateboard programs, City run skateboard camps in summer"/>
    <tag k="operator" v="City of Ottawa"/>
    <tag k="source" v="City of Ottawa"/>
    <tag k="source:date" v="2017-12-30"/>
    <tag k="ref" v="28001"/>
  </node>
  <node lat="45.295014" lon="-75.898611"  id="-3"  changeset="false" >
    <tag k="name" v="Walter Baker Skateboard Park"/>
    <tag k="leisure" v="pitch"/>
    <tag k="sport" v="skateboard"/>
    <tag k="name:fr" v="Planchodrome Walter-Baker"/>
    <tag k="addr:street" v="Charlie Rogers Place"/>
    <tag k="addr:housenumber" v="100"/>
    <tag k="description" v="Concrete bowl, 7,000 sq ft"/>
    <tag k="operator" v="City of Ottawa"/>
    <tag k="source" v="City of Ottawa"/>
    <tag k="source:date" v="2017-12-30"/>
    <tag k="ref" v="28002"/>
  </node>
  <node lat="45.230326" lon="-75.468562"  id="-4"  changeset="false" >
    <tag k="name" v="Roving Skateboard Park Location"/>
    <tag k="leisure" v="pitch"/>
    <tag k="sport" v="skateboard"/>
    <tag k="name:fr" v="Lieu de planchodrome itinérant"/>
    <tag k="addr:street" v="8th Line Road"/>
    <tag k="addr:housenumber" v="2785"/>
    <tag k="description" v="Flat surface, 5 components"/>
    <tag k="operator" v="City of Ottawa"/>
    <tag k="source" v="City of Ottawa"/>
    <tag k="source:date" v="2017-12-30"/>
    <tag k="ref" v="28006"/>
  </node>
  <node lat="45.26066" lon="-75.926651"  id="-5"  changeset="false" >
    <tag k="name" v="Roving Skateboard Park Location"/>
    <tag k="leisure" v="pitch"/>
    <tag k="sport" v="skateboard"/>
    <tag k="name:fr" v="Lieu de planchodrome itinérant"/>
    <tag k="addr:street" v="Warner Colpitts Lane"/>
    <tag k="addr:housenumber" v="10"/>
    <tag k="description" v="Flat surface, 5 components"/>
    <tag k="operator" v="City of Ottawa"/>
    <tag k="source" v="City of Ottawa"/>
    <tag k="source:date" v="2017-12-30"/>
    <tag k="ref" v="28007"/>
  </node>
  <node lat="45.345567" lon="-75.760933"  id="-6"  changeset="false" >
    <tag k="name" v="Legacy Skateboard Park"/>
    <tag k="leisure" v="pitch"/>
    <tag k="sport" v="skateboard"/>
    <tag k="name:fr" v="Planchodrome Legacy"/>
    <tag k="addr:street" v="Centrepointe Drive"/>
    <tag k="addr:housenumber" v="101"/>
    <tag k="description" v="Large concrete bowl, many street and vertical components, 17,000 sq ft"/>
    <tag k="operator" v="City of Ottawa"/>
    <tag k="source" v="City of Ottawa"/>
    <tag k="source:date" v="2017-12-30"/>
    <tag k="ref" v="28016"/>
  </node>
  <node lat="45.375402" lon="-75.625996"  id="-7"  changeset="false" >
    <tag k="name" v="Greenboro Skateboard Park"/>
    <tag k="leisure" v="pitch"/>
    <tag k="sport" v="skateboard"/>
    <tag k="name:fr" v="Planchodrome de Greenboro"/>
    <tag k="addr:street" v="Conroy Road"/>
    <tag k="addr:housenumber" v="3142"/>
    <tag k="description" v="Flat asphalt surface, 5 components"/>
    <tag k="operator" v="City of Ottawa"/>
    <tag k="source" v="City of Ottawa"/>
    <tag k="source:date" v="2017-12-30"/>
    <tag k="ref" v="28018"/>
  </node>
  <node lat="45.290758" lon="-75.85701"  id="-8"  changeset="false" >
    <tag k="name" v="Bridlewood Skateboard Park"/>
    <tag k="leisure" v="pitch"/>
    <tag k="sport" v="skateboard"/>
    <tag k="name:fr" v="Planchodrome Bridlewood"/>
    <tag k="addr:street" v="Stonehaven Drive"/>
    <tag k="addr:housenumber" v="65"/>
    <tag k="description" v="Flat asphalt surface, 5 components"/>
    <tag k="operator" v="City of Ottawa"/>
    <tag k="source" v="City of Ottawa"/>
    <tag k="source:date" v="2017-12-30"/>
    <tag k="ref" v="28019"/>
  </node>
  <node lat="45.47046" lon="-76.206088"  id="-9"  changeset="false" >
    <tag k="name" v="Roving Skateboard Park Location"/>
    <tag k="leisure" v="pitch"/>
    <tag k="sport" v="skateboard"/>
    <tag k="name:fr" v="Lieu de planchodrome itinérant"/>
    <tag k="addr:street" v="Clifford Campbell Street"/>
    <tag k="addr:housenumber" v="100"/>
    <tag k="description" v="Flat surface, 5 components"/>
    <tag k="operator" v="City of Ottawa"/>
    <tag k="source" v="City of Ottawa"/>
    <tag k="source:date" v="2017-12-30"/>
    <tag k="ref" v="28020"/>
  </node>
  <node lat="45.280622" lon="-75.760235"  id="-10"  changeset="false" >
    <tag k="name" v="Roving Skateboard Park Location"/>
    <tag k="leisure" v="pitch"/>
    <tag k="sport" v="skateboard"/>
    <tag k="name:fr" v="Lieu de planchodrome itinérant"/>
    <tag k="addr:street" v="Malvern Drive"/>
    <tag k="addr:housenumber" v="110"/>
    <tag k="description" v="Flat surface, 5 components"/>
    <tag k="operator" v="City of Ottawa"/>
    <tag k="source" v="City of Ottawa"/>
    <tag k="source:date" v="2017-12-30"/>
    <tag k="ref" v="28000"/>
  </node>
  <node lat="45.147642" lon="-75.601185"  id="-11"  changeset="false" >
    <tag k="name" v="Roving Skateboard Park Location"/>
    <tag k="leisure" v="pitch"/>
    <tag k="sport" v="skateboard"/>
    <tag k="name:fr" v="Lieu de planchodrome itinérant"/>
    <tag k="addr:street" v="Osgoode Main Street"/>
    <tag k="addr:housenumber" v="5660"/>
    <tag k="description" v="Flat surface, 5 components"/>
    <tag k="operator" v="City of Ottawa"/>
    <tag k="source" v="City of Ottawa"/>
    <tag k="source:date" v="2017-12-30"/>
    <tag k="ref" v="28008"/>
  </node>
  <node lat="45.408488" lon="-75.703623"  id="-12"  changeset="false" >
    <tag k="name" v="Charlie Bowins Skateboard Park"/>
    <tag k="leisure" v="pitch"/>
    <tag k="sport" v="skateboard"/>
    <tag k="name:fr" v="Planchodrome Charlie-Bowins"/>
    <tag k="addr:street" v="Bronson Avenue"/>
    <tag k="addr:housenumber" v="435"/>
    <tag k="description" v="Flat concrete surface, 10 plus components (large half pipe), City run learn to skateboard programs, City run skateboard camps in summer"/>
    <tag k="operator" v="City of Ottawa"/>
    <tag k="source" v="City of Ottawa"/>
    <tag k="source:date" v="2017-12-30"/>
    <tag k="ref" v="35050"/>
  </node>
  <node lat="45.314087" lon="-75.609516"  id="-13"  changeset="false" >
    <tag k="name" v="Diamond Jubilee Skateboard Park"/>
    <tag k="leisure" v="pitch"/>
    <tag k="sport" v="skateboard"/>
    <tag k="name:fr" v="Planchodrome Jubilé de Diamant"/>
    <tag k="addr:street" v="Findlay Creek Drive"/>
    <tag k="addr:housenumber" v="2810"/>
    <tag k="description" v="Flat asphalt surface, 5 components"/>
    <tag k="operator" v="City of Ottawa"/>
    <tag k="source" v="City of Ottawa"/>
    <tag k="source:date" v="2017-12-30"/>
    <tag k="ref" v="35637"/>
  </node>
  <node lat="45.429643" lon="-75.562797"  id="-14"  changeset="false" >
    <tag k="name" v="Blackburn Skateboard Park"/>
    <tag k="leisure" v="pitch"/>
    <tag k="sport" v="skateboard"/>
    <tag k="name:fr" v="Planchodrome Blackburn"/>
    <tag k="addr:street" v="Glen Park Drive"/>
    <tag k="addr:housenumber" v="190"/>
    <tag k="description" v="Flat asphalt surface, 5 components"/>
    <tag k="operator" v="City of Ottawa"/>
    <tag k="source" v="City of Ottawa"/>
    <tag k="source:date" v="2017-12-30"/>
    <tag k="ref" v="28005"/>
  </node>
  <node lat="45.262229" lon="-75.907109"  id="-15"  changeset="false" >
    <tag k="name" v="Goulbourn Skateboard Park"/>
    <tag k="leisure" v="pitch"/>
    <tag k="sport" v="skateboard"/>
    <tag k="name:fr" v="Planchodrome Goulbourn"/>
    <tag k="addr:street" v="Shea Road"/>
    <tag k="addr:housenumber" v="1500"/>
    <tag k="description" v="Flat asphalt surface, 6 components"/>
    <tag k="operator" v="City of Ottawa"/>
    <tag k="source" v="City of Ottawa"/>
    <tag k="source:date" v="2017-12-30"/>
    <tag k="ref" v="28017"/>
  </node>
  <node lat="45.49905" lon="-76.09245"  id="-16"  changeset="false" >
    <tag k="name" v="Constance Bay Skateboard Park"/>
    <tag k="leisure" v="pitch"/>
    <tag k="sport" v="skateboard"/>
    <tag k="name:fr" v="Planchodrome Constance Bay"/>
    <tag k="addr:street" v="Len Purcell Drive"/>
    <tag k="addr:housenumber" v="262"/>
    <tag k="description" v="Flat asphalt surface, 5 components"/>
    <tag k="operator" v="City of Ottawa"/>
    <tag k="source" v="City of Ottawa"/>
    <tag k="source:date" v="2017-12-30"/>
    <tag k="ref" v="28011"/>
  </node>
  <node lat="45.315356" lon="-75.695392"  id="-17"  changeset="false" >
    <tag k="name" v="Roving Skateboard Park Location"/>
    <tag k="leisure" v="pitch"/>
    <tag k="sport" v="skateboard"/>
    <tag k="name:fr" v="Lieu de planchodrome itinérant"/>
    <tag k="addr:street" v="River Road"/>
    <tag k="addr:housenumber" v="334"/>
    <tag k="description" v="Flat surface, 5 components"/>
    <tag k="operator" v="City of Ottawa"/>
    <tag k="source" v="City of Ottawa"/>
    <tag k="source:date" v="2017-12-30"/>
    <tag k="ref" v="28013"/>
  </node>
  <node lat="45.436442" lon="-75.601158"  id="-18"  changeset="false" >
    <tag k="name" v="Trillium Park Skateboard Park"/>
    <tag k="leisure" v="pitch"/>
    <tag k="sport" v="skateboard"/>
    <tag k="name:fr" v="Planchodrome de Park Trillium"/>
    <tag k="addr:street" v="Ogilvie Road"/>
    <tag k="addr:housenumber" v="2030"/>
    <tag k="description" v="Flat asphalt surface, 5 components"/>
    <tag k="operator" v="City of Ottawa"/>
    <tag k="source" v="City of Ottawa"/>
    <tag k="source:date" v="2017-12-30"/>
    <tag k="ref" v="28004"/>
  </node>
  <node lat="45.281069" lon="-75.743134"  id="-19"  changeset="false" >
    <tag k="name" v="Longfields Skateboard Park"/>
    <tag k="leisure" v="pitch"/>
    <tag k="sport" v="skateboard"/>
    <tag k="name:fr" v="Planchodrome Longfields"/>
    <tag k="addr:street" v="Longfields Drive"/>
    <tag k="addr:housenumber" v="600"/>
    <tag k="description" v="Flat asphalt surface, 10 plus components"/>
    <tag k="operator" v="City of Ottawa"/>
    <tag k="source" v="City of Ottawa"/>
    <tag k="source:date" v="2017-12-30"/>
    <tag k="ref" v="28015"/>
  </node>
  <node lat="45.400373" lon="-75.681194"  id="-20"  changeset="false" >
    <tag k="name" v="Lansdowne Skateboard Park"/>
    <tag k="leisure" v="pitch"/>
    <tag k="sport" v="skateboard"/>
    <tag k="name:fr" v="Planchodrome Lansdowne"/>
    <tag k="addr:street" v="Queen Elizabeth Driveway"/>
    <tag k="addr:housenumber" v="450"/>
    <tag k="description" v="Flat asphalt surface"/>
    <tag k="operator" v="City of Ottawa"/>
    <tag k="source" v="City of Ottawa"/>
    <tag k="source:date" v="2017-12-30"/>
    <tag k="ref" v="35120"/>
  </node>
  <node lat="45.265286" lon="-75.55323"  id="-21"  changeset="false" >
    <tag k="name" v="Greely Village Skateboard Park"/>
    <tag k="leisure" v="pitch"/>
    <tag k="sport" v="skateboard"/>
    <tag k="name:fr" v="Planchodrome Greely Village"/>
    <tag k="addr:street" v="Parkway Road"/>
    <tag k="addr:housenumber" v="7292"/>
    <tag k="description" v="Flat concrete surface, 5 components"/>
    <tag k="operator" v="City of Ottawa"/>
    <tag k="source" v="City of Ottawa"/>
    <tag k="source:date" v="2017-12-30"/>
    <tag k="ref" v="35815"/>
  </node>
  <node lat="45.222661" lon="-75.686746"  id="-22"  changeset="false" >
    <tag k="name" v="Manotick Skateboard Park"/>
    <tag k="leisure" v="pitch"/>
    <tag k="sport" v="skateboard"/>
    <tag k="name:fr" v="Planchodrome Manotick"/>
    <tag k="addr:street" v="Doctor Leach Drive"/>
    <tag k="addr:housenumber" v="5572"/>
    <tag k="description" v="Flat asphalt surface, 8 components"/>
    <tag k="operator" v="City of Ottawa"/>
    <tag k="source" v="City of Ottawa"/>
    <tag k="source:date" v="2017-12-30"/>
    <tag k="ref" v="28003"/>
  </node>
  <node lat="45.261354" lon="-75.556979"  id="-23"  changeset="false" >
    <tag k="name" v="Roving Skateboard Park Location"/>
    <tag k="leisure" v="pitch"/>
    <tag k="sport" v="skateboard"/>
    <tag k="name:fr" v="Lieu de planchodrome itinérant"/>
    <tag k="addr:street" v="Meadow Drive"/>
    <tag k="addr:housenumber" v="1448"/>
    <tag k="description" v="Flat surface, 5 components"/>
    <tag k="operator" v="City of Ottawa"/>
    <tag k="source" v="City of Ottawa"/>
    <tag k="source:date" v="2017-12-30"/>
    <tag k="ref" v="28010"/>
  </node>
  <node lat="45.275738" lon="-75.747425"  id="-24"  changeset="false" >
    <tag k="name" v="Berrigan Skateboard Park"/>
    <tag k="leisure" v="pitch"/>
    <tag k="sport" v="skateboard"/>
    <tag k="name:fr" v="Planchodrome Berrigan"/>
    <tag k="addr:street" v="Berrigan Drive"/>
    <tag k="addr:housenumber" v="51"/>
    <tag k="description" v="Flat concrete surface, 10 plus components"/>
    <tag k="operator" v="City of Ottawa"/>
    <tag k="source" v="City of Ottawa"/>
    <tag k="source:date" v="2017-12-30"/>
    <tag k="ref" v="35667"/>
  </node>
  <node lat="45.341256" lon="-75.931123"  id="-25"  changeset="false" >
    <tag k="name" v="Innovation Skateboard Park"/>
    <tag k="leisure" v="pitch"/>
    <tag k="sport" v="skateboard"/>
    <tag k="name:fr" v="Planchomdrome Innovation"/>
    <tag k="addr:street" v="Innovation Drive"/>
    <tag k="addr:housenumber" v="4101"/>
    <tag k="description" v="Large concrete bowl, 10 plus components, many street and vertical components"/>
    <tag k="operator" v="City of Ottawa"/>
    <tag k="source" v="City of Ottawa"/>
    <tag k="source:date" v="2017-12-30"/>
    <tag k="ref" v="35299"/>
  </node>
</osm>
