<?xml version="1.0" encoding="UTF-8"?><osm version="0.6" generator="https://github.com/Rub21/geojson2osm"><node lat="45.144117" lon="-75.611449"  id="-1"  changeset="false" ><tag k="name" v="Osgoode Youth Centre Skateboard Park"/><tag k="leisure" v="pitch"/><tag k="sport" v="skateboard"/><tag k="wheelchair" v="yes"/><tag k="name:en" v="Osgoode Youth Centre Skateboard Park"/><tag k="name:fr" v="Planchodrome du Centre des jeunes d'Osgoode"/><tag k="addr:street" v="Osgoode Main Street"/><tag k="addr:housenumber" v="5479"/><tag k="description" v="Flat surface, 5 components"/><tag k="description:en" v="Flat surface, 5 components"/><tag k="description:fr" v="Surface plane, 5 modules"/><tag k="operator" v="City of Ottawa"/><tag k="source" v="City of Ottawa"/><tag k="source:date" v="2022-05-28"/><tag k="ref" v="52237"/></node><node lat="45.450696" lon="-75.632031"  id="-2"  changeset="false" ><tag k="name" v="Eugène Martineau Skateboard Park"/><tag k="leisure" v="pitch"/><tag k="sport" v="skateboard"/><tag k="wheelchair" v="yes"/><tag k="name:en" v="Eugène Martineau Skateboard Park"/><tag k="name:fr" v="Planchodrome Eugène-Martineau"/><tag k="addr:street" v="Mikinak Road"/><tag k="addr:housenumber" v="710"/><tag k="description" v="Flat surface, 5 components"/><tag k="description:en" v="Flat surface, 5 components"/><tag k="description:fr" v="Surface plane, 5 modules"/><tag k="operator" v="City of Ottawa"/><tag k="source" v="City of Ottawa"/><tag k="source:date" v="2022-05-28"/><tag k="ref" v="49251"/></node><node lat="45.383593" lon="-75.752931"  id="-3"  changeset="false" ><tag k="name" v="Dovercourt Recreation Centre Skateboard Park"/><tag k="leisure" v="pitch"/><tag k="sport" v="skateboard"/><tag k="wheelchair" v="no"/><tag k="name:en" v="Dovercourt Recreation Centre Skateboard Park"/><tag k="name:fr" v="Planchodrome du Centre Récréatif Dovercourt"/><tag k="addr:street" v="Dovercourt Avenue"/><tag k="addr:housenumber" v="411"/><tag k="description" v="Double half-pipe"/><tag k="description:en" v="Double half-pipe"/><tag k="description:fr" v="Demi-lune double"/><tag k="operator" v="City of Ottawa"/><tag k="source" v="City of Ottawa"/><tag k="source:date" v="2022-05-28"/><tag k="ref" v="53189"/></node><node lat="45.275405" lon="-75.880953"  id="-4"  changeset="false" ><tag k="name" v="Rouncey Skateborad Park"/><tag k="leisure" v="pitch"/><tag k="sport" v="skateboard"/><tag k="wheelchair" v="yes"/><tag k="name:en" v="Rouncey Skateborad Park"/><tag k="name:fr" v="Planchodrome du parc Rouncey"/><tag k="addr:street" v="Rouncey Road"/><tag k="addr:housenumber" v="590"/><tag k="description" v="Flat surface, 5 components"/><tag k="description:en" v="Flat surface, 5 components"/><tag k="description:fr" v="Surface plane, 5 modules"/><tag k="operator" v="City of Ottawa"/><tag k="source" v="City of Ottawa"/><tag k="source:date" v="2022-05-28"/><tag k="ref" v="52981"/></node><node lat="45.146649" lon="-75.601504"  id="-5"  changeset="false" ><tag k="name" v="Osgoode Community Centre Skateboard Park"/><tag k="leisure" v="pitch"/><tag k="sport" v="skateboard"/><tag k="wheelchair" v="no"/><tag k="name:en" v="Osgoode Community Centre Skateboard Park"/><tag k="name:fr" v="Planchodrome du Centre communautaire d'Osgoode"/><tag k="addr:street" v="Osgoode Main Street"/><tag k="addr:housenumber" v="5660"/><tag k="description" v="Flat surface, 5 components"/><tag k="description:en" v="Flat surface, 5 components"/><tag k="description:fr" v="Surface plane, 5 modules"/><tag k="operator" v="City of Ottawa"/><tag k="source" v="City of Ottawa"/><tag k="source:date" v="2022-05-28"/><tag k="ref" v="53609"/></node><node lat="45.265433" lon="-75.553066"  id="-6"  changeset="false" ><tag k="name" v="Greely Village Skateboard Park"/><tag k="leisure" v="pitch"/><tag k="sport" v="skateboard"/><tag k="wheelchair" v="yes"/><tag k="name:en" v="Greely Village Skateboard Park"/><tag k="name:fr" v="Planchodrome du village de Greely"/><tag k="addr:street" v="Parkway Road"/><tag k="addr:housenumber" v="7292"/><tag k="description" v="Flat concrete surface, 5 components"/><tag k="description:en" v="Flat concrete surface, 5 components"/><tag k="description:fr" v="Surface de béton plane, 5 modules"/><tag k="operator" v="City of Ottawa"/><tag k="source" v="City of Ottawa"/><tag k="source:date" v="2022-05-28"/><tag k="ref" v="35815"/></node><node lat="45.275696" lon="-75.747349"  id="-7"  changeset="false" ><tag k="name" v="Treehouse Mike Skatepark"/><tag k="leisure" v="pitch"/><tag k="sport" v="skateboard"/><tag k="wheelchair" v="no"/><tag k="name:en" v="Treehouse Mike Skatepark"/><tag k="name:fr" v="Planchodrome Treehouse-Mike "/><tag k="addr:street" v="Berrigan Drive"/><tag k="addr:housenumber" v="51"/><tag k="description" v="Flat concrete surface, 10 plus components"/><tag k="description:en" v="Flat concrete surface, 10 plus components"/><tag k="description:fr" v="Surface de béton plane, 10 modules ou plus"/><tag k="operator" v="City of Ottawa"/><tag k="source" v="City of Ottawa"/><tag k="source:date" v="2022-05-28"/><tag k="ref" v="35667"/></node><node lat="45.450391" lon="-75.471004"  id="-8"  changeset="false" ><tag k="name" v="Vista Skateboard Park"/><tag k="leisure" v="pitch"/><tag k="sport" v="skateboard"/><tag k="wheelchair" v="yes"/><tag k="name:en" v="Vista Skateboard Park"/><tag k="name:fr" v="Planchodrome Vista"/><tag k="addr:street" v="Vistapark Drive"/><tag k="addr:housenumber" v="720"/><tag k="description" v="Flat surface, 5 components"/><tag k="description:en" v="Flat surface, 5 components"/><tag k="description:fr" v="Surface plane, 5 modules"/><tag k="operator" v="City of Ottawa"/><tag k="source" v="City of Ottawa"/><tag k="source:date" v="2022-05-28"/><tag k="ref" v="49211"/></node></osm>