<?xml version="1.0" encoding="UTF-8"?>
<osm version="0.6" generator="https://github.com/Rub21/geojson2osm">
  <node lat="45.448953" lon="-75.627974"  id="-1"  changeset="false" >
    <tag k="name" v="Splash Pad - Thornecliffe Park"/>
    <tag k="leisure" v="playground"/>
    <tag k="playground" v="splash_pad"/>
    <tag k="name:fr" v="Aires de jets d'eau - Parc Thornecliffe"/>
    <tag k="addr:housenumber" v="45"/>
    <tag k="addr:street" v="Provender Avenue"/>
    <tag k="wheelchair" v="no"/>
    <tag k="seasonal" v="summer"/>
    <tag k="website" v="http://ottawa.ca/en/residents/recreation-and-parks/swimming#h2"/>
    <tag k="operator" v="City of Ottawa"/>
    <tag k="source" v="City of Ottawa"/>
    <tag k="source:date" v="2017-12-08"/>
    <tag k="ref" v="32431"/>
  </node>
  <node lat="45.349064" lon="-75.709455"  id="-2"  changeset="false" >
    <tag k="name" v="Splash Pad - Citiplace Park"/>
    <tag k="leisure" v="playground"/>
    <tag k="playground" v="splash_pad"/>
    <tag k="name:fr" v="Aires de jets d'eau - Parc Citiplace"/>
    <tag k="addr:housenumber" v="285"/>
    <tag k="addr:street" v="Citiplace Drive"/>
    <tag k="wheelchair" v="no"/>
    <tag k="seasonal" v="summer"/>
    <tag k="website" v="http://ottawa.ca/en/residents/recreation-and-parks/swimming#h2"/>
    <tag k="operator" v="City of Ottawa"/>
    <tag k="source" v="City of Ottawa"/>
    <tag k="source:date" v="2017-12-08"/>
    <tag k="ref" v="36265"/>
  </node>
  <node lat="45.31449" lon="-75.61033"  id="-3"  changeset="false" >
    <tag k="name" v="Splash Pad - Diamond Jubilee Park"/>
    <tag k="leisure" v="playground"/>
    <tag k="playground" v="splash_pad"/>
    <tag k="name:fr" v="Aires de jets d'eau - Parc du Jubilé de Diamant"/>
    <tag k="addr:housenumber" v="2810"/>
    <tag k="addr:street" v="Findlay Creek Drive"/>
    <tag k="wheelchair" v="no"/>
    <tag k="seasonal" v="summer"/>
    <tag k="website" v="http://ottawa.ca/en/residents/recreation-and-parks/swimming#h2"/>
    <tag k="operator" v="City of Ottawa"/>
    <tag k="source" v="City of Ottawa"/>
    <tag k="source:date" v="2017-12-08"/>
    <tag k="ref" v="36269"/>
  </node>
  <node lat="45.427295" lon="-75.525933"  id="-4"  changeset="false" >
    <tag k="name" v="Splash Pad - Bradley Ridge Park"/>
    <tag k="leisure" v="playground"/>
    <tag k="playground" v="splash_pad"/>
    <tag k="name:fr" v="Aires de jets d'eau - Parc Bradley Ridge"/>
    <tag k="addr:housenumber" v="221"/>
    <tag k="addr:street" v="Radhika Court"/>
    <tag k="wheelchair" v="no"/>
    <tag k="seasonal" v="summer"/>
    <tag k="website" v="http://ottawa.ca/en/residents/recreation-and-parks/swimming#h2"/>
    <tag k="operator" v="City of Ottawa"/>
    <tag k="source" v="City of Ottawa"/>
    <tag k="source:date" v="2017-12-08"/>
    <tag k="ref" v="36271"/>
  </node>
  <node lat="45.315283" lon="-75.835094"  id="-5"  changeset="false" >
    <tag k="name" v="Splash Pad - Westcliffe Park"/>
    <tag k="leisure" v="playground"/>
    <tag k="playground" v="splash_pad"/>
    <tag k="name:fr" v="Aires de jets d'eau - Parc Westcliffe"/>
    <tag k="addr:housenumber" v="681"/>
    <tag k="addr:street" v="Seyton Drive"/>
    <tag k="wheelchair" v="no"/>
    <tag k="seasonal" v="summer"/>
    <tag k="website" v="http://ottawa.ca/en/residents/recreation-and-parks/swimming#h2"/>
    <tag k="operator" v="City of Ottawa"/>
    <tag k="source" v="City of Ottawa"/>
    <tag k="source:date" v="2017-12-08"/>
    <tag k="ref" v="32446"/>
  </node>
  <node lat="45.247354" lon="-75.735392"  id="-6"  changeset="false" >
    <tag k="name" v="Splash Pad - Regatta Park"/>
    <tag k="leisure" v="playground"/>
    <tag k="playground" v="splash_pad"/>
    <tag k="name:fr" v="Aires de jets d'eau - Parc Regatta"/>
    <tag k="addr:housenumber" v="150"/>
    <tag k="addr:street" v="Pennant Avenue"/>
    <tag k="wheelchair" v="no"/>
    <tag k="seasonal" v="summer"/>
    <tag k="website" v="http://ottawa.ca/en/residents/recreation-and-parks/swimming#h2"/>
    <tag k="operator" v="City of Ottawa"/>
    <tag k="source" v="City of Ottawa"/>
    <tag k="source:date" v="2017-12-08"/>
    <tag k="ref" v="36272"/>
  </node>
  <node lat="45.271625" lon="-75.699299"  id="-7"  changeset="false" >
    <tag k="name" v="Splash Pad - Claudette Cain Park"/>
    <tag k="leisure" v="playground"/>
    <tag k="playground" v="splash_pad"/>
    <tag k="name:fr" v="Aires de jets d'eau - Parc Claudette-Cain"/>
    <tag k="addr:housenumber" v="660"/>
    <tag k="addr:street" v="River Road"/>
    <tag k="wheelchair" v="no"/>
    <tag k="seasonal" v="summer"/>
    <tag k="website" v="http://ottawa.ca/en/residents/recreation-and-parks/swimming#h2"/>
    <tag k="operator" v="City of Ottawa"/>
    <tag k="source" v="City of Ottawa"/>
    <tag k="source:date" v="2017-12-08"/>
    <tag k="ref" v="36292"/>
  </node>
  <node lat="45.320299" lon="-75.892511"  id="-8"  changeset="false" >
    <tag k="name" v="Splash Pad - Billy Bishop Park"/>
    <tag k="leisure" v="playground"/>
    <tag k="playground" v="splash_pad"/>
    <tag k="name:fr" v="Aires de jets d'eau - Parc Billy-Bishop"/>
    <tag k="addr:housenumber" v="1"/>
    <tag k="addr:street" v="Bishops Mills Drive"/>
    <tag k="wheelchair" v="no"/>
    <tag k="seasonal" v="summer"/>
    <tag k="website" v="http://ottawa.ca/en/residents/recreation-and-parks/swimming#h2"/>
    <tag k="operator" v="City of Ottawa"/>
    <tag k="source" v="City of Ottawa"/>
    <tag k="source:date" v="2017-12-08"/>
    <tag k="ref" v="36274"/>
  </node>
  <node lat="45.285851" lon="-75.858389"  id="-9"  changeset="false" >
    <tag k="name" v="Splash Pad - Bluegrass Park"/>
    <tag k="leisure" v="playground"/>
    <tag k="playground" v="splash_pad"/>
    <tag k="name:fr" v="Aires de jets d'eau - Parc Bluegrass"/>
    <tag k="addr:housenumber" v="199"/>
    <tag k="addr:street" v="Bridgestone Drive"/>
    <tag k="wheelchair" v="no"/>
    <tag k="seasonal" v="summer"/>
    <tag k="website" v="http://ottawa.ca/en/residents/recreation-and-parks/swimming#h2"/>
    <tag k="operator" v="City of Ottawa"/>
    <tag k="source" v="City of Ottawa"/>
    <tag k="source:date" v="2017-12-08"/>
    <tag k="ref" v="36275"/>
  </node>
  <node lat="45.331949" lon="-75.792646"  id="-10"  changeset="false" >
    <tag k="name" v="Splash Pad - Banner Park"/>
    <tag k="leisure" v="playground"/>
    <tag k="playground" v="splash_pad"/>
    <tag k="name:fr" v="Aires de jets d'eau - Parc Banner"/>
    <tag k="addr:housenumber" v="90"/>
    <tag k="addr:street" v="Banner Road"/>
    <tag k="wheelchair" v="no"/>
    <tag k="seasonal" v="summer"/>
    <tag k="website" v="http://ottawa.ca/en/residents/recreation-and-parks/swimming#h2"/>
    <tag k="operator" v="City of Ottawa"/>
    <tag k="source" v="City of Ottawa"/>
    <tag k="source:date" v="2017-12-08"/>
    <tag k="ref" v="31077"/>
  </node>
  <node lat="45.445552" lon="-75.651202"  id="-11"  changeset="false" >
    <tag k="name" v="Splash Pad - Cardinal Glen Park"/>
    <tag k="leisure" v="playground"/>
    <tag k="playground" v="splash_pad"/>
    <tag k="name:fr" v="Aires de jets d'eau - Parc Cardinal Glen"/>
    <tag k="addr:housenumber" v="11"/>
    <tag k="addr:street" v="Dunbarton Court"/>
    <tag k="wheelchair" v="no"/>
    <tag k="seasonal" v="summer"/>
    <tag k="website" v="http://ottawa.ca/en/residents/recreation-and-parks/swimming#h2"/>
    <tag k="operator" v="City of Ottawa"/>
    <tag k="source" v="City of Ottawa"/>
    <tag k="source:date" v="2017-12-08"/>
    <tag k="ref" v="31437"/>
  </node>
  <node lat="45.287241" lon="-75.921073"  id="-12"  changeset="false" >
    <tag k="name" v="Splash Pad - Bandmaster Park"/>
    <tag k="leisure" v="playground"/>
    <tag k="playground" v="splash_pad"/>
    <tag k="name:fr" v="Aires de jets d'eau - Parc Bandmaster"/>
    <tag k="addr:housenumber" v="230"/>
    <tag k="addr:street" v="Mistral Way"/>
    <tag k="wheelchair" v="no"/>
    <tag k="seasonal" v="summer"/>
    <tag k="website" v="http://ottawa.ca/en/residents/recreation-and-parks/swimming#h2"/>
    <tag k="operator" v="City of Ottawa"/>
    <tag k="source" v="City of Ottawa"/>
    <tag k="source:date" v="2017-12-08"/>
    <tag k="ref" v="36277"/>
  </node>
  <node lat="45.24797" lon="-75.725024"  id="-13"  changeset="false" >
    <tag k="name" v="Splash Pad - Kilbirnie Park"/>
    <tag k="leisure" v="playground"/>
    <tag k="playground" v="splash_pad"/>
    <tag k="name:fr" v="Aires de jets d'eau - Parc Kilbirnie"/>
    <tag k="addr:housenumber" v="665"/>
    <tag k="addr:street" v="Kilbirnie Drive"/>
    <tag k="wheelchair" v="no"/>
    <tag k="seasonal" v="summer"/>
    <tag k="website" v="http://ottawa.ca/en/residents/recreation-and-parks/swimming#h2"/>
    <tag k="operator" v="City of Ottawa"/>
    <tag k="source" v="City of Ottawa"/>
    <tag k="source:date" v="2017-12-08"/>
    <tag k="ref" v="36279"/>
  </node>
  <node lat="45.27641" lon="-75.723458"  id="-14"  changeset="false" >
    <tag k="name" v="Splash Pad - Tierney Park"/>
    <tag k="leisure" v="playground"/>
    <tag k="playground" v="splash_pad"/>
    <tag k="name:fr" v="Aires de jets d'eau - Parc Tierney"/>
    <tag k="addr:housenumber" v="50"/>
    <tag k="addr:street" v="Heritage Glen Drive"/>
    <tag k="wheelchair" v="no"/>
    <tag k="seasonal" v="summer"/>
    <tag k="website" v="http://ottawa.ca/en/residents/recreation-and-parks/swimming#h2"/>
    <tag k="operator" v="City of Ottawa"/>
    <tag k="source" v="City of Ottawa"/>
    <tag k="source:date" v="2017-12-08"/>
    <tag k="ref" v="36280"/>
  </node>
  <node lat="45.320307" lon="-75.599075"  id="-15"  changeset="false" >
    <tag k="name" v="Splash Pad - Butterfly Park"/>
    <tag k="leisure" v="playground"/>
    <tag k="playground" v="splash_pad"/>
    <tag k="name:fr" v="Aires de jets d'eau - Parc Butterfly"/>
    <tag k="addr:housenumber" v="711"/>
    <tag k="addr:street" v="Long Point Circle"/>
    <tag k="wheelchair" v="no"/>
    <tag k="seasonal" v="summer"/>
    <tag k="website" v="http://ottawa.ca/en/residents/recreation-and-parks/swimming#h2"/>
    <tag k="operator" v="City of Ottawa"/>
    <tag k="source" v="City of Ottawa"/>
    <tag k="source:date" v="2017-12-08"/>
    <tag k="ref" v="36293"/>
  </node>
  <node lat="45.340093" lon="-75.771198"  id="-16"  changeset="false" >
    <tag k="name" v="Splash Pad - Centrepointe Park"/>
    <tag k="leisure" v="playground"/>
    <tag k="playground" v="splash_pad"/>
    <tag k="name:fr" v="Aires de jets d'eau - Parc Centrepointe"/>
    <tag k="addr:housenumber" v="260"/>
    <tag k="addr:street" v="Centrepointe Drive"/>
    <tag k="wheelchair" v="no"/>
    <tag k="seasonal" v="summer"/>
    <tag k="website" v="http://ottawa.ca/en/residents/recreation-and-parks/swimming#h2"/>
    <tag k="operator" v="City of Ottawa"/>
    <tag k="source" v="City of Ottawa"/>
    <tag k="source:date" v="2017-12-08"/>
    <tag k="ref" v="32670"/>
  </node>
  <node lat="45.436135" lon="-75.686975"  id="-17"  changeset="false" >
    <tag k="name" v="Splash Pad - Bordeleau Park"/>
    <tag k="leisure" v="playground"/>
    <tag k="playground" v="splash_pad"/>
    <tag k="name:fr" v="Aires de jets d'eau - Parc Bordeleau"/>
    <tag k="addr:housenumber" v="349"/>
    <tag k="addr:street" v="Bruyère Street"/>
    <tag k="wheelchair" v="no"/>
    <tag k="seasonal" v="summer"/>
    <tag k="website" v="http://ottawa.ca/en/residents/recreation-and-parks/swimming#h2"/>
    <tag k="operator" v="City of Ottawa"/>
    <tag k="source" v="City of Ottawa"/>
    <tag k="source:date" v="2017-12-08"/>
    <tag k="ref" v="31200"/>
  </node>
  <node lat="45.450765" lon="-75.538442"  id="-18"  changeset="false" >
    <tag k="name" v="Splash Pad - Chapel Hill Park"/>
    <tag k="leisure" v="playground"/>
    <tag k="playground" v="splash_pad"/>
    <tag k="name:fr" v="Aires de jets d'eau - Parc Chapel Hill"/>
    <tag k="addr:housenumber" v="1556"/>
    <tag k="addr:street" v="Forest Valley Drive"/>
    <tag k="wheelchair" v="no"/>
    <tag k="seasonal" v="summer"/>
    <tag k="website" v="http://ottawa.ca/en/residents/recreation-and-parks/swimming#h2"/>
    <tag k="operator" v="City of Ottawa"/>
    <tag k="source" v="City of Ottawa"/>
    <tag k="source:date" v="2017-12-08"/>
    <tag k="ref" v="31401"/>
  </node>
  <node lat="45.331899" lon="-75.766231"  id="-19"  changeset="false" >
    <tag k="name" v="Splash Pad - Charing Park"/>
    <tag k="leisure" v="playground"/>
    <tag k="playground" v="splash_pad"/>
    <tag k="name:fr" v="Aires de jets d'eau - Parc Charing"/>
    <tag k="addr:housenumber" v="37"/>
    <tag k="addr:street" v="Chartwell Avenue"/>
    <tag k="wheelchair" v="no"/>
    <tag k="seasonal" v="summer"/>
    <tag k="website" v="http://ottawa.ca/en/residents/recreation-and-parks/swimming#h2"/>
    <tag k="operator" v="City of Ottawa"/>
    <tag k="source" v="City of Ottawa"/>
    <tag k="source:date" v="2017-12-08"/>
    <tag k="ref" v="31285"/>
  </node>
  <node lat="45.440188" lon="-75.632372"  id="-20"  changeset="false" >
    <tag k="name" v="Splash Pad - Dr. John Hopps Park"/>
    <tag k="leisure" v="playground"/>
    <tag k="playground" v="splash_pad"/>
    <tag k="name:fr" v="Aires de jets d'eau - Parc du Dr-John-Hopps"/>
    <tag k="addr:housenumber" v="300"/>
    <tag k="addr:street" v="Den Haag Drive"/>
    <tag k="wheelchair" v="no"/>
    <tag k="seasonal" v="summer"/>
    <tag k="website" v="http://ottawa.ca/en/residents/recreation-and-parks/swimming#h2"/>
    <tag k="operator" v="City of Ottawa"/>
    <tag k="source" v="City of Ottawa"/>
    <tag k="source:date" v="2017-12-08"/>
    <tag k="ref" v="32551"/>
  </node>
  <node lat="45.443995" lon="-75.604139"  id="-21"  changeset="false" >
    <tag k="name" v="Splash Pad - Elmridge Park"/>
    <tag k="leisure" v="playground"/>
    <tag k="playground" v="splash_pad"/>
    <tag k="name:fr" v="Aires de jets d'eau - Parc Elmridge"/>
    <tag k="addr:housenumber" v="1841"/>
    <tag k="addr:street" v="Elmridge Drive"/>
    <tag k="wheelchair" v="no"/>
    <tag k="seasonal" v="summer"/>
    <tag k="website" v="http://ottawa.ca/en/residents/recreation-and-parks/swimming#h2"/>
    <tag k="operator" v="City of Ottawa"/>
    <tag k="source" v="City of Ottawa"/>
    <tag k="source:date" v="2017-12-08"/>
    <tag k="ref" v="31488"/>
  </node>
  <node lat="45.321764" lon="-75.603732"  id="-22"  changeset="false" >
    <tag k="name" v="Splash Pad - Turtle Park"/>
    <tag k="leisure" v="playground"/>
    <tag k="playground" v="splash_pad"/>
    <tag k="name:fr" v="Aires de jets d'eau - Parc de la Tortue"/>
    <tag k="addr:housenumber" v="720"/>
    <tag k="addr:street" v="White Alder Avenue"/>
    <tag k="wheelchair" v="no"/>
    <tag k="seasonal" v="summer"/>
    <tag k="website" v="http://ottawa.ca/en/residents/recreation-and-parks/swimming#h2"/>
    <tag k="operator" v="City of Ottawa"/>
    <tag k="source" v="City of Ottawa"/>
    <tag k="source:date" v="2017-12-08"/>
    <tag k="ref" v="36282"/>
  </node>
  <node lat="45.358592" lon="-75.929363"  id="-23"  changeset="false" >
    <tag k="name" v="Splash Pad - Brookshire Park"/>
    <tag k="leisure" v="playground"/>
    <tag k="playground" v="splash_pad"/>
    <tag k="name:fr" v="Aires de jets d'eau - Parc Brookshire"/>
    <tag k="addr:housenumber" v="1027"/>
    <tag k="addr:street" v="Klondike Road"/>
    <tag k="wheelchair" v="no"/>
    <tag k="seasonal" v="summer"/>
    <tag k="website" v="http://ottawa.ca/en/residents/recreation-and-parks/swimming#h2"/>
    <tag k="operator" v="City of Ottawa"/>
    <tag k="source" v="City of Ottawa"/>
    <tag k="source:date" v="2017-12-08"/>
    <tag k="ref" v="36294"/>
  </node>
  <node lat="45.46653" lon="-75.484129"  id="-24"  changeset="false" >
    <tag k="name" v="Splash Pad - Gardenway Park"/>
    <tag k="leisure" v="playground"/>
    <tag k="playground" v="splash_pad"/>
    <tag k="name:fr" v="Aires de jets d'eau - Parc Gardenway"/>
    <tag k="addr:housenumber" v="2001"/>
    <tag k="addr:street" v="Gardenway Drive"/>
    <tag k="wheelchair" v="no"/>
    <tag k="seasonal" v="summer"/>
    <tag k="website" v="http://ottawa.ca/en/residents/recreation-and-parks/swimming#h2"/>
    <tag k="operator" v="City of Ottawa"/>
    <tag k="source" v="City of Ottawa"/>
    <tag k="source:date" v="2017-12-08"/>
    <tag k="ref" v="31548"/>
  </node>
  <node lat="45.443667" lon="-75.538862"  id="-25"  changeset="false" >
    <tag k="name" v="Splash Pad - Gérald Poulin Park"/>
    <tag k="leisure" v="playground"/>
    <tag k="playground" v="splash_pad"/>
    <tag k="name:fr" v="Aires de jets d'eau - Parc Gérald-Poulin"/>
    <tag k="addr:housenumber" v="1899"/>
    <tag k="addr:street" v="Du Clairvaux Road"/>
    <tag k="wheelchair" v="no"/>
    <tag k="seasonal" v="summer"/>
    <tag k="website" v="http://ottawa.ca/en/residents/recreation-and-parks/swimming#h2"/>
    <tag k="operator" v="City of Ottawa"/>
    <tag k="source" v="City of Ottawa"/>
    <tag k="source:date" v="2017-12-08"/>
    <tag k="ref" v="31810"/>
  </node>
  <node lat="45.363429" lon="-75.636292"  id="-26"  changeset="false" >
    <tag k="name" v="Splash Pad - Greenboro Park  Community Centre"/>
    <tag k="leisure" v="playground"/>
    <tag k="playground" v="splash_pad"/>
    <tag k="name:fr" v="Aires de jets d'eau - Parc et centre communautaire de Greenboro"/>
    <tag k="addr:housenumber" v="1505"/>
    <tag k="addr:street" v="Cahill Drive"/>
    <tag k="wheelchair" v="no"/>
    <tag k="seasonal" v="summer"/>
    <tag k="website" v="http://ottawa.ca/en/residents/recreation-and-parks/swimming#h2"/>
    <tag k="operator" v="City of Ottawa"/>
    <tag k="source" v="City of Ottawa"/>
    <tag k="source:date" v="2017-12-08"/>
    <tag k="ref" v="31216"/>
  </node>
  <node lat="45.403184" lon="-75.723521"  id="-27"  changeset="false" >
    <tag k="name" v="Splash Pad - Hintonburg Park"/>
    <tag k="leisure" v="playground"/>
    <tag k="playground" v="splash_pad"/>
    <tag k="name:fr" v="Aires de jets d'eau - Parc Hintonburg"/>
    <tag k="addr:housenumber" v="101"/>
    <tag k="addr:street" v="Duhamel Street"/>
    <tag k="wheelchair" v="no"/>
    <tag k="seasonal" v="summer"/>
    <tag k="website" v="http://ottawa.ca/en/residents/recreation-and-parks/swimming#h2"/>
    <tag k="operator" v="City of Ottawa"/>
    <tag k="source" v="City of Ottawa"/>
    <tag k="source:date" v="2017-12-08"/>
    <tag k="ref" v="32273"/>
  </node>
  <node lat="45.372235" lon="-75.672219"  id="-28"  changeset="false" >
    <tag k="name" v="Splash Pad - Kaladar Park"/>
    <tag k="leisure" v="playground"/>
    <tag k="playground" v="splash_pad"/>
    <tag k="name:fr" v="Aires de jets d'eau - Parc Kaladar"/>
    <tag k="addr:housenumber" v="2554"/>
    <tag k="addr:street" v="Kaladar Avenue"/>
    <tag k="wheelchair" v="no"/>
    <tag k="seasonal" v="summer"/>
    <tag k="website" v="http://ottawa.ca/en/residents/recreation-and-parks/swimming#h2"/>
    <tag k="operator" v="City of Ottawa"/>
    <tag k="source" v="City of Ottawa"/>
    <tag k="source:date" v="2017-12-08"/>
    <tag k="ref" v="31668"/>
  </node>
  <node lat="45.431041" lon="-75.635375"  id="-29"  changeset="false" >
    <tag k="name" v="Splash Pad - Cummings Park"/>
    <tag k="leisure" v="playground"/>
    <tag k="playground" v="splash_pad"/>
    <tag k="name:fr" v="Aires de jets d'eau - Parc Cummings (Gloucester)"/>
    <tag k="addr:housenumber" v="1060"/>
    <tag k="addr:street" v="Cummings Avenue"/>
    <tag k="wheelchair" v="no"/>
    <tag k="seasonal" v="summer"/>
    <tag k="website" v="http://ottawa.ca/en/residents/recreation-and-parks/swimming#h2"/>
    <tag k="operator" v="City of Ottawa"/>
    <tag k="source" v="City of Ottawa"/>
    <tag k="source:date" v="2017-12-08"/>
    <tag k="ref" v="36295"/>
  </node>
  <node lat="45.272102" lon="-75.722709"  id="-30"  changeset="false" >
    <tag k="name" v="Splash Pad - Water Dragon Park"/>
    <tag k="leisure" v="playground"/>
    <tag k="playground" v="splash_pad"/>
    <tag k="name:fr" v="Aires de jets d'eau - Parc Water Dragon"/>
    <tag k="addr:housenumber" v="424"/>
    <tag k="addr:street" v="Chapman Mills Drive"/>
    <tag k="wheelchair" v="no"/>
    <tag k="seasonal" v="summer"/>
    <tag k="website" v="http://ottawa.ca/en/residents/recreation-and-parks/swimming#h2"/>
    <tag k="operator" v="City of Ottawa"/>
    <tag k="source" v="City of Ottawa"/>
    <tag k="source:date" v="2017-12-08"/>
    <tag k="ref" v="36285"/>
  </node>
  <node lat="45.405387" lon="-75.708481"  id="-31"  changeset="false" >
    <tag k="name" v="Splash Pad - Piazza Dante Park"/>
    <tag k="leisure" v="playground"/>
    <tag k="playground" v="splash_pad"/>
    <tag k="name:fr" v="Aires de jets d'eau - Parc Piazza Dante"/>
    <tag k="addr:housenumber" v="470"/>
    <tag k="addr:street" v="Booth Street"/>
    <tag k="wheelchair" v="no"/>
    <tag k="seasonal" v="summer"/>
    <tag k="website" v="http://ottawa.ca/en/residents/recreation-and-parks/swimming#h2"/>
    <tag k="operator" v="City of Ottawa"/>
    <tag k="source" v="City of Ottawa"/>
    <tag k="source:date" v="2017-12-08"/>
    <tag k="ref" v="36287"/>
  </node>
  <node lat="45.279003" lon="-75.717219"  id="-32"  changeset="false" >
    <tag k="name" v="Splash Pad - Chapman Mills Park"/>
    <tag k="leisure" v="playground"/>
    <tag k="playground" v="splash_pad"/>
    <tag k="name:fr" v="Aires de jets d'eau - Parc Chapman Mills"/>
    <tag k="addr:housenumber" v="139"/>
    <tag k="addr:street" v="Windhurst Drive"/>
    <tag k="wheelchair" v="no"/>
    <tag k="seasonal" v="summer"/>
    <tag k="website" v="http://ottawa.ca/en/residents/recreation-and-parks/swimming#h2"/>
    <tag k="operator" v="City of Ottawa"/>
    <tag k="source" v="City of Ottawa"/>
    <tag k="source:date" v="2017-12-08"/>
    <tag k="ref" v="32297"/>
  </node>
  <node lat="45.426941" lon="-75.644225"  id="-33"  changeset="false" >
    <tag k="name" v="Splash Pad - Lawson Park"/>
    <tag k="leisure" v="playground"/>
    <tag k="playground" v="splash_pad"/>
    <tag k="name:fr" v="Aires de jets d'eau - Parc Lawson"/>
    <tag k="addr:housenumber" v="491"/>
    <tag k="addr:street" v="Lawson Avenue"/>
    <tag k="wheelchair" v="no"/>
    <tag k="seasonal" v="summer"/>
    <tag k="website" v="http://ottawa.ca/en/residents/recreation-and-parks/swimming#h2"/>
    <tag k="operator" v="City of Ottawa"/>
    <tag k="source" v="City of Ottawa"/>
    <tag k="source:date" v="2017-12-08"/>
    <tag k="ref" v="31721"/>
  </node>
  <node lat="45.463624" lon="-75.513958"  id="-34"  changeset="false" >
    <tag k="name" v="Splash Pad - Marcel Beriault Park"/>
    <tag k="leisure" v="playground"/>
    <tag k="playground" v="splash_pad"/>
    <tag k="name:fr" v="Aires de jets d'eau - Parc Marcel-Bériault"/>
    <tag k="addr:housenumber" v="1691"/>
    <tag k="addr:street" v="Sunview Drive"/>
    <tag k="wheelchair" v="no"/>
    <tag k="seasonal" v="summer"/>
    <tag k="website" v="http://ottawa.ca/en/residents/recreation-and-parks/swimming#h2"/>
    <tag k="operator" v="City of Ottawa"/>
    <tag k="source" v="City of Ottawa"/>
    <tag k="source:date" v="2017-12-08"/>
    <tag k="ref" v="32200"/>
  </node>
  <node lat="45.351897" lon="-75.673277"  id="-35"  changeset="false" >
    <tag k="name" v="Splash Pad - McCarthy Park"/>
    <tag k="leisure" v="playground"/>
    <tag k="playground" v="splash_pad"/>
    <tag k="name:fr" v="Aires de jets d'eau - Parc McCarthy"/>
    <tag k="addr:housenumber" v="3320"/>
    <tag k="addr:street" v="Paul Anda Drive"/>
    <tag k="wheelchair" v="no"/>
    <tag k="seasonal" v="summer"/>
    <tag k="website" v="http://ottawa.ca/en/residents/recreation-and-parks/swimming#h2"/>
    <tag k="operator" v="City of Ottawa"/>
    <tag k="source" v="City of Ottawa"/>
    <tag k="source:date" v="2017-12-08"/>
    <tag k="ref" v="31918"/>
  </node>
  <node lat="45.344767" lon="-75.794668"  id="-36"  changeset="false" >
    <tag k="name" v="Splash Pad - Morrison Park"/>
    <tag k="leisure" v="playground"/>
    <tag k="playground" v="splash_pad"/>
    <tag k="name:fr" v="Aires de jets d'eau - Parc Morrison"/>
    <tag k="addr:housenumber" v="1095"/>
    <tag k="addr:street" v="Morrison Drive"/>
    <tag k="wheelchair" v="no"/>
    <tag k="seasonal" v="summer"/>
    <tag k="website" v="http://ottawa.ca/en/residents/recreation-and-parks/swimming#h2"/>
    <tag k="operator" v="City of Ottawa"/>
    <tag k="source" v="City of Ottawa"/>
    <tag k="source:date" v="2017-12-08"/>
    <tag k="ref" v="32668"/>
  </node>
  <node lat="45.374148" lon="-75.608292"  id="-37"  changeset="false" >
    <tag k="name" v="Splash Pad - Calzavara Family Park"/>
    <tag k="leisure" v="playground"/>
    <tag k="playground" v="splash_pad"/>
    <tag k="name:fr" v="Aires de jets d'eau - Parc de la famille Calzavara"/>
    <tag k="addr:housenumber" v="1602"/>
    <tag k="addr:street" v="Blohm Drive"/>
    <tag k="wheelchair" v="yes"/>
    <tag k="seasonal" v="summer"/>
    <tag k="website" v="http://ottawa.ca/en/residents/recreation-and-parks/swimming#h2"/>
    <tag k="operator" v="City of Ottawa"/>
    <tag k="source" v="City of Ottawa"/>
    <tag k="source:date" v="2017-12-08"/>
    <tag k="ref" v="35603"/>
  </node>
  <node lat="45.429057" lon="-75.622892"  id="-38"  changeset="false" >
    <tag k="name" v="Splash Pad - Palmerston Park"/>
    <tag k="leisure" v="playground"/>
    <tag k="playground" v="splash_pad"/>
    <tag k="name:fr" v="Aires de jets d'eau - Parc Palmerston"/>
    <tag k="addr:housenumber" v="1326"/>
    <tag k="addr:street" v="Ogilvie Road"/>
    <tag k="wheelchair" v="no"/>
    <tag k="seasonal" v="summer"/>
    <tag k="website" v="http://ottawa.ca/en/residents/recreation-and-parks/swimming#h2"/>
    <tag k="operator" v="City of Ottawa"/>
    <tag k="source" v="City of Ottawa"/>
    <tag k="source:date" v="2017-12-08"/>
    <tag k="ref" v="31865"/>
  </node>
  <node lat="45.470976" lon="-75.507877"  id="-39"  changeset="false" >
    <tag k="name" v="Splash Pad - Queenswood Heights Centennial Park"/>
    <tag k="leisure" v="playground"/>
    <tag k="playground" v="splash_pad"/>
    <tag k="name:fr" v="Aires de jets d'eau - Centre communautaire et parc du centenaire Queenswood Heights"/>
    <tag k="addr:housenumber" v="1485"/>
    <tag k="addr:street" v="Duford Drive"/>
    <tag k="wheelchair" v="no"/>
    <tag k="seasonal" v="summer"/>
    <tag k="website" v="http://ottawa.ca/en/residents/recreation-and-parks/swimming#h2"/>
    <tag k="operator" v="City of Ottawa"/>
    <tag k="source" v="City of Ottawa"/>
    <tag k="source:date" v="2017-12-08"/>
    <tag k="ref" v="31427"/>
  </node>
  <node lat="45.443574" lon="-75.528776"  id="-40"  changeset="false" >
    <tag k="name" v="Splash Pad - Silverbirch Park"/>
    <tag k="leisure" v="playground"/>
    <tag k="playground" v="splash_pad"/>
    <tag k="name:fr" v="Aires de jets d'eau - Parc Silverbirch"/>
    <tag k="addr:housenumber" v="6105"/>
    <tag k="addr:street" v="Silverbirch Street"/>
    <tag k="wheelchair" v="no"/>
    <tag k="seasonal" v="summer"/>
    <tag k="website" v="http://ottawa.ca/en/residents/recreation-and-parks/swimming#h2"/>
    <tag k="operator" v="City of Ottawa"/>
    <tag k="source" v="City of Ottawa"/>
    <tag k="source:date" v="2017-12-08"/>
    <tag k="ref" v="32124"/>
  </node>
  <node lat="45.427728" lon="-75.678846"  id="-41"  changeset="false" >
    <tag k="name" v="Splash Pad - Sir Wilfrid Laurier Park"/>
    <tag k="leisure" v="playground"/>
    <tag k="playground" v="splash_pad"/>
    <tag k="name:fr" v="Aires de jets d'eau - Parc Sir-Wilfrid-Laurier"/>
    <tag k="addr:housenumber" v="288"/>
    <tag k="addr:street" v="Chapel Street"/>
    <tag k="wheelchair" v="no"/>
    <tag k="seasonal" v="summer"/>
    <tag k="website" v="http://ottawa.ca/en/residents/recreation-and-parks/swimming#h2"/>
    <tag k="operator" v="City of Ottawa"/>
    <tag k="source" v="City of Ottawa"/>
    <tag k="source:date" v="2017-12-08"/>
    <tag k="ref" v="31279"/>
  </node>
  <node lat="45.281671" lon="-75.741971"  id="-42"  changeset="false" >
    <tag k="name" v="Splash Pad - Ken Ross Park"/>
    <tag k="leisure" v="playground"/>
    <tag k="playground" v="splash_pad"/>
    <tag k="name:fr" v="Aires de jets d'eau - Parc Ken-Ross"/>
    <tag k="addr:housenumber" v="600"/>
    <tag k="addr:street" v="Longfields Drive"/>
    <tag k="wheelchair" v="no"/>
    <tag k="seasonal" v="summer"/>
    <tag k="website" v="http://ottawa.ca/en/residents/recreation-and-parks/swimming#h2"/>
    <tag k="operator" v="City of Ottawa"/>
    <tag k="source" v="City of Ottawa"/>
    <tag k="source:date" v="2017-12-08"/>
    <tag k="ref" v="32651"/>
  </node>
  <node lat="45.363133" lon="-75.672067"  id="-43"  changeset="false" >
    <tag k="name" v="Splash Pad - Stanstead Park"/>
    <tag k="leisure" v="playground"/>
    <tag k="playground" v="splash_pad"/>
    <tag k="name:fr" v="Aires de jets d'eau - Parc Stanstead"/>
    <tag k="addr:housenumber" v="861"/>
    <tag k="addr:street" v="Stanstead Road"/>
    <tag k="wheelchair" v="no"/>
    <tag k="seasonal" v="summer"/>
    <tag k="website" v="http://ottawa.ca/en/residents/recreation-and-parks/swimming#h2"/>
    <tag k="operator" v="City of Ottawa"/>
    <tag k="source" v="City of Ottawa"/>
    <tag k="source:date" v="2017-12-08"/>
    <tag k="ref" v="32176"/>
  </node>
  <node lat="45.38982" lon="-75.628709"  id="-44"  changeset="false" >
    <tag k="name" v="Splash Pad - Canterbury Park"/>
    <tag k="leisure" v="playground"/>
    <tag k="playground" v="splash_pad"/>
    <tag k="name:fr" v="Aires de jets d'eau - Parc Canterbury"/>
    <tag k="addr:housenumber" v="2185"/>
    <tag k="addr:street" v="Arch Street"/>
    <tag k="wheelchair" v="no"/>
    <tag k="seasonal" v="summer"/>
    <tag k="website" v="http://ottawa.ca/en/residents/recreation-and-parks/swimming#h2"/>
    <tag k="operator" v="City of Ottawa"/>
    <tag k="source" v="City of Ottawa"/>
    <tag k="source:date" v="2017-12-08"/>
    <tag k="ref" v="34770"/>
  </node>
  <node lat="45.376743" lon="-75.640326"  id="-45"  changeset="false" >
    <tag k="name" v="Splash Pad - Fairlea Park"/>
    <tag k="leisure" v="playground"/>
    <tag k="playground" v="splash_pad"/>
    <tag k="name:fr" v="Aires de jets d'eau - Parc Fairlea"/>
    <tag k="addr:housenumber" v="2989"/>
    <tag k="addr:street" v="Fairlea Crescent"/>
    <tag k="wheelchair" v="no"/>
    <tag k="seasonal" v="summer"/>
    <tag k="website" v="http://ottawa.ca/en/residents/recreation-and-parks/swimming#h2"/>
    <tag k="operator" v="City of Ottawa"/>
    <tag k="source" v="City of Ottawa"/>
    <tag k="source:date" v="2017-12-08"/>
    <tag k="ref" v="34772"/>
  </node>
  <node lat="45.397018" lon="-75.731585"  id="-46"  changeset="false" >
    <tag k="name" v="Splash Pad - Fisher Park"/>
    <tag k="leisure" v="playground"/>
    <tag k="playground" v="splash_pad"/>
    <tag k="name:fr" v="Aires de jets d'eau - Parc Fisher"/>
    <tag k="addr:housenumber" v="250"/>
    <tag k="addr:street" v="Holland Avenue"/>
    <tag k="wheelchair" v="no"/>
    <tag k="seasonal" v="summer"/>
    <tag k="website" v="http://ottawa.ca/en/residents/recreation-and-parks/swimming#h2"/>
    <tag k="operator" v="City of Ottawa"/>
    <tag k="source" v="City of Ottawa"/>
    <tag k="source:date" v="2017-12-08"/>
    <tag k="ref" v="34773"/>
  </node>
  <node lat="45.342826" lon="-75.627539"  id="-47"  changeset="false" >
    <tag k="name" v="Splash Pad - Fawn Meadow Park"/>
    <tag k="leisure" v="playground"/>
    <tag k="playground" v="splash_pad"/>
    <tag k="name:fr" v="Aires de jets d'eau - Parc Fawn Meadow"/>
    <tag k="addr:housenumber" v="165"/>
    <tag k="addr:street" v="Meandering Brook Drive"/>
    <tag k="wheelchair" v="no"/>
    <tag k="seasonal" v="summer"/>
    <tag k="website" v="http://ottawa.ca/en/residents/recreation-and-parks/swimming#h2"/>
    <tag k="operator" v="City of Ottawa"/>
    <tag k="source" v="City of Ottawa"/>
    <tag k="source:date" v="2017-12-08"/>
    <tag k="ref" v="34776"/>
  </node>
  <node lat="45.450768" lon="-75.657008"  id="-48"  changeset="false" >
    <tag k="name" v="Splash Pad - Manor Park"/>
    <tag k="leisure" v="playground"/>
    <tag k="playground" v="splash_pad"/>
    <tag k="name:fr" v="Aires de jets d'eau - Parc Manor"/>
    <tag k="addr:housenumber" v="100"/>
    <tag k="addr:street" v="Braemar Street"/>
    <tag k="wheelchair" v="no"/>
    <tag k="seasonal" v="summer"/>
    <tag k="website" v="http://ottawa.ca/en/residents/recreation-and-parks/swimming#h2"/>
    <tag k="operator" v="City of Ottawa"/>
    <tag k="source" v="City of Ottawa"/>
    <tag k="source:date" v="2017-12-08"/>
    <tag k="ref" v="31176"/>
  </node>
  <node lat="45.38873" lon="-75.688622"  id="-49"  changeset="false" >
    <tag k="name" v="Splash Pad - Brewer Park"/>
    <tag k="leisure" v="playground"/>
    <tag k="playground" v="splash_pad"/>
    <tag k="name:fr" v="Aires de jets d'eau - Parc Brewer"/>
    <tag k="addr:housenumber" v="100"/>
    <tag k="addr:street" v="Brewer Way"/>
    <tag k="wheelchair" v="no"/>
    <tag k="seasonal" v="summer"/>
    <tag k="website" v="http://ottawa.ca/en/residents/recreation-and-parks/swimming#h2"/>
    <tag k="operator" v="City of Ottawa"/>
    <tag k="source" v="City of Ottawa"/>
    <tag k="source:date" v="2017-12-08"/>
    <tag k="ref" v="31181"/>
  </node>
  <node lat="45.424313" lon="-75.613483"  id="-50"  changeset="false" >
    <tag k="name" v="Splash Pad - Cedarcroft Park"/>
    <tag k="leisure" v="playground"/>
    <tag k="playground" v="splash_pad"/>
    <tag k="name:fr" v="Aires de jets d'eau - Parc Cedarcroft"/>
    <tag k="addr:housenumber" v="1200"/>
    <tag k="addr:street" v="Cedarcroft Crescent"/>
    <tag k="wheelchair" v="no"/>
    <tag k="seasonal" v="summer"/>
    <tag k="website" v="http://ottawa.ca/en/residents/recreation-and-parks/swimming#h2"/>
    <tag k="operator" v="City of Ottawa"/>
    <tag k="source" v="City of Ottawa"/>
    <tag k="source:date" v="2017-12-08"/>
    <tag k="ref" v="31259"/>
  </node>
  <node lat="45.395759" lon="-75.755653"  id="-51"  changeset="false" >
    <tag k="name" v="Splash Pad - Roy Duncan Park"/>
    <tag k="leisure" v="playground"/>
    <tag k="playground" v="splash_pad"/>
    <tag k="name:fr" v="Aires de jets d'eau - Parc Roy-Duncan"/>
    <tag k="addr:housenumber" v="295"/>
    <tag k="addr:street" v="Churchill Avenue"/>
    <tag k="wheelchair" v="no"/>
    <tag k="seasonal" v="summer"/>
    <tag k="website" v="http://ottawa.ca/en/residents/recreation-and-parks/swimming#h2"/>
    <tag k="operator" v="City of Ottawa"/>
    <tag k="source" v="City of Ottawa"/>
    <tag k="source:date" v="2017-12-08"/>
    <tag k="ref" v="31299"/>
  </node>
  <node lat="45.457169" lon="-75.51049"  id="-52"  changeset="false" >
    <tag k="name" v="Splash Pad - Delorme Park"/>
    <tag k="leisure" v="playground"/>
    <tag k="playground" v="splash_pad"/>
    <tag k="name:fr" v="Aires de jets d'eau - Parc Delorme"/>
    <tag k="addr:housenumber" v="6591"/>
    <tag k="addr:street" v="Delorme Avenue"/>
    <tag k="wheelchair" v="no"/>
    <tag k="seasonal" v="summer"/>
    <tag k="website" v="http://ottawa.ca/en/residents/recreation-and-parks/swimming#h2"/>
    <tag k="operator" v="City of Ottawa"/>
    <tag k="source" v="City of Ottawa"/>
    <tag k="source:date" v="2017-12-08"/>
    <tag k="ref" v="31389"/>
  </node>
  <node lat="45.48067" lon="-75.488073"  id="-53"  changeset="false" >
    <tag k="name" v="Splash Pad - Fallingbrook Park"/>
    <tag k="leisure" v="playground"/>
    <tag k="playground" v="splash_pad"/>
    <tag k="name:fr" v="Aires de jets d'eau - Parc Fallingbrook"/>
    <tag k="addr:housenumber" v="681"/>
    <tag k="addr:street" v="Deancourt Crescent"/>
    <tag k="wheelchair" v="no"/>
    <tag k="seasonal" v="summer"/>
    <tag k="website" v="http://ottawa.ca/en/residents/recreation-and-parks/swimming#h2"/>
    <tag k="operator" v="City of Ottawa"/>
    <tag k="source" v="City of Ottawa"/>
    <tag k="source:date" v="2017-12-08"/>
    <tag k="ref" v="31512"/>
  </node>
  <node lat="45.404862" lon="-75.699304"  id="-54"  changeset="false" >
    <tag k="name" v="Splash Pad - Glebe Memorial Park"/>
    <tag k="leisure" v="playground"/>
    <tag k="playground" v="splash_pad"/>
    <tag k="name:fr" v="Aires de jets d'eau - Parc commémoratif du Glebe"/>
    <tag k="addr:housenumber" v="75"/>
    <tag k="addr:street" v="Glendale Avenue"/>
    <tag k="wheelchair" v="no"/>
    <tag k="seasonal" v="summer"/>
    <tag k="website" v="http://ottawa.ca/en/residents/recreation-and-parks/swimming#h2"/>
    <tag k="operator" v="City of Ottawa"/>
    <tag k="source" v="City of Ottawa"/>
    <tag k="source:date" v="2017-12-08"/>
    <tag k="ref" v="31555"/>
  </node>
  <node lat="45.361547" lon="-75.680909"  id="-55"  changeset="false" >
    <tag k="name" v="Splash Pad - Arnott Park"/>
    <tag k="leisure" v="playground"/>
    <tag k="playground" v="splash_pad"/>
    <tag k="name:fr" v="Aires de jets d'eau - Parc Arnott"/>
    <tag k="addr:housenumber" v="691"/>
    <tag k="addr:street" v="Hartman Crescent"/>
    <tag k="wheelchair" v="no"/>
    <tag k="seasonal" v="summer"/>
    <tag k="website" v="http://ottawa.ca/en/residents/recreation-and-parks/swimming#h2"/>
    <tag k="operator" v="City of Ottawa"/>
    <tag k="source" v="City of Ottawa"/>
    <tag k="source:date" v="2017-12-08"/>
    <tag k="ref" v="31596"/>
  </node>
  <node lat="45.44091" lon="-75.59367"  id="-56"  changeset="false" >
    <tag k="name" v="Splash Pad - Jasmine Park"/>
    <tag k="leisure" v="playground"/>
    <tag k="playground" v="splash_pad"/>
    <tag k="name:fr" v="Aires de jets d'eau - Parc Jasmine"/>
    <tag k="addr:housenumber" v="2040"/>
    <tag k="addr:street" v="Jasmine Crescent"/>
    <tag k="wheelchair" v="no"/>
    <tag k="seasonal" v="summer"/>
    <tag k="website" v="http://ottawa.ca/en/residents/recreation-and-parks/swimming#h2"/>
    <tag k="operator" v="City of Ottawa"/>
    <tag k="source" v="City of Ottawa"/>
    <tag k="source:date" v="2017-12-08"/>
    <tag k="ref" v="31650"/>
  </node>
  <node lat="45.36822" lon="-75.790909"  id="-57"  changeset="false" >
    <tag k="name" v="Splash Pad - Lincoln Heights Park"/>
    <tag k="leisure" v="playground"/>
    <tag k="playground" v="splash_pad"/>
    <tag k="name:fr" v="Aires de jets d'eau - Parc Lincoln Heights"/>
    <tag k="addr:housenumber" v="265"/>
    <tag k="addr:street" v="Britannia Road"/>
    <tag k="wheelchair" v="no"/>
    <tag k="seasonal" v="summer"/>
    <tag k="website" v="http://ottawa.ca/en/residents/recreation-and-parks/swimming#h2"/>
    <tag k="operator" v="City of Ottawa"/>
    <tag k="source" v="City of Ottawa"/>
    <tag k="source:date" v="2017-12-08"/>
    <tag k="ref" v="31740"/>
  </node>
  <node lat="45.432285" lon="-75.627309"  id="-58"  changeset="false" >
    <tag k="name" v="Splash Pad - Whiterock Park"/>
    <tag k="leisure" v="playground"/>
    <tag k="playground" v="splash_pad"/>
    <tag k="name:fr" v="Aires de jets d'eau - Parc Whiterock"/>
    <tag k="addr:housenumber" v="1245"/>
    <tag k="addr:street" v="Matheson Road"/>
    <tag k="wheelchair" v="no"/>
    <tag k="seasonal" v="summer"/>
    <tag k="website" v="http://ottawa.ca/en/residents/recreation-and-parks/swimming#h2"/>
    <tag k="operator" v="City of Ottawa"/>
    <tag k="source" v="City of Ottawa"/>
    <tag k="source:date" v="2017-12-08"/>
    <tag k="ref" v="31776"/>
  </node>
  <node lat="45.477735" lon="-75.504061"  id="-59"  changeset="false" >
    <tag k="name" v="Splash Pad - Queenswood Ridge Park"/>
    <tag k="leisure" v="playground"/>
    <tag k="playground" v="splash_pad"/>
    <tag k="name:fr" v="Aires de jets d'eau - Parc Queenswood Ridge"/>
    <tag k="addr:housenumber" v="346"/>
    <tag k="addr:street" v="Kennedy Lane East"/>
    <tag k="wheelchair" v="no"/>
    <tag k="seasonal" v="summer"/>
    <tag k="website" v="http://ottawa.ca/en/residents/recreation-and-parks/swimming#h2"/>
    <tag k="operator" v="City of Ottawa"/>
    <tag k="source" v="City of Ottawa"/>
    <tag k="source:date" v="2017-12-08"/>
    <tag k="ref" v="31954"/>
  </node>
  <node lat="45.355807" lon="-75.63511"  id="-60"  changeset="false" >
    <tag k="name" v="Splash Pad - Sieveright Park"/>
    <tag k="leisure" v="playground"/>
    <tag k="playground" v="splash_pad"/>
    <tag k="name:fr" v="Aires de jets d'eau - Parc Sieveright"/>
    <tag k="addr:housenumber" v="2999"/>
    <tag k="addr:street" v="Sable Ridge Drive"/>
    <tag k="wheelchair" v="no"/>
    <tag k="seasonal" v="summer"/>
    <tag k="website" v="http://ottawa.ca/en/residents/recreation-and-parks/swimming#h2"/>
    <tag k="operator" v="City of Ottawa"/>
    <tag k="source" v="City of Ottawa"/>
    <tag k="source:date" v="2017-12-08"/>
    <tag k="ref" v="32063"/>
  </node>
  <node lat="45.39826" lon="-75.614359"  id="-61"  changeset="false" >
    <tag k="name" v="Splash Pad - Sheffield Glen Park"/>
    <tag k="leisure" v="playground"/>
    <tag k="playground" v="splash_pad"/>
    <tag k="name:fr" v="Aires de jets d'eau - Parc Sheffield Glen"/>
    <tag k="addr:housenumber" v="2320"/>
    <tag k="addr:street" v="Southvale Crescent"/>
    <tag k="wheelchair" v="no"/>
    <tag k="seasonal" v="summer"/>
    <tag k="website" v="http://ottawa.ca/en/residents/recreation-and-parks/swimming#h2"/>
    <tag k="operator" v="City of Ottawa"/>
    <tag k="source" v="City of Ottawa"/>
    <tag k="source:date" v="2017-12-08"/>
    <tag k="ref" v="32141"/>
  </node>
  <node lat="45.34626" lon="-75.783767"  id="-62"  changeset="false" >
    <tag k="name" v="Splash Pad - Kilreen Park"/>
    <tag k="leisure" v="playground"/>
    <tag k="playground" v="splash_pad"/>
    <tag k="name:fr" v="Aires de jets d'eau - Parc Kilreen"/>
    <tag k="addr:housenumber" v="1250"/>
    <tag k="addr:street" v="Southwood Drive"/>
    <tag k="wheelchair" v="no"/>
    <tag k="seasonal" v="summer"/>
    <tag k="website" v="http://ottawa.ca/en/residents/recreation-and-parks/swimming#h2"/>
    <tag k="operator" v="City of Ottawa"/>
    <tag k="source" v="City of Ottawa"/>
    <tag k="source:date" v="2017-12-08"/>
    <tag k="ref" v="32143"/>
  </node>
  <node lat="45.26708" lon="-75.695632"  id="-63"  changeset="false" >
    <tag k="name" v="Splash Pad - Summerhill Park"/>
    <tag k="leisure" v="playground"/>
    <tag k="playground" v="splash_pad"/>
    <tag k="name:fr" v="Aires de jets d'eau - Parc Summerhill"/>
    <tag k="addr:housenumber" v="560"/>
    <tag k="addr:street" v="Summerhill Street"/>
    <tag k="wheelchair" v="yes"/>
    <tag k="seasonal" v="summer"/>
    <tag k="website" v="http://ottawa.ca/en/residents/recreation-and-parks/swimming#h2"/>
    <tag k="operator" v="City of Ottawa"/>
    <tag k="source" v="City of Ottawa"/>
    <tag k="source:date" v="2017-12-08"/>
    <tag k="ref" v="35605"/>
  </node>
  <node lat="45.327129" lon="-75.5921"  id="-64"  changeset="false" >
    <tag k="name" v="Splash Pad - Littlerock Park"/>
    <tag k="leisure" v="playground"/>
    <tag k="playground" v="splash_pad"/>
    <tag k="name:fr" v="Aires de jets d'eau - Parc Littlerock"/>
    <tag k="addr:housenumber" v="920"/>
    <tag k="addr:street" v="Littlerock Way"/>
    <tag k="wheelchair" v="yes"/>
    <tag k="seasonal" v="summer"/>
    <tag k="website" v="http://ottawa.ca/en/residents/recreation-and-parks/swimming#h2"/>
    <tag k="operator" v="City of Ottawa"/>
    <tag k="source" v="City of Ottawa"/>
    <tag k="source:date" v="2017-12-08"/>
    <tag k="ref" v="35599"/>
  </node>
  <node lat="45.486563" lon="-75.507602"  id="-65"  changeset="false" >
    <tag k="name" v="Splash Pad - Big Bird Park"/>
    <tag k="leisure" v="playground"/>
    <tag k="playground" v="splash_pad"/>
    <tag k="name:fr" v="Aires de jets d'eau - Parc Big Bird"/>
    <tag k="addr:housenumber" v="936"/>
    <tag k="addr:street" v="Lawnsberry Drive"/>
    <tag k="wheelchair" v="yes"/>
    <tag k="seasonal" v="summer"/>
    <tag k="website" v="http://ottawa.ca/en/residents/recreation-and-parks/swimming#h2"/>
    <tag k="operator" v="City of Ottawa"/>
    <tag k="source" v="City of Ottawa"/>
    <tag k="source:date" v="2017-12-08"/>
    <tag k="ref" v="35687"/>
  </node>
  <node lat="45.250099" lon="-75.926577"  id="-66"  changeset="false" >
    <tag k="name" v="Splash Pad - Deer Run Park"/>
    <tag k="leisure" v="playground"/>
    <tag k="playground" v="splash_pad"/>
    <tag k="name:fr" v="Aires de jets d'eau - Parc Deer Run"/>
    <tag k="addr:housenumber" v="272"/>
    <tag k="addr:street" v="West Ridge Drive"/>
    <tag k="wheelchair" v="yes"/>
    <tag k="seasonal" v="summer"/>
    <tag k="operator" v="City of Ottawa"/>
    <tag k="source" v="City of Ottawa"/>
    <tag k="source:date" v="2017-12-08"/>
    <tag k="ref" v="48949"/>
  </node>
  <node lat="45.452142" lon="-75.460688"  id="-67"  changeset="false" >
    <tag k="name" v="Splash Pad - Joseph Vézina Park"/>
    <tag k="leisure" v="playground"/>
    <tag k="playground" v="splash_pad"/>
    <tag k="name:fr" v="Aires de jets d'eau - Parc Joseph-Vézina"/>
    <tag k="addr:housenumber" v="205"/>
    <tag k="addr:street" v="Serra Ridge"/>
    <tag k="wheelchair" v="no"/>
    <tag k="seasonal" v="summer"/>
    <tag k="website" v="http://ottawa.ca/en/residents/recreation-and-parks/swimming#h2"/>
    <tag k="operator" v="City of Ottawa"/>
    <tag k="source" v="City of Ottawa"/>
    <tag k="source:date" v="2017-12-08"/>
    <tag k="ref" v="35068"/>
  </node>
  <node lat="45.272171" lon="-75.780459"  id="-68"  changeset="false" >
    <tag k="name" v="Splash Pad - Hibiscus Park"/>
    <tag k="leisure" v="playground"/>
    <tag k="playground" v="splash_pad"/>
    <tag k="name:fr" v="Aires de jets d'eau - Parc Hibiscus"/>
    <tag k="addr:housenumber" v="990"/>
    <tag k="addr:street" v="Cobble Hill Drive"/>
    <tag k="wheelchair" v="no"/>
    <tag k="seasonal" v="summer"/>
    <tag k="website" v="http://ottawa.ca/en/residents/recreation-and-parks/swimming#h2"/>
    <tag k="operator" v="City of Ottawa"/>
    <tag k="source" v="City of Ottawa"/>
    <tag k="source:date" v="2017-12-08"/>
    <tag k="ref" v="35072"/>
  </node>
  <node lat="45.362023" lon="-75.775994"  id="-69"  changeset="false" >
    <tag k="name" v="Splash Pad - Whitehaven / George C. Brown Park"/>
    <tag k="leisure" v="playground"/>
    <tag k="playground" v="splash_pad"/>
    <tag k="name:fr" v="Aires de jets d'eau - Parc Whitehaven / George-C.-Brown"/>
    <tag k="addr:housenumber" v="970"/>
    <tag k="addr:street" v="Parkhaven Avenue"/>
    <tag k="wheelchair" v="no"/>
    <tag k="seasonal" v="summer"/>
    <tag k="website" v="http://ottawa.ca/en/residents/recreation-and-parks/swimming#h2"/>
    <tag k="operator" v="City of Ottawa"/>
    <tag k="source" v="City of Ottawa"/>
    <tag k="source:date" v="2017-12-08"/>
    <tag k="ref" v="35273"/>
  </node>
  <node lat="45.274195" lon="-75.84667"  id="-70"  changeset="false" >
    <tag k="name" v="Splash Pad - Crownridge Park"/>
    <tag k="leisure" v="playground"/>
    <tag k="playground" v="splash_pad"/>
    <tag k="name:fr" v="Aires de jets d'eau - Parc Crownridge"/>
    <tag k="addr:housenumber" v="290"/>
    <tag k="addr:street" v="Meadowbreeze Drive"/>
    <tag k="wheelchair" v="no"/>
    <tag k="seasonal" v="summer"/>
    <tag k="website" v="http://ottawa.ca/en/residents/recreation-and-parks/swimming#h2"/>
    <tag k="operator" v="City of Ottawa"/>
    <tag k="source" v="City of Ottawa"/>
    <tag k="source:date" v="2017-12-08"/>
    <tag k="ref" v="35071"/>
  </node>
  <node lat="45.43853" lon="-75.668828"  id="-71"  changeset="false" >
    <tag k="name" v="Splash Pad - St. Ambroise Park"/>
    <tag k="leisure" v="playground"/>
    <tag k="playground" v="splash_pad"/>
    <tag k="name:fr" v="Aires de jets d'eau - Parc St-Ambroise"/>
    <tag k="addr:housenumber" v="120"/>
    <tag k="addr:street" v="Landry Street"/>
    <tag k="wheelchair" v="yes"/>
    <tag k="seasonal" v="summer"/>
    <tag k="website" v="http://ottawa.ca/en/residents/recreation-and-parks/swimming#h2"/>
    <tag k="operator" v="City of Ottawa"/>
    <tag k="source" v="City of Ottawa"/>
    <tag k="source:date" v="2017-12-08"/>
    <tag k="ref" v="35595"/>
  </node>
  <node lat="45.438637" lon="-75.685178"  id="-72"  changeset="false" >
    <tag k="name" v="Splash Pad - New Edinburgh Park"/>
    <tag k="leisure" v="playground"/>
    <tag k="playground" v="splash_pad"/>
    <tag k="name:fr" v="Aires de jets d'eau - Parc New Edinburgh"/>
    <tag k="addr:housenumber" v="193"/>
    <tag k="addr:street" v="Stanley Avenue"/>
    <tag k="wheelchair" v="no"/>
    <tag k="seasonal" v="summer"/>
    <tag k="website" v="http://ottawa.ca/en/residents/recreation-and-parks/swimming#h2"/>
    <tag k="operator" v="City of Ottawa"/>
    <tag k="source" v="City of Ottawa"/>
    <tag k="source:date" v="2017-12-08"/>
    <tag k="ref" v="36259"/>
  </node>
  <node lat="45.441152" lon="-75.658479"  id="-73"  changeset="false" >
    <tag k="name" v="Splash Pad - Nault Park"/>
    <tag k="leisure" v="playground"/>
    <tag k="playground" v="splash_pad"/>
    <tag k="name:fr" v="Aires de jets d'eau - Parc Nault"/>
    <tag k="addr:housenumber" v="325"/>
    <tag k="addr:street" v="Street Denis Street"/>
    <tag k="wheelchair" v="no"/>
    <tag k="seasonal" v="summer"/>
    <tag k="website" v="http://ottawa.ca/en/residents/recreation-and-parks/swimming#h2"/>
    <tag k="operator" v="City of Ottawa"/>
    <tag k="source" v="City of Ottawa"/>
    <tag k="source:date" v="2017-12-08"/>
    <tag k="ref" v="36260"/>
  </node>
  <node lat="45.441148" lon="-75.605728"  id="-74"  changeset="false" >
    <tag k="name" v="Splash Pad - Fairfield Park"/>
    <tag k="leisure" v="playground"/>
    <tag k="playground" v="splash_pad"/>
    <tag k="name:fr" v="Aires de jets d'eau - Parc Fairfield"/>
    <tag k="addr:housenumber" v="49"/>
    <tag k="addr:street" v="Appleford Street"/>
    <tag k="wheelchair" v="no"/>
    <tag k="seasonal" v="summer"/>
    <tag k="website" v="http://ottawa.ca/en/residents/recreation-and-parks/swimming#h2"/>
    <tag k="operator" v="City of Ottawa"/>
    <tag k="source" v="City of Ottawa"/>
    <tag k="source:date" v="2017-12-08"/>
    <tag k="ref" v="36262"/>
  </node>
  <node lat="45.385963" lon="-75.730023"  id="-75"  changeset="false" >
    <tag k="name" v="Splash Pad - Harrold Place Park"/>
    <tag k="leisure" v="playground"/>
    <tag k="playground" v="splash_pad"/>
    <tag k="name:fr" v="Aires de jets d'eau - Parc de la place Harrold"/>
    <tag k="addr:housenumber" v="1"/>
    <tag k="addr:street" v="Harrold Place"/>
    <tag k="wheelchair" v="no"/>
    <tag k="seasonal" v="summer"/>
    <tag k="website" v="http://ottawa.ca/en/residents/recreation-and-parks/swimming#h2"/>
    <tag k="operator" v="City of Ottawa"/>
    <tag k="source" v="City of Ottawa"/>
    <tag k="source:date" v="2017-12-08"/>
    <tag k="ref" v="36289"/>
  </node>
  <node lat="45.373381" lon="-75.64848"  id="-76"  changeset="false" >
    <tag k="name" v="Splash Pad - Heatherington Park"/>
    <tag k="leisure" v="playground"/>
    <tag k="playground" v="splash_pad"/>
    <tag k="name:fr" v="Aires de jets d'eau - Parc Heatherington"/>
    <tag k="addr:housenumber" v="1560"/>
    <tag k="addr:street" v="Heatherington Road"/>
    <tag k="wheelchair" v="no"/>
    <tag k="seasonal" v="summer"/>
    <tag k="website" v="http://ottawa.ca/en/residents/recreation-and-parks/swimming#h2"/>
    <tag k="operator" v="City of Ottawa"/>
    <tag k="source" v="City of Ottawa"/>
    <tag k="source:date" v="2017-12-08"/>
    <tag k="ref" v="36266"/>
  </node>
  <node lat="45.275633" lon="-75.690667"  id="-77"  changeset="false" >
    <tag k="name" v="Splash Pad - Four Seasons Park"/>
    <tag k="leisure" v="playground"/>
    <tag k="playground" v="splash_pad"/>
    <tag k="name:fr" v="Aires de jets d'eau - Parc Four Seasons"/>
    <tag k="addr:housenumber" v="4386"/>
    <tag k="addr:street" v="Spratt Road"/>
    <tag k="wheelchair" v="no"/>
    <tag k="seasonal" v="summer"/>
    <tag k="website" v="http://ottawa.ca/en/residents/recreation-and-parks/swimming#h2"/>
    <tag k="operator" v="City of Ottawa"/>
    <tag k="source" v="City of Ottawa"/>
    <tag k="source:date" v="2017-12-08"/>
    <tag k="ref" v="32118"/>
  </node>
  <node lat="45.350799" lon="-76.037981"  id="-78"  changeset="false" >
    <tag k="name" v="Carp Water Splash Park - Huntley Community Centre"/>
    <tag k="leisure" v="playground"/>
    <tag k="playground" v="splash_pad"/>
    <tag k="name:fr" v="Aires de jets d'eau de Carp - Centre communautaire Huntley"/>
    <tag k="addr:housenumber" v="108"/>
    <tag k="addr:street" v="Juanita Avenue"/>
    <tag k="wheelchair" v="no"/>
    <tag k="seasonal" v="summer"/>
    <tag k="website" v="http://ottawa.ca/en/residents/recreation-and-parks/swimming#h2"/>
    <tag k="operator" v="City of Ottawa"/>
    <tag k="source" v="City of Ottawa"/>
    <tag k="source:date" v="2017-12-08"/>
    <tag k="ref" v="36264"/>
  </node>
  <node lat="45.420633" lon="-75.601283"  id="-79"  changeset="false" >
    <tag k="name" v="Splash Pad - Stonehenge Park"/>
    <tag k="leisure" v="playground"/>
    <tag k="playground" v="splash_pad"/>
    <tag k="name:fr" v="Aires de jets d'eau - Parc Stonehenge"/>
    <tag k="addr:housenumber" v="1859"/>
    <tag k="addr:street" v="Stonehenge Crescent"/>
    <tag k="wheelchair" v="no"/>
    <tag k="seasonal" v="summer"/>
    <tag k="website" v="http://ottawa.ca/en/residents/recreation-and-parks/swimming#h2"/>
    <tag k="operator" v="City of Ottawa"/>
    <tag k="source" v="City of Ottawa"/>
    <tag k="source:date" v="2017-12-08"/>
    <tag k="ref" v="32189"/>
  </node>
  <node lat="45.473945" lon="-75.549721"  id="-80"  changeset="false" >
    <tag k="name" v="Splash Pad - North Vineyard Park"/>
    <tag k="leisure" v="playground"/>
    <tag k="playground" v="splash_pad"/>
    <tag k="name:fr" v="Aires de jets d'eau - Parc North Vineyard"/>
    <tag k="addr:housenumber" v="6026"/>
    <tag k="addr:street" v="Voyageur Drive"/>
    <tag k="wheelchair" v="no"/>
    <tag k="seasonal" v="summer"/>
    <tag k="website" v="http://ottawa.ca/en/residents/recreation-and-parks/swimming#h2"/>
    <tag k="operator" v="City of Ottawa"/>
    <tag k="source" v="City of Ottawa"/>
    <tag k="source:date" v="2017-12-08"/>
    <tag k="ref" v="32330"/>
  </node>
  <node lat="45.437018" lon="-75.527956"  id="-81"  changeset="false" >
    <tag k="name" v="Splash Pad - Blue Willow Park"/>
    <tag k="leisure" v="playground"/>
    <tag k="playground" v="splash_pad"/>
    <tag k="name:fr" v="Aires de jets d'eau - Parc Blue Willow"/>
    <tag k="addr:housenumber" v="6011"/>
    <tag k="addr:street" v="Longleaf Drive"/>
    <tag k="wheelchair" v="no"/>
    <tag k="seasonal" v="summer"/>
    <tag k="website" v="http://ottawa.ca/en/residents/recreation-and-parks/swimming#h2"/>
    <tag k="operator" v="City of Ottawa"/>
    <tag k="source" v="City of Ottawa"/>
    <tag k="source:date" v="2017-12-08"/>
    <tag k="ref" v="32552"/>
  </node>
  <node lat="45.434257" lon="-75.563723"  id="-82"  changeset="false" >
    <tag k="name" v="Splash Pad - Bearbrook Park and Pool"/>
    <tag k="leisure" v="playground"/>
    <tag k="playground" v="splash_pad"/>
    <tag k="name:fr" v="Aires de jets d'eau - Parc et Piscine Bearbrook"/>
    <tag k="addr:housenumber" v="99"/>
    <tag k="addr:street" v="Bearbrook Road"/>
    <tag k="wheelchair" v="no"/>
    <tag k="seasonal" v="summer"/>
    <tag k="website" v="http://ottawa.ca/en/residents/recreation-and-parks/swimming#h2"/>
    <tag k="operator" v="City of Ottawa"/>
    <tag k="source" v="City of Ottawa"/>
    <tag k="source:date" v="2017-12-08"/>
    <tag k="ref" v="32568"/>
  </node>
  <node lat="45.334855" lon="-75.788421"  id="-83"  changeset="false" >
    <tag k="name" v="Splash Pad - Leslie Park"/>
    <tag k="leisure" v="playground"/>
    <tag k="playground" v="splash_pad"/>
    <tag k="name:fr" v="Aires de jets d'eau - Parc Leslie"/>
    <tag k="addr:housenumber" v="21"/>
    <tag k="addr:street" v="A Dayton Crescent"/>
    <tag k="wheelchair" v="no"/>
    <tag k="seasonal" v="summer"/>
    <tag k="website" v="http://ottawa.ca/en/residents/recreation-and-parks/swimming#h2"/>
    <tag k="operator" v="City of Ottawa"/>
    <tag k="source" v="City of Ottawa"/>
    <tag k="source:date" v="2017-12-08"/>
    <tag k="ref" v="32669"/>
  </node>
  <node lat="45.368798" lon="-75.628346"  id="-84"  changeset="false" >
    <tag k="name" v="Splash Pad - Winterwood Park"/>
    <tag k="leisure" v="playground"/>
    <tag k="playground" v="splash_pad"/>
    <tag k="name:fr" v="Aires de jets d'eau - Parc Winterwood"/>
    <tag k="addr:housenumber" v="1844"/>
    <tag k="addr:street" v="Johnston Road"/>
    <tag k="wheelchair" v="no"/>
    <tag k="seasonal" v="summer"/>
    <tag k="website" v="http://ottawa.ca/en/residents/recreation-and-parks/swimming#h2"/>
    <tag k="operator" v="City of Ottawa"/>
    <tag k="source" v="City of Ottawa"/>
    <tag k="source:date" v="2017-12-08"/>
    <tag k="ref" v="32708"/>
  </node>
  <node lat="45.407599" lon="-75.713991"  id="-85"  changeset="false" >
    <tag k="name" v="Splash Pad - Plouffe Park"/>
    <tag k="leisure" v="playground"/>
    <tag k="playground" v="splash_pad"/>
    <tag k="name:fr" v="Aires de jets d'eau - Parc Plouffe"/>
    <tag k="addr:housenumber" v="930"/>
    <tag k="addr:street" v="Somerset Street West"/>
    <tag k="wheelchair" v="no"/>
    <tag k="seasonal" v="summer"/>
    <tag k="website" v="http://ottawa.ca/en/residents/recreation-and-parks/swimming#h2"/>
    <tag k="operator" v="City of Ottawa"/>
    <tag k="source" v="City of Ottawa"/>
    <tag k="source:date" v="2017-12-08"/>
    <tag k="ref" v="32714"/>
  </node>
  <node lat="45.450071" lon="-75.472068"  id="-86"  changeset="false" >
    <tag k="name" v="Splash Pad - Vista Park"/>
    <tag k="leisure" v="playground"/>
    <tag k="playground" v="splash_pad"/>
    <tag k="name:fr" v="Aires de jets d'eau - Parc Vista"/>
    <tag k="addr:housenumber" v="720"/>
    <tag k="addr:street" v="Vistapark Drive"/>
    <tag k="wheelchair" v="no"/>
    <tag k="seasonal" v="summer"/>
    <tag k="website" v="http://ottawa.ca/en/residents/recreation-and-parks/swimming#h2"/>
    <tag k="operator" v="City of Ottawa"/>
    <tag k="source" v="City of Ottawa"/>
    <tag k="source:date" v="2017-12-08"/>
    <tag k="ref" v="34768"/>
  </node>
  <node lat="45.340112" lon="-75.931008"  id="-87"  changeset="false" >
    <tag k="name" v="Splash Pad - Richcraft Recreation Complex - Kanata"/>
    <tag k="leisure" v="playground"/>
    <tag k="playground" v="splash_pad"/>
    <tag k="name:fr" v="Aires de jets d'eau - Complexe récréatif Richcraft - Kanata"/>
    <tag k="addr:housenumber" v="4101"/>
    <tag k="addr:street" v="Innovation Drive"/>
    <tag k="wheelchair" v="no"/>
    <tag k="seasonal" v="summer"/>
    <tag k="website" v="http://ottawa.ca/en/residents/recreation-and-parks/swimming#h2"/>
    <tag k="operator" v="City of Ottawa"/>
    <tag k="source" v="City of Ottawa"/>
    <tag k="source:date" v="2017-12-08"/>
    <tag k="ref" v="34774"/>
  </node>
  <node lat="45.451092" lon="-75.48928"  id="-88"  changeset="false" >
    <tag k="name" v="Splash Pad - Ouellette Park"/>
    <tag k="leisure" v="playground"/>
    <tag k="playground" v="splash_pad"/>
    <tag k="name:fr" v="Aires de jets d'eau - Parc Ouellette"/>
    <tag k="addr:housenumber" v="530"/>
    <tag k="addr:street" v="Strasbourg Street"/>
    <tag k="wheelchair" v="no"/>
    <tag k="seasonal" v="summer"/>
    <tag k="website" v="http://ottawa.ca/en/residents/recreation-and-parks/swimming#h2"/>
    <tag k="operator" v="City of Ottawa"/>
    <tag k="source" v="City of Ottawa"/>
    <tag k="source:date" v="2017-12-08"/>
    <tag k="ref" v="35069"/>
  </node>
  <node lat="45.425305" lon="-75.519233"  id="-89"  changeset="false" >
    <tag k="name" v="Splash Pad - Fountainhead Park"/>
    <tag k="leisure" v="playground"/>
    <tag k="playground" v="splash_pad"/>
    <tag k="name:fr" v="Aires de jets d'eau - Parc Fountainhead"/>
    <tag k="addr:housenumber" v="105"/>
    <tag k="addr:street" v="Felicity Crescent"/>
    <tag k="wheelchair" v="no"/>
    <tag k="seasonal" v="summer"/>
    <tag k="website" v="http://ottawa.ca/en/residents/recreation-and-parks/swimming#h2"/>
    <tag k="operator" v="City of Ottawa"/>
    <tag k="source" v="City of Ottawa"/>
    <tag k="source:date" v="2017-12-08"/>
    <tag k="ref" v="35073"/>
  </node>
  <node lat="45.288217" lon="-75.66536"  id="-90"  changeset="false" >
    <tag k="name" v="Splash Pad - Boothfield Park"/>
    <tag k="leisure" v="playground"/>
    <tag k="playground" v="splash_pad"/>
    <tag k="name:fr" v="Aires de jets d'eau - Parc Boothfield"/>
    <tag k="addr:housenumber" v="660"/>
    <tag k="addr:street" v="Boothfield Street"/>
    <tag k="wheelchair" v="yes"/>
    <tag k="seasonal" v="summer"/>
    <tag k="website" v="http://ottawa.ca/en/residents/recreation-and-parks/swimming#h2"/>
    <tag k="operator" v="City of Ottawa"/>
    <tag k="source" v="City of Ottawa"/>
    <tag k="source:date" v="2017-12-08"/>
    <tag k="ref" v="35597"/>
  </node>
  <node lat="45.497814" lon="-75.46968"  id="-91"  changeset="false" >
    <tag k="name" v="Splash Pad - Millstone Park"/>
    <tag k="leisure" v="playground"/>
    <tag k="playground" v="splash_pad"/>
    <tag k="name:fr" v="Aires de jets d'eau - Parc Millstone"/>
    <tag k="addr:housenumber" v="420"/>
    <tag k="addr:street" v="de la Famille-Laporte Avenue"/>
    <tag k="wheelchair" v="yes"/>
    <tag k="seasonal" v="summer"/>
    <tag k="website" v="http://ottawa.ca/en/residents/recreation-and-parks/swimming#h2"/>
    <tag k="operator" v="City of Ottawa"/>
    <tag k="source" v="City of Ottawa"/>
    <tag k="source:date" v="2017-12-08"/>
    <tag k="ref" v="35601"/>
  </node>
  <node lat="45.428129" lon="-75.618237"  id="-92"  changeset="false" >
    <tag k="name" v="Splash Pad - City Centre Park"/>
    <tag k="leisure" v="playground"/>
    <tag k="playground" v="splash_pad"/>
    <tag k="name:fr" v="Aires de jets d'eau - Parc City Centre"/>
    <tag k="addr:housenumber" v="1800"/>
    <tag k="addr:street" v="City Park Drive"/>
    <tag k="wheelchair" v="no"/>
    <tag k="seasonal" v="summer"/>
    <tag k="website" v="http://ottawa.ca/en/residents/recreation-and-parks/swimming#h2"/>
    <tag k="operator" v="City of Ottawa"/>
    <tag k="source" v="City of Ottawa"/>
    <tag k="source:date" v="2017-12-08"/>
    <tag k="ref" v="36261"/>
  </node>
  <node lat="45.458015" lon="-75.469091"  id="-93"  changeset="false" >
    <tag k="name" v="Jérémie J. Audette Splash Pad - Portobello Park"/>
    <tag k="leisure" v="playground"/>
    <tag k="playground" v="splash_pad"/>
    <tag k="name:fr" v="Aires de jets d'eau Jérémie-J.-Audette - Parc Portobello"/>
    <tag k="addr:housenumber" v="670"/>
    <tag k="addr:street" v="Aquaview Drive"/>
    <tag k="wheelchair" v="no"/>
    <tag k="seasonal" v="summer"/>
    <tag k="website" v="http://ottawa.ca/en/residents/recreation-and-parks/swimming#h2"/>
    <tag k="operator" v="City of Ottawa"/>
    <tag k="source" v="City of Ottawa"/>
    <tag k="source:date" v="2017-12-08"/>
    <tag k="ref" v="36263"/>
  </node>
  <node lat="45.287639" lon="-75.715891"  id="-94"  changeset="false" >
    <tag k="name" v="Splash Pad - Stonecrest Park"/>
    <tag k="leisure" v="playground"/>
    <tag k="playground" v="splash_pad"/>
    <tag k="name:fr" v="Aires de jets d'eau - Parc Stonecrest"/>
    <tag k="addr:housenumber" v="220"/>
    <tag k="addr:street" v="Stoneway Drive"/>
    <tag k="wheelchair" v="no"/>
    <tag k="seasonal" v="summer"/>
    <tag k="website" v="http://ottawa.ca/en/residents/recreation-and-parks/swimming#h2"/>
    <tag k="operator" v="City of Ottawa"/>
    <tag k="source" v="City of Ottawa"/>
    <tag k="source:date" v="2017-12-08"/>
    <tag k="ref" v="36268"/>
  </node>
  <node lat="45.411049" lon="-75.714054"  id="-95"  changeset="false" >
    <tag k="name" v="Splash Pad - Primrose Park"/>
    <tag k="leisure" v="playground"/>
    <tag k="playground" v="splash_pad"/>
    <tag k="name:fr" v="Aires de jets d'eau - Parc Primrose"/>
    <tag k="addr:housenumber" v="179"/>
    <tag k="addr:street" v="Primrose Avenue"/>
    <tag k="wheelchair" v="no"/>
    <tag k="seasonal" v="summer"/>
    <tag k="website" v="http://ottawa.ca/en/residents/recreation-and-parks/swimming#h2"/>
    <tag k="operator" v="City of Ottawa"/>
    <tag k="source" v="City of Ottawa"/>
    <tag k="source:date" v="2017-12-08"/>
    <tag k="ref" v="36270"/>
  </node>
  <node lat="45.328369" lon="-75.922072"  id="-96"  changeset="false" >
    <tag k="name" v="Splash Pad - Walden Park"/>
    <tag k="leisure" v="playground"/>
    <tag k="playground" v="splash_pad"/>
    <tag k="name:fr" v="Aires de jets d'eau - Parc Walden"/>
    <tag k="addr:housenumber" v="130"/>
    <tag k="addr:street" v="Walden Drive"/>
    <tag k="wheelchair" v="no"/>
    <tag k="seasonal" v="summer"/>
    <tag k="website" v="http://ottawa.ca/en/residents/recreation-and-parks/swimming#h2"/>
    <tag k="operator" v="City of Ottawa"/>
    <tag k="source" v="City of Ottawa"/>
    <tag k="source:date" v="2017-12-08"/>
    <tag k="ref" v="36278"/>
  </node>
  <node lat="45.245914" lon="-75.910128"  id="-97"  changeset="false" >
    <tag k="name" v="Splash Pad - Upcountry Park"/>
    <tag k="leisure" v="playground"/>
    <tag k="playground" v="splash_pad"/>
    <tag k="name:fr" v="Aires de jets d'eau - Parc Upcountry"/>
    <tag k="addr:housenumber" v="310"/>
    <tag k="addr:street" v="Upcountry Drive"/>
    <tag k="wheelchair" v="no"/>
    <tag k="seasonal" v="summer"/>
    <tag k="website" v="http://ottawa.ca/en/residents/recreation-and-parks/swimming#h2"/>
    <tag k="operator" v="City of Ottawa"/>
    <tag k="source" v="City of Ottawa"/>
    <tag k="source:date" v="2017-12-08"/>
    <tag k="ref" v="36281"/>
  </node>
  <node lat="45.460894" lon="-75.457123"  id="-98"  changeset="false" >
    <tag k="name" v="Splash Pad - Provence Park"/>
    <tag k="leisure" v="playground"/>
    <tag k="playground" v="splash_pad"/>
    <tag k="name:fr" v="Aires de jets d'eau - Parc Provence"/>
    <tag k="addr:housenumber" v="2095"/>
    <tag k="addr:street" v="Provence Avenue"/>
    <tag k="wheelchair" v="no"/>
    <tag k="seasonal" v="summer"/>
    <tag k="website" v="http://ottawa.ca/en/residents/recreation-and-parks/swimming#h2"/>
    <tag k="operator" v="City of Ottawa"/>
    <tag k="source" v="City of Ottawa"/>
    <tag k="source:date" v="2017-12-08"/>
    <tag k="ref" v="36283"/>
  </node>
  <node lat="45.367045" lon="-75.734752"  id="-99"  changeset="false" >
    <tag k="name" v="Splash Pad - Celebration Park"/>
    <tag k="leisure" v="playground"/>
    <tag k="playground" v="splash_pad"/>
    <tag k="name:fr" v="Aires de jets d'eau - Parc Celebration"/>
    <tag k="addr:housenumber" v="200"/>
    <tag k="addr:street" v="Central Park Drive"/>
    <tag k="wheelchair" v="no"/>
    <tag k="seasonal" v="summer"/>
    <tag k="website" v="http://ottawa.ca/en/residents/recreation-and-parks/swimming#h2"/>
    <tag k="operator" v="City of Ottawa"/>
    <tag k="source" v="City of Ottawa"/>
    <tag k="source:date" v="2017-12-08"/>
    <tag k="ref" v="36284"/>
  </node>
  <node lat="45.478243" lon="-75.459545"  id="-100"  changeset="false" >
    <tag k="name" v="Splash Pad - Cardinal Creek Community Park"/>
    <tag k="leisure" v="playground"/>
    <tag k="playground" v="splash_pad"/>
    <tag k="name:fr" v="Aires de jets d'eau - Parc communautaire de Cardinal Creek"/>
    <tag k="addr:housenumber" v="1825"/>
    <tag k="addr:street" v="Trim Road"/>
    <tag k="wheelchair" v="no"/>
    <tag k="seasonal" v="summer"/>
    <tag k="website" v="http://ottawa.ca/en/residents/recreation-and-parks/swimming#h2"/>
    <tag k="operator" v="City of Ottawa"/>
    <tag k="source" v="City of Ottawa"/>
    <tag k="source:date" v="2017-12-08"/>
    <tag k="ref" v="36286"/>
  </node>
  <node lat="45.436381" lon="-75.65305"  id="-101"  changeset="false" >
    <tag k="name" v="Splash Pad - Kiwanis Park"/>
    <tag k="leisure" v="playground"/>
    <tag k="playground" v="splash_pad"/>
    <tag k="name:fr" v="Aires de jets d'eau - Parc Kiwanis"/>
    <tag k="addr:housenumber" v="395"/>
    <tag k="addr:street" v="Levis Avenue"/>
    <tag k="wheelchair" v="no"/>
    <tag k="seasonal" v="summer"/>
    <tag k="website" v="http://ottawa.ca/en/residents/recreation-and-parks/swimming#h2"/>
    <tag k="operator" v="City of Ottawa"/>
    <tag k="source" v="City of Ottawa"/>
    <tag k="source:date" v="2017-12-08"/>
    <tag k="ref" v="36288"/>
  </node>
  <node lat="45.352392" lon="-75.813562"  id="-102"  changeset="false" >
    <tag k="name" v="Splash Pad - Andrew Haydon Park"/>
    <tag k="leisure" v="playground"/>
    <tag k="playground" v="splash_pad"/>
    <tag k="name:fr" v="Aires de jets d'eau - Parc Andrew-Haydon"/>
    <tag k="addr:housenumber" v="3127"/>
    <tag k="addr:street" v="Carling Avenue"/>
    <tag k="wheelchair" v="no"/>
    <tag k="seasonal" v="summer"/>
    <tag k="website" v="http://ottawa.ca/en/residents/recreation-and-parks/swimming#h2"/>
    <tag k="operator" v="City of Ottawa"/>
    <tag k="source" v="City of Ottawa"/>
    <tag k="source:date" v="2017-12-08"/>
    <tag k="ref" v="36291"/>
  </node>
  <node lat="45.340778" lon="-75.634263"  id="-103"  changeset="false" >
    <tag k="name" v="Splash Pad - Aladdin Park"/>
    <tag k="leisure" v="playground"/>
    <tag k="playground" v="splash_pad"/>
    <tag k="name:fr" v="Aires de jets d'eau - Parc Aladdin"/>
    <tag k="addr:housenumber" v="3939"/>
    <tag k="addr:street" v="Albion Road"/>
    <tag k="wheelchair" v="no"/>
    <tag k="seasonal" v="summer"/>
    <tag k="website" v="http://ottawa.ca/en/residents/recreation-and-parks/swimming#h2"/>
    <tag k="operator" v="City of Ottawa"/>
    <tag k="source" v="City of Ottawa"/>
    <tag k="source:date" v="2017-12-08"/>
    <tag k="ref" v="31014"/>
  </node>
  <node lat="45.344981" lon="-75.640225"  id="-104"  changeset="false" >
    <tag k="name" v="Splash Pad - Emerald Woods Park"/>
    <tag k="leisure" v="playground"/>
    <tag k="playground" v="splash_pad"/>
    <tag k="name:fr" v="Aires de jets d'eau - Parc Emerald Woods"/>
    <tag k="addr:housenumber" v="3795"/>
    <tag k="addr:street" v="Alderwood Street"/>
    <tag k="wheelchair" v="no"/>
    <tag k="seasonal" v="summer"/>
    <tag k="website" v="http://ottawa.ca/en/residents/recreation-and-parks/swimming#h2"/>
    <tag k="operator" v="City of Ottawa"/>
    <tag k="source" v="City of Ottawa"/>
    <tag k="source:date" v="2017-12-08"/>
    <tag k="ref" v="31018"/>
  </node>
  <node lat="45.427081" lon="-75.607172"  id="-105"  changeset="false" >
    <tag k="name" v="Splash Pad - Queensway Park"/>
    <tag k="leisure" v="playground"/>
    <tag k="playground" v="splash_pad"/>
    <tag k="name:fr" v="Aires de jets d'eau - Parc Queensway"/>
    <tag k="addr:housenumber" v="1580"/>
    <tag k="addr:street" v="Telesat Court"/>
    <tag k="wheelchair" v="no"/>
    <tag k="seasonal" v="summer"/>
    <tag k="website" v="http://ottawa.ca/en/residents/recreation-and-parks/swimming#h2"/>
    <tag k="operator" v="City of Ottawa"/>
    <tag k="source" v="City of Ottawa"/>
    <tag k="source:date" v="2017-12-08"/>
    <tag k="ref" v="31065"/>
  </node>
  <node lat="45.457014" lon="-75.521711"  id="-106"  changeset="false" >
    <tag k="name" v="Splash Pad - Barrington Park"/>
    <tag k="leisure" v="playground"/>
    <tag k="playground" v="splash_pad"/>
    <tag k="name:fr" v="Aires de jets d'eau - Parc Barrington"/>
    <tag k="addr:housenumber" v="1705"/>
    <tag k="addr:street" v="Orléans Boulevard"/>
    <tag k="wheelchair" v="no"/>
    <tag k="seasonal" v="summer"/>
    <tag k="website" v="http://ottawa.ca/en/residents/recreation-and-parks/swimming#h2"/>
    <tag k="operator" v="City of Ottawa"/>
    <tag k="source" v="City of Ottawa"/>
    <tag k="source:date" v="2017-12-08"/>
    <tag k="ref" v="31089"/>
  </node>
  <node lat="45.409223" lon="-75.729406"  id="-107"  changeset="false" >
    <tag k="name" v="Splash Pad - Laroche Park"/>
    <tag k="leisure" v="playground"/>
    <tag k="playground" v="splash_pad"/>
    <tag k="name:fr" v="Aires de jets d'eau - Parc Laroche"/>
    <tag k="addr:housenumber" v="52"/>
    <tag k="addr:street" v="Bayview Road"/>
    <tag k="wheelchair" v="no"/>
    <tag k="seasonal" v="summer"/>
    <tag k="website" v="http://ottawa.ca/en/residents/recreation-and-parks/swimming#h2"/>
    <tag k="operator" v="City of Ottawa"/>
    <tag k="source" v="City of Ottawa"/>
    <tag k="source:date" v="2017-12-08"/>
    <tag k="ref" v="31100"/>
  </node>
  <node lat="45.333483" lon="-75.755917"  id="-108"  changeset="false" >
    <tag k="name" v="Splash Pad - Beechcliffe Park"/>
    <tag k="leisure" v="playground"/>
    <tag k="playground" v="splash_pad"/>
    <tag k="name:fr" v="Aires de jets d'eau - Parc Beechcliffe"/>
    <tag k="addr:housenumber" v="2"/>
    <tag k="addr:street" v="Beechcliffe Street"/>
    <tag k="wheelchair" v="no"/>
    <tag k="seasonal" v="summer"/>
    <tag k="website" v="http://ottawa.ca/en/residents/recreation-and-parks/swimming#h2"/>
    <tag k="operator" v="City of Ottawa"/>
    <tag k="source" v="City of Ottawa"/>
    <tag k="source:date" v="2017-12-08"/>
    <tag k="ref" v="31119"/>
  </node>
  <node lat="45.481119" lon="-75.52408"  id="-109"  changeset="false" >
    <tag k="name" v="Splash Pad - Joe Jamieson Park"/>
    <tag k="leisure" v="playground"/>
    <tag k="playground" v="splash_pad"/>
    <tag k="name:fr" v="Aires de jets d'eau - Parc Joe-Jamieson"/>
    <tag k="addr:housenumber" v="6940"/>
    <tag k="addr:street" v="Bilberry Drive"/>
    <tag k="wheelchair" v="no"/>
    <tag k="seasonal" v="summer"/>
    <tag k="website" v="http://ottawa.ca/en/residents/recreation-and-parks/swimming#h2"/>
    <tag k="operator" v="City of Ottawa"/>
    <tag k="source" v="City of Ottawa"/>
    <tag k="source:date" v="2017-12-08"/>
    <tag k="ref" v="31146"/>
  </node>
  <node lat="45.354375" lon="-75.66481"  id="-110"  changeset="false" >
    <tag k="name" v="Splash Pad - Owl Park"/>
    <tag k="leisure" v="playground"/>
    <tag k="playground" v="splash_pad"/>
    <tag k="name:fr" v="Aires de jets d'eau - Parc Owl"/>
    <tag k="addr:housenumber" v="215"/>
    <tag k="addr:street" v="Owl Drive"/>
    <tag k="wheelchair" v="no"/>
    <tag k="seasonal" v="summer"/>
    <tag k="website" v="http://ottawa.ca/en/residents/recreation-and-parks/swimming#h2"/>
    <tag k="operator" v="City of Ottawa"/>
    <tag k="source" v="City of Ottawa"/>
    <tag k="source:date" v="2017-12-08"/>
    <tag k="ref" v="36273"/>
  </node>
  <node lat="45.454871" lon="-75.515691"  id="-111"  changeset="false" >
    <tag k="name" v="Splash Pad - Champagne Park"/>
    <tag k="leisure" v="playground"/>
    <tag k="playground" v="splash_pad"/>
    <tag k="name:fr" v="Aires de jets d'eau - Parc Champagne"/>
    <tag k="addr:housenumber" v="1861"/>
    <tag k="addr:street" v="Markwell Crescent"/>
    <tag k="wheelchair" v="no"/>
    <tag k="seasonal" v="summer"/>
    <tag k="website" v="http://ottawa.ca/en/residents/recreation-and-parks/swimming#h2"/>
    <tag k="operator" v="City of Ottawa"/>
    <tag k="source" v="City of Ottawa"/>
    <tag k="source:date" v="2017-12-08"/>
    <tag k="ref" v="31432"/>
  </node>
  <node lat="45.285976" lon="-75.755147"  id="-112"  changeset="false" >
    <tag k="name" v="Splash Pad - Greenbank Park"/>
    <tag k="leisure" v="playground"/>
    <tag k="playground" v="splash_pad"/>
    <tag k="name:fr" v="Aires de jets d'eau - Parc Greenbank"/>
    <tag k="addr:housenumber" v="895"/>
    <tag k="addr:street" v="Greenbank Road"/>
    <tag k="wheelchair" v="no"/>
    <tag k="seasonal" v="summer"/>
    <tag k="website" v="http://ottawa.ca/en/residents/recreation-and-parks/swimming#h2"/>
    <tag k="operator" v="City of Ottawa"/>
    <tag k="source" v="City of Ottawa"/>
    <tag k="source:date" v="2017-12-08"/>
    <tag k="ref" v="31579"/>
  </node>
  <node lat="45.4691" lon="-75.53655"  id="-113"  changeset="false" >
    <tag k="name" v="Splash Pad - Glen Park"/>
    <tag k="leisure" v="playground"/>
    <tag k="playground" v="splash_pad"/>
    <tag k="name:fr" v="Aires de jets d'eau - Parc Glen"/>
    <tag k="addr:housenumber" v="1766"/>
    <tag k="addr:street" v="Grey Nuns Drive"/>
    <tag k="wheelchair" v="no"/>
    <tag k="seasonal" v="summer"/>
    <tag k="website" v="http://ottawa.ca/en/residents/recreation-and-parks/swimming#h2"/>
    <tag k="operator" v="City of Ottawa"/>
    <tag k="source" v="City of Ottawa"/>
    <tag k="source:date" v="2017-12-08"/>
    <tag k="ref" v="31591"/>
  </node>
  <node lat="45.358643" lon="-75.722566"  id="-114"  changeset="false" >
    <tag k="name" v="Splash Pad - Inverness Park"/>
    <tag k="leisure" v="playground"/>
    <tag k="playground" v="splash_pad"/>
    <tag k="name:fr" v="Aires de jets d'eau - Parc Inverness"/>
    <tag k="addr:housenumber" v="76"/>
    <tag k="addr:street" v="Inverness Avenue"/>
    <tag k="wheelchair" v="yes"/>
    <tag k="seasonal" v="summer"/>
    <tag k="website" v="http://ottawa.ca/en/residents/recreation-and-parks/swimming#h2"/>
    <tag k="operator" v="City of Ottawa"/>
    <tag k="source" v="City of Ottawa"/>
    <tag k="source:date" v="2017-12-08"/>
    <tag k="ref" v="35593"/>
  </node>
  <node lat="45.413001" lon="-75.680061"  id="-115"  changeset="false" >
    <tag k="name" v="Splash Pad - Montgomery Memorial Park"/>
    <tag k="leisure" v="playground"/>
    <tag k="playground" v="splash_pad"/>
    <tag k="name:fr" v="Aires de jets d'eau - Parc commémoratif Montgomery / Centre communautaire de l'ancien Hôtel de Ville"/>
    <tag k="addr:housenumber" v="61"/>
    <tag k="addr:street" v="Main Street"/>
    <tag k="wheelchair" v="no"/>
    <tag k="seasonal" v="summer"/>
    <tag k="website" v="http://ottawa.ca/en/residents/recreation-and-parks/swimming#h2"/>
    <tag k="operator" v="City of Ottawa"/>
    <tag k="source" v="City of Ottawa"/>
    <tag k="source:date" v="2017-12-08"/>
    <tag k="ref" v="31764"/>
  </node>
  <node lat="45.41931" lon="-75.607941"  id="-116"  changeset="false" >
    <tag k="name" v="Splash Pad - Cyrville Park"/>
    <tag k="leisure" v="playground"/>
    <tag k="playground" v="splash_pad"/>
    <tag k="name:fr" v="Aires de jets d'eau - Parc Cyrville"/>
    <tag k="addr:housenumber" v="1420"/>
    <tag k="addr:street" v="Meadowbrook Road"/>
    <tag k="wheelchair" v="no"/>
    <tag k="seasonal" v="summer"/>
    <tag k="website" v="http://ottawa.ca/en/residents/recreation-and-parks/swimming#h2"/>
    <tag k="operator" v="City of Ottawa"/>
    <tag k="source" v="City of Ottawa"/>
    <tag k="source:date" v="2017-12-08"/>
    <tag k="ref" v="31804"/>
  </node>
  <node lat="45.421964" lon="-75.611669"  id="-117"  changeset="false" >
    <tag k="name" v="Splash Pad - Meadowbrook Park (Gloucester)"/>
    <tag k="leisure" v="playground"/>
    <tag k="playground" v="splash_pad"/>
    <tag k="name:fr" v="Aires de jets d'eau - Parc Meadowbrook (Gloucester)"/>
    <tag k="addr:housenumber" v="1485"/>
    <tag k="addr:street" v="Meadowbrook Road"/>
    <tag k="wheelchair" v="no"/>
    <tag k="seasonal" v="summer"/>
    <tag k="website" v="http://ottawa.ca/en/residents/recreation-and-parks/swimming#h2"/>
    <tag k="operator" v="City of Ottawa"/>
    <tag k="source" v="City of Ottawa"/>
    <tag k="source:date" v="2017-12-08"/>
    <tag k="ref" v="31809"/>
  </node>
  <node lat="45.449456" lon="-75.530016"  id="-118"  changeset="false" >
    <tag k="name" v="Splash Pad - Roy Park"/>
    <tag k="leisure" v="playground"/>
    <tag k="playground" v="splash_pad"/>
    <tag k="name:fr" v="Aires de jets d'eau - Parc Roy"/>
    <tag k="addr:housenumber" v="6210"/>
    <tag k="addr:street" v="Meadowglen Drive"/>
    <tag k="wheelchair" v="no"/>
    <tag k="seasonal" v="summer"/>
    <tag k="website" v="http://ottawa.ca/en/residents/recreation-and-parks/swimming#h2"/>
    <tag k="operator" v="City of Ottawa"/>
    <tag k="source" v="City of Ottawa"/>
    <tag k="source:date" v="2017-12-08"/>
    <tag k="ref" v="31817"/>
  </node>
  <node lat="45.478459" lon="-75.548772"  id="-119"  changeset="false" >
    <tag k="name" v="Splash Pad - Hiawatha Park"/>
    <tag k="leisure" v="playground"/>
    <tag k="playground" v="splash_pad"/>
    <tag k="name:fr" v="Aires de jets d'eau - Parc Hiawatha"/>
    <tag k="addr:housenumber" v="6218"/>
    <tag k="addr:street" v="Voyageur Drive"/>
    <tag k="wheelchair" v="no"/>
    <tag k="seasonal" v="summer"/>
    <tag k="website" v="http://ottawa.ca/en/residents/recreation-and-parks/swimming#h2"/>
    <tag k="operator" v="City of Ottawa"/>
    <tag k="source" v="City of Ottawa"/>
    <tag k="source:date" v="2017-12-08"/>
    <tag k="ref" v="31883"/>
  </node>
  <node lat="45.458948" lon="-75.599352"  id="-120"  changeset="false" >
    <tag k="name" v="Splash Pad - Beacon Hill North Recreation Centre"/>
    <tag k="leisure" v="playground"/>
    <tag k="playground" v="splash_pad"/>
    <tag k="name:fr" v="Aires de jets d'eau - Centre récréatif de Beacon Hill Nord"/>
    <tag k="addr:housenumber" v="2132"/>
    <tag k="addr:street" v="Radford Court"/>
    <tag k="wheelchair" v="no"/>
    <tag k="seasonal" v="summer"/>
    <tag k="website" v="http://ottawa.ca/en/residents/recreation-and-parks/swimming#h2"/>
    <tag k="operator" v="City of Ottawa"/>
    <tag k="source" v="City of Ottawa"/>
    <tag k="source:date" v="2017-12-08"/>
    <tag k="ref" v="31986"/>
  </node>
  <node lat="45.352013" lon="-75.625291"  id="-121"  changeset="false" >
    <tag k="name" v="Splash Pad - Russell Boyd Park"/>
    <tag k="leisure" v="playground"/>
    <tag k="playground" v="splash_pad"/>
    <tag k="name:fr" v="Aires de jets d'eau - Parc Russell-Boyd"/>
    <tag k="addr:housenumber" v="1735"/>
    <tag k="addr:street" v="Street Bernard Street"/>
    <tag k="wheelchair" v="no"/>
    <tag k="seasonal" v="summer"/>
    <tag k="website" v="http://ottawa.ca/en/residents/recreation-and-parks/swimming#h2"/>
    <tag k="operator" v="City of Ottawa"/>
    <tag k="source" v="City of Ottawa"/>
    <tag k="source:date" v="2017-12-08"/>
    <tag k="ref" v="34771"/>
  </node>
  <node lat="45.295216" lon="-75.902982"  id="-122"  changeset="false" >
    <tag k="name" v="Splash Pad - Walter Baker Park"/>
    <tag k="leisure" v="playground"/>
    <tag k="playground" v="splash_pad"/>
    <tag k="name:fr" v="Aires de jets d'eau - Parc Walter-Baker"/>
    <tag k="addr:housenumber" v="100"/>
    <tag k="addr:street" v="Charlie Rogers Place"/>
    <tag k="wheelchair" v="no"/>
    <tag k="seasonal" v="summer"/>
    <tag k="website" v="http://ottawa.ca/en/residents/recreation-and-parks/swimming#h2"/>
    <tag k="operator" v="City of Ottawa"/>
    <tag k="source" v="City of Ottawa"/>
    <tag k="source:date" v="2017-12-08"/>
    <tag k="ref" v="32259"/>
  </node>
  <node lat="45.466071" lon="-75.446446"  id="-123"  changeset="false" >
    <tag k="name" v="Splash Pad - Cumberland Millennium Sports Park"/>
    <tag k="leisure" v="playground"/>
    <tag k="playground" v="splash_pad"/>
    <tag k="name:fr" v="Aires de jets d'eau - Parc sportif millennium de Cumberland"/>
    <tag k="addr:housenumber" v="100"/>
    <tag k="addr:street" v="Millennium Boulevard"/>
    <tag k="wheelchair" v="yes"/>
    <tag k="seasonal" v="summer"/>
    <tag k="website" v="http://ottawa.ca/en/residents/recreation-and-parks/swimming#h2"/>
    <tag k="operator" v="City of Ottawa"/>
    <tag k="source" v="City of Ottawa"/>
    <tag k="source:date" v="2017-12-08"/>
    <tag k="ref" v="35591"/>
  </node>
  <node lat="45.284934" lon="-75.685172"  id="-124"  changeset="false" >
    <tag k="name" v="Splash Pad - Mountain Meadows Park"/>
    <tag k="leisure" v="playground"/>
    <tag k="playground" v="splash_pad"/>
    <tag k="name:fr" v="Aires de jets d'eau - Parc Mountain Meadows"/>
    <tag k="addr:housenumber" v="3740"/>
    <tag k="addr:street" v="Mountain Meadows Crescent"/>
    <tag k="wheelchair" v="no"/>
    <tag k="seasonal" v="summer"/>
    <tag k="website" v="http://ottawa.ca/en/residents/recreation-and-parks/swimming#h2"/>
    <tag k="operator" v="City of Ottawa"/>
    <tag k="source" v="City of Ottawa"/>
    <tag k="source:date" v="2017-12-08"/>
    <tag k="ref" v="36276"/>
  </node>
  <node lat="45.276791" lon="-75.93262"  id="-125"  changeset="false" >
    <tag k="name" v="Splash Pad - Pioneer Plains Park"/>
    <tag k="leisure" v="playground"/>
    <tag k="playground" v="splash_pad"/>
    <tag k="name:fr" v="Aires de jets d'eau - Parc Pioneer Plains"/>
    <tag k="addr:housenumber" v="1018"/>
    <tag k="addr:street" v="Stittsville Main Street"/>
    <tag k="wheelchair" v="no"/>
    <tag k="seasonal" v="summer"/>
    <tag k="website" v="http://ottawa.ca/en/residents/recreation-and-parks/swimming#h2"/>
    <tag k="operator" v="City of Ottawa"/>
    <tag k="source" v="City of Ottawa"/>
    <tag k="source:date" v="2017-12-08"/>
    <tag k="ref" v="34777"/>
  </node>
  <node lat="45.252734" lon="-75.738629"  id="-126"  changeset="false" >
    <tag k="name" v="Splash Pad - Half Moon Bay Park"/>
    <tag k="leisure" v="playground"/>
    <tag k="playground" v="splash_pad"/>
    <tag k="name:fr" v="Aires de jets d'eau - Parc Half Moon Bay"/>
    <tag k="addr:housenumber" v="3525"/>
    <tag k="addr:street" v="Cambrian Road"/>
    <tag k="wheelchair" v="no"/>
    <tag k="seasonal" v="summer"/>
    <tag k="website" v="http://ottawa.ca/en/residents/recreation-and-parks/swimming#h2"/>
    <tag k="operator" v="City of Ottawa"/>
    <tag k="source" v="City of Ottawa"/>
    <tag k="source:date" v="2017-12-08"/>
    <tag k="ref" v="36290"/>
  </node>
  <node lat="45.280301" lon="-75.86846"  id="-127"  changeset="false" >
    <tag k="name" v="Splash Pad - Kristina Kiss Park"/>
    <tag k="leisure" v="playground"/>
    <tag k="playground" v="splash_pad"/>
    <tag k="name:fr" v="Aires de jets d'eau - Parc Kristina-Kiss"/>
    <tag k="addr:housenumber" v="100"/>
    <tag k="addr:street" v="Akerson Road"/>
    <tag k="wheelchair" v="no"/>
    <tag k="seasonal" v="summer"/>
    <tag k="website" v="http://ottawa.ca/en/residents/recreation-and-parks/swimming#h2"/>
    <tag k="operator" v="City of Ottawa"/>
    <tag k="source" v="City of Ottawa"/>
    <tag k="source:date" v="2017-12-08"/>
    <tag k="ref" v="34769"/>
  </node>
  <node lat="45.270459" lon="-75.733507"  id="-128"  changeset="false" >
    <tag k="name" v="Splash Pad - Mancini Park"/>
    <tag k="leisure" v="playground"/>
    <tag k="playground" v="splash_pad"/>
    <tag k="name:fr" v="Aires de jets d'eau - Parc Mancini"/>
    <tag k="addr:housenumber" v="110"/>
    <tag k="addr:street" v="Mancini Way"/>
    <tag k="wheelchair" v="no"/>
    <tag k="seasonal" v="summer"/>
    <tag k="website" v="http://ottawa.ca/en/residents/recreation-and-parks/swimming#h2"/>
    <tag k="operator" v="City of Ottawa"/>
    <tag k="source" v="City of Ottawa"/>
    <tag k="source:date" v="2017-12-08"/>
    <tag k="ref" v="35501"/>
  </node>
  <node lat="45.268226" lon="-75.884197"  id="-129"  changeset="false" >
    <tag k="name" v="Splash Pad - Haliburton Park"/>
    <tag k="leisure" v="playground"/>
    <tag k="playground" v="splash_pad"/>
    <tag k="name:fr" v="Aires de jets d'eau - Parc Haliburton"/>
    <tag k="addr:housenumber" v="315"/>
    <tag k="addr:street" v="Haliburton Heights"/>
    <tag k="wheelchair" v="yes"/>
    <tag k="seasonal" v="summer"/>
    <tag k="operator" v="City of Ottawa"/>
    <tag k="source" v="City of Ottawa"/>
    <tag k="source:date" v="2017-12-08"/>
    <tag k="ref" v="35911"/>
  </node>
</osm>
