<?xml version="1.0" encoding="UTF-8"?><osm version="0.6" generator="https://github.com/Rub21/geojson2osm"><node lat="45.434671" lon="-75.681316"  id="-1"  changeset="false" ><tag k="amenity" v="bicycle_repair_station"/><tag k="description" v="Front near garden at Lowertown Community Center"/><tag k="service:bicycle:pump" v="yes"/><tag k="service:bicycle:chain_tool" v="yes"/><tag k="operator" v="City of Ottawa"/><tag k="website" v="https://ottawa.ca/en/residents/transportation-and-parking/road-safety/cycling-safety#locations-bike-repair-stations-city-ottawa"/></node><node lat="45.32163" lon="-75.894905"  id="-2"  changeset="false" ><tag k="amenity" v="bicycle_repair_station"/><tag k="description" v="Front entrance at Beaverbrook Library"/><tag k="service:bicycle:pump" v="yes"/><tag k="service:bicycle:chain_tool" v="yes"/><tag k="operator" v="City of Ottawa"/><tag k="website" v="https://ottawa.ca/en/residents/transportation-and-parking/road-safety/cycling-safety#locations-bike-repair-stations-city-ottawa"/></node><node lat="45.258424" lon="-75.920433"  id="-3"  changeset="false" ><tag k="amenity" v="bicycle_repair_station"/><tag k="description" v="Beside pavilion at Stitsville Village Square Park"/><tag k="service:bicycle:pump" v="yes"/><tag k="service:bicycle:chain_tool" v="yes"/><tag k="operator" v="City of Ottawa"/><tag k="website" v="https://ottawa.ca/en/residents/transportation-and-parking/road-safety/cycling-safety#locations-bike-repair-stations-city-ottawa"/></node><node lat="45.343306" lon="-75.931968"  id="-4"  changeset="false" ><tag k="amenity" v="bicycle_repair_station"/><tag k="description" v="Transit platform at Innovation Park and Ride"/><tag k="service:bicycle:pump" v="yes"/><tag k="service:bicycle:chain_tool" v="yes"/><tag k="operator" v="City of Ottawa"/><tag k="website" v="https://ottawa.ca/en/residents/transportation-and-parking/road-safety/cycling-safety#locations-bike-repair-stations-city-ottawa"/></node><node lat="45.349711" lon="-76.038732"  id="-5"  changeset="false" ><tag k="amenity" v="bicycle_repair_station"/><tag k="description" v="Beside community center at Carp Agricultural grounds"/><tag k="service:bicycle:pump" v="yes"/><tag k="service:bicycle:chain_tool" v="yes"/><tag k="operator" v="City of Ottawa"/><tag k="website" v="https://ottawa.ca/en/residents/transportation-and-parking/road-safety/cycling-safety#locations-bike-repair-stations-city-ottawa"/></node><node lat="45.366779" lon="-75.691667"  id="-6"  changeset="false" ><tag k="amenity" v="bicycle_repair_station"/><tag k="description" v="Beside pavilion at Mooney’s Bay"/><tag k="service:bicycle:pump" v="yes"/><tag k="service:bicycle:chain_tool" v="yes"/><tag k="operator" v="City of Ottawa"/><tag k="website" v="https://ottawa.ca/en/residents/transportation-and-parking/road-safety/cycling-safety#locations-bike-repair-stations-city-ottawa"/></node><node lat="45.468502" lon="-75.444332"  id="-7"  changeset="false" ><tag k="amenity" v="bicycle_repair_station"/><tag k="description" v="East side of entrance at École secondaire publique Gisèle-Lalonde"/><tag k="service:bicycle:pump" v="yes"/><tag k="service:bicycle:chain_tool" v="yes"/><tag k="operator" v="City of Ottawa"/><tag k="website" v="https://ottawa.ca/en/residents/transportation-and-parking/road-safety/cycling-safety#locations-bike-repair-stations-city-ottawa"/></node><node lat="45.14361" lon="-75.611574"  id="-8"  changeset="false" ><tag k="amenity" v="bicycle_repair_station"/><tag k="description" v="Pathway entrance south side at Osgoode Link Pathway"/><tag k="service:bicycle:pump" v="yes"/><tag k="service:bicycle:chain_tool" v="yes"/><tag k="operator" v="City of Ottawa"/><tag k="website" v="https://ottawa.ca/en/residents/transportation-and-parking/road-safety/cycling-safety#locations-bike-repair-stations-city-ottawa"/></node><node lat="45.346561" lon="-75.76137"  id="-9"  changeset="false" ><tag k="amenity" v="bicycle_repair_station"/><tag k="description" v="South-west side of platform at Baseline Station"/><tag k="service:bicycle:pump" v="yes"/><tag k="service:bicycle:chain_tool" v="yes"/><tag k="operator" v="City of Ottawa"/><tag k="website" v="https://ottawa.ca/en/residents/transportation-and-parking/road-safety/cycling-safety#locations-bike-repair-stations-city-ottawa"/></node><node lat="45.345825" lon="-75.809461"  id="-10"  changeset="false" ><tag k="amenity" v="bicycle_repair_station"/><tag k="description" v="South end of Centre platform at Bayshore Station"/><tag k="service:bicycle:pump" v="yes"/><tag k="service:bicycle:chain_tool" v="yes"/><tag k="operator" v="City of Ottawa"/><tag k="website" v="https://ottawa.ca/en/residents/transportation-and-parking/road-safety/cycling-safety#locations-bike-repair-stations-city-ottawa"/></node><node lat="45.320064" lon="-75.883882"  id="-11"  changeset="false" ><tag k="amenity" v="bicycle_repair_station"/><tag k="description" v="North-west side of platform at Eagleson Station"/><tag k="service:bicycle:pump" v="yes"/><tag k="service:bicycle:chain_tool" v="yes"/><tag k="operator" v="City of Ottawa"/><tag k="website" v="https://ottawa.ca/en/residents/transportation-and-parking/road-safety/cycling-safety#locations-bike-repair-stations-city-ottawa"/></node><node lat="45.360078" lon="-75.658206"  id="-12"  changeset="false" ><tag k="amenity" v="bicycle_repair_station"/><tag k="description" v="Southwest edge of parking entrance at Greenboro Station"/><tag k="service:bicycle:pump" v="yes"/><tag k="service:bicycle:chain_tool" v="yes"/><tag k="operator" v="City of Ottawa"/><tag k="website" v="https://ottawa.ca/en/residents/transportation-and-parking/road-safety/cycling-safety#locations-bike-repair-stations-city-ottawa"/></node><node lat="45.48061" lon="-75.519973"  id="-13"  changeset="false" ><tag k="amenity" v="bicycle_repair_station"/><tag k="description" v="North end of platform at Place d’Òrleans Station"/><tag k="service:bicycle:pump" v="yes"/><tag k="service:bicycle:chain_tool" v="yes"/><tag k="operator" v="City of Ottawa"/><tag k="website" v="https://ottawa.ca/en/residents/transportation-and-parking/road-safety/cycling-safety#locations-bike-repair-stations-city-ottawa"/></node><node lat="45.420702" lon="-75.636489"  id="-14"  changeset="false" ><tag k="amenity" v="bicycle_repair_station"/><tag k="description" v="North-east side of platform at St. Laurent Station"/><tag k="service:bicycle:pump" v="yes"/><tag k="service:bicycle:chain_tool" v="yes"/><tag k="operator" v="City of Ottawa"/><tag k="website" v="https://ottawa.ca/en/residents/transportation-and-parking/road-safety/cycling-safety#locations-bike-repair-stations-city-ottawa"/></node><node lat="45.275704" lon="-75.715395"  id="-15"  changeset="false" ><tag k="amenity" v="bicycle_repair_station"/><tag k="description" v="At main park n’ ride entrance at Strandherd Station"/><tag k="service:bicycle:pump" v="yes"/><tag k="service:bicycle:chain_tool" v="yes"/><tag k="operator" v="City of Ottawa"/><tag k="website" v="https://ottawa.ca/en/residents/transportation-and-parking/road-safety/cycling-safety#locations-bike-repair-stations-city-ottawa"/></node><node lat="45.396625" lon="-75.751499"  id="-16"  changeset="false" ><tag k="amenity" v="bicycle_repair_station"/><tag k="description" v="East end of station along MUP at Westboro Station"/><tag k="service:bicycle:pump" v="yes"/><tag k="service:bicycle:chain_tool" v="yes"/><tag k="operator" v="City of Ottawa"/><tag k="website" v="https://ottawa.ca/en/residents/transportation-and-parking/road-safety/cycling-safety#locations-bike-repair-stations-city-ottawa"/></node><node lat="45.29899" lon="-75.735503"  id="-17"  changeset="false" ><tag k="amenity" v="bicycle_repair_station"/><tag k="description" v="North-east side of station at Fallowfield Station"/><tag k="service:bicycle:pump" v="yes"/><tag k="service:bicycle:chain_tool" v="yes"/><tag k="operator" v="City of Ottawa"/><tag k="website" v="https://ottawa.ca/en/residents/transportation-and-parking/road-safety/cycling-safety#locations-bike-repair-stations-city-ottawa"/></node><node lat="45.421399" lon="-75.690885"  id="-18"  changeset="false" ><tag k="amenity" v="bicycle_repair_station"/><tag k="description" v="Front terrace at City Hall"/><tag k="service:bicycle:pump" v="yes"/><tag k="service:bicycle:chain_tool" v="yes"/><tag k="operator" v="City of Ottawa"/><tag k="website" v="https://ottawa.ca/en/residents/transportation-and-parking/road-safety/cycling-safety#locations-bike-repair-stations-city-ottawa"/></node><node lat="45.403389" lon="-75.68934"  id="-19"  changeset="false" ><tag k="amenity" v="bicycle_repair_station"/><tag k="description" v="Front entrance at Glebe Parking Garage"/><tag k="service:bicycle:pump" v="yes"/><tag k="service:bicycle:chain_tool" v="yes"/><tag k="operator" v="City of Ottawa"/><tag k="website" v="https://ottawa.ca/en/residents/transportation-and-parking/road-safety/cycling-safety#locations-bike-repair-stations-city-ottawa"/></node><node lat="45.419252" lon="-75.653597"  id="-20"  changeset="false" ><tag k="amenity" v="bicycle_repair_station"/><tag k="description" v="By ped overpass at Champions Stadium"/><tag k="service:bicycle:pump" v="yes"/><tag k="service:bicycle:chain_tool" v="yes"/><tag k="operator" v="City of Ottawa"/><tag k="website" v="https://ottawa.ca/en/residents/transportation-and-parking/road-safety/cycling-safety#locations-bike-repair-stations-city-ottawa"/></node><node lat="45.416613" lon="-75.705971"  id="-21"  changeset="false" ><tag k="amenity" v="bicycle_repair_station"/><tag k="description" v="Transit station at Bronson and Slater"/><tag k="service:bicycle:pump" v="yes"/><tag k="service:bicycle:chain_tool" v="yes"/><tag k="operator" v="City of Ottawa"/><tag k="website" v="https://ottawa.ca/en/residents/transportation-and-parking/road-safety/cycling-safety#locations-bike-repair-stations-city-ottawa"/></node><node lat="45.471724" lon="-75.492819"  id="-22"  changeset="false" ><tag k="amenity" v="bicycle_repair_station"/><tag k="description" v="Entrance at Cumberland Library"/><tag k="service:bicycle:pump" v="yes"/><tag k="service:bicycle:chain_tool" v="yes"/><tag k="operator" v="City of Ottawa"/><tag k="website" v="https://ottawa.ca/en/residents/transportation-and-parking/road-safety/cycling-safety#locations-bike-repair-stations-city-ottawa"/></node><node lat="45.442881" lon="-75.670685"  id="-23"  changeset="false" ><tag k="amenity" v="bicycle_repair_station"/><tag k="description" v="Front of hall at Beachwood Fire Hall"/><tag k="service:bicycle:pump" v="yes"/><tag k="service:bicycle:chain_tool" v="yes"/><tag k="operator" v="City of Ottawa"/><tag k="website" v="https://ottawa.ca/en/residents/transportation-and-parking/road-safety/cycling-safety#locations-bike-repair-stations-city-ottawa"/></node><node lat="45.436075" lon="-75.661373"  id="-24"  changeset="false" ><tag k="amenity" v="bicycle_repair_station"/><tag k="description" v="Across road at Centre Francophone de Vanier"/><tag k="service:bicycle:pump" v="yes"/><tag k="service:bicycle:chain_tool" v="yes"/><tag k="operator" v="City of Ottawa"/><tag k="website" v="https://ottawa.ca/en/residents/transportation-and-parking/road-safety/cycling-safety#locations-bike-repair-stations-city-ottawa"/></node><node lat="45.363289" lon="-75.63499"  id="-25"  changeset="false" ><tag k="amenity" v="bicycle_repair_station"/><tag k="description" v="Front Entrance at Greenboro Library"/><tag k="service:bicycle:pump" v="yes"/><tag k="service:bicycle:chain_tool" v="yes"/><tag k="operator" v="City of Ottawa"/><tag k="website" v="https://ottawa.ca/en/residents/transportation-and-parking/road-safety/cycling-safety#locations-bike-repair-stations-city-ottawa"/></node><node lat="45.436213" lon="-75.647336"  id="-26"  changeset="false" ><tag k="amenity" v="bicycle_repair_station"/><tag k="description" v="Entrance at St. Laurent Library"/><tag k="service:bicycle:pump" v="yes"/><tag k="service:bicycle:chain_tool" v="yes"/><tag k="operator" v="City of Ottawa"/><tag k="website" v="https://ottawa.ca/en/residents/transportation-and-parking/road-safety/cycling-safety#locations-bike-repair-stations-city-ottawa"/></node><node lat="45.280923" lon="-75.762016"  id="-27"  changeset="false" ><tag k="amenity" v="bicycle_repair_station"/><tag k="description" v="Entrance at 100 Malvern Dr"/><tag k="service:bicycle:pump" v="yes"/><tag k="service:bicycle:chain_tool" v="yes"/><tag k="operator" v="City of Ottawa"/><tag k="website" v="https://ottawa.ca/en/residents/transportation-and-parking/road-safety/cycling-safety#locations-bike-repair-stations-city-ottawa"/></node><node lat="45.345435" lon="-75.762383"  id="-28"  changeset="false" ><tag k="amenity" v="bicycle_repair_station"/><tag k="description" v="Close to skate park at back at Nepean Library"/><tag k="service:bicycle:pump" v="yes"/><tag k="service:bicycle:chain_tool" v="yes"/><tag k="operator" v="City of Ottawa"/><tag k="website" v="https://ottawa.ca/en/residents/transportation-and-parking/road-safety/cycling-safety#locations-bike-repair-stations-city-ottawa"/></node></osm>