<?xml version="1.0" encoding="UTF-8"?><osm version="0.6" generator="https://github.com/Rub21/geojson2osm"><node lat="45.47554" lon="-75.476688"  id="-1"  changeset="false" ><tag k="amenity" v="childcare"/><tag k="name" v="Charlemagne Nursery School"/><tag k="addr:housenumber" v="750"/><tag k="addr:street" v="Charlemagne Boulevard"/><tag k="addr:postal_code" v="K4A3M4"/><tag k="phone" v="+1-613-834-0081"/><tag k="school:language" v="english"/><tag k="source" v="City of Ottawa"/><tag k="source:date" v="2019-02-28"/></node><node lat="45.468548" lon="-75.455602"  id="-2"  changeset="false" ><tag k="amenity" v="childcare"/><tag k="name" v="Tiny Hoppers Orleans Daycare Centre"/><tag k="addr:housenumber" v="5160"/><tag k="addr:street" v="Innes Road"/><tag k="addr:postal_code" v="K4A0G4"/><tag k="phone" v="+1-613-841-1818"/><tag k="website" v="http://www.tinyhoppers.ca"/><tag k="school:language" v="english"/><tag k="source" v="City of Ottawa"/><tag k="source:date" v="2019-02-28"/></node><node lat="45.440486" lon="-75.683083"  id="-3"  changeset="false" ><tag k="amenity" v="childcare"/><tag k="name" v="New Edinburgh Community and Arts Centre After School Program"/><tag k="addr:housenumber" v="39"/><tag k="addr:street" v="Dufferin Road"/><tag k="addr:postal_code" v="K1M2H3"/><tag k="phone" v="+1-613-745-2742"/><tag k="website" v="http://nectarcentre.ca/community-programs/school"/><tag k="school:language" v="english"/><tag k="source" v="City of Ottawa"/><tag k="source:date" v="2019-02-28"/></node><node lat="45.411737" lon="-75.698081"  id="-4"  changeset="false" ><tag k="amenity" v="childcare"/><tag k="name" v="Centretown Parents' Day Care"/><tag k="addr:housenumber" v="94"/><tag k="addr:street" v="James Street"/><tag k="addr:postal_code" v="K1R5M3"/><tag k="phone" v="+1-613-235-7473"/><tag k="school:language" v="english"/><tag k="source" v="City of Ottawa"/><tag k="source:date" v="2019-02-28"/></node><node lat="45.285625" lon="-75.743878"  id="-5"  changeset="false" ><tag k="amenity" v="childcare"/><tag k="name" v="Centre éducatif coopérative Le Manège - Longfield"/><tag k="addr:housenumber" v="601"/><tag k="addr:street" v="Longfields Promenade"/><tag k="addr:postal_code" v="K2J4X1"/><tag k="phone" v="+1-613-823-5476"/><tag k="school:language" v="french"/><tag k="source" v="City of Ottawa"/><tag k="source:date" v="2019-02-28"/></node><node lat="45.432428" lon="-75.64801"  id="-6"  changeset="false" ><tag k="amenity" v="childcare"/><tag k="name" v="Rockcliffe Montessori Pre-School"/><tag k="addr:housenumber" v="415"/><tag k="addr:street" v="McArthur Avenue"/><tag k="addr:postal_code" v="K1K1G5"/><tag k="phone" v="+1-613-680-2852"/><tag k="website" v="http://www.rockcliffe-montessori-ottawa.com"/><tag k="school:language" v="english"/><tag k="source" v="City of Ottawa"/><tag k="source:date" v="2019-02-28"/></node><node lat="45.466874" lon="-75.498954"  id="-7"  changeset="false" ><tag k="amenity" v="childcare"/><tag k="name" v="Children's Universe Child Care - Dunning Foubert -1"/><tag k="addr:housenumber" v="1610"/><tag k="addr:street" v="Prestwick Drive"/><tag k="addr:postal_code" v="K1E2N1"/><tag k="phone" v="+1-613-837-9643"/><tag k="website" v="http://www.childrensuniverse.net"/><tag k="school:language" v="english"/><tag k="source" v="City of Ottawa"/><tag k="source:date" v="2019-02-28"/></node><node lat="45.278714" lon="-75.859063"  id="-8"  changeset="false" ><tag k="amenity" v="childcare"/><tag k="name" v="Centre préscolaire et parascolaire l'Étoile filante de Kanata Sud"/><tag k="addr:housenumber" v="17"/><tag k="addr:street" v="Bridgestone Drive"/><tag k="addr:postal_code" v="K2K2P9"/><tag k="phone" v="+1-613-591-8585"/><tag k="school:language" v="french"/><tag k="source" v="City of Ottawa"/><tag k="source:date" v="2019-02-28"/></node><node lat="45.351166" lon="-75.794377"  id="-9"  changeset="false" ><tag k="amenity" v="childcare"/><tag k="name" v="MAC Preschool and Childcare:Abraar Location"/><tag k="addr:housenumber" v="1085"/><tag k="addr:street" v="Grenon Avenue"/><tag k="addr:postal_code" v="K2B8L7"/><tag k="phone" v="+1-613-820-0044"/><tag k="website" v="http://wwwmacchildcare.com"/><tag k="school:language" v="english"/><tag k="source" v="City of Ottawa"/><tag k="source:date" v="2019-02-28"/></node><node lat="45.375387" lon="-75.773062"  id="-10"  changeset="false" ><tag k="amenity" v="childcare"/><tag k="name" v="MATRESHKA"/><tag k="addr:housenumber" v="207"/><tag k="addr:street" v="Woodroffe Avenue"/><tag k="addr:postal_code" v="K2A3V1"/><tag k="phone" v="+1-613-722-5591"/><tag k="website" v="http://www.russiandaycare.ca"/><tag k="school:language" v="english"/><tag k="source" v="City of Ottawa"/><tag k="source:date" v="2019-02-28"/></node><node lat="45.310024" lon="-75.88997"  id="-11"  changeset="false" ><tag k="amenity" v="childcare"/><tag k="name" v="Katimavik Cooperative Nursery School"/><tag k="addr:housenumber" v="64"/><tag k="addr:street" v="Chimo Drive"/><tag k="addr:postal_code" v="K2L1Y9"/><tag k="phone" v="+1-613-592-1700"/><tag k="website" v="http://www.kcns.ca"/><tag k="school:language" v="english"/><tag k="source" v="City of Ottawa"/><tag k="source:date" v="2019-02-28"/></node><node lat="45.293038" lon="-75.74212"  id="-12"  changeset="false" ><tag k="amenity" v="childcare"/><tag k="name" v="Little Scholars Montessori Academy"/><tag k="addr:housenumber" v="15-3500"/><tag k="addr:street" v="Fallowfield Road"/><tag k="addr:postal_code" v="K2J4A7"/><tag k="phone" v="+1-613-277-6866"/><tag k="website" v="http://www.littlescholarsmontessori.com"/><tag k="school:language" v="english"/><tag k="source" v="City of Ottawa"/><tag k="source:date" v="2019-02-28"/></node><node lat="45.388658" lon="-75.75574"  id="-13"  changeset="false" ><tag k="amenity" v="childcare"/><tag k="name" v="Westboro Village Co-operative Preschool"/><tag k="addr:housenumber" v="470"/><tag k="addr:street" v="Roosevelt Avenue"/><tag k="addr:postal_code" v="K2A1Z6"/><tag k="phone" v="+1-613-728-9473"/><tag k="website" v="http://wvcp.ca"/><tag k="school:language" v="english"/><tag k="source" v="City of Ottawa"/><tag k="source:date" v="2019-02-28"/></node><node lat="45.373855" lon="-75.64522"  id="-14"  changeset="false" ><tag k="amenity" v="childcare"/><tag k="name" v="Heron Gate School Age Program"/><tag k="addr:housenumber" v="1620-B"/><tag k="addr:street" v="Heatherington Road"/><tag k="addr:postal_code" v="K1V9P5"/><tag k="phone" v="+1-613-260-3958"/><tag k="school:language" v="english"/><tag k="source" v="City of Ottawa"/><tag k="source:date" v="2019-02-28"/></node><node lat="45.325274" lon="-75.78114"  id="-15"  changeset="false" ><tag k="amenity" v="childcare"/><tag k="name" v="Stepping Up Daycare Inc."/><tag k="addr:housenumber" v="63"/><tag k="addr:street" v="Glencoe Street"/><tag k="addr:postal_code" v="K2H8S5"/><tag k="phone" v="+1-613-686-3986"/><tag k="school:language" v="english"/><tag k="source" v="City of Ottawa"/><tag k="source:date" v="2019-02-28"/></node><node lat="45.454351" lon="-75.604662"  id="-16"  changeset="false" ><tag k="amenity" v="childcare"/><tag k="name" v="Beaconwood School Age Program"/><tag k="addr:housenumber" v="635"/><tag k="addr:street" v="Laverendrye Drive"/><tag k="addr:postal_code" v="K1J7C2"/><tag k="phone" v="+1-613-749-7771"/><tag k="school:language" v="english"/><tag k="source" v="City of Ottawa"/><tag k="source:date" v="2019-02-28"/></node><node lat="45.381496" lon="-75.747929"  id="-17"  changeset="false" ><tag k="amenity" v="childcare"/><tag k="name" v="Churchill Carling Daycare"/><tag k="addr:housenumber" v="724"/><tag k="addr:street" v="Churchill Avenue North"/><tag k="addr:postal_code" v="K1Z5G5"/><tag k="phone" v="+1-613-722-0505"/><tag k="website" v="http://www.churchilldaycare.ca"/><tag k="school:language" v="english"/><tag k="source" v="City of Ottawa"/><tag k="source:date" v="2019-02-28"/></node><node lat="45.38121" lon="-75.772461"  id="-18"  changeset="false" ><tag k="amenity" v="childcare"/><tag k="name" v="River Parkway Children's Centre"/><tag k="addr:housenumber" v="40"/><tag k="addr:street" v="Cleary Avenue"/><tag k="addr:postal_code" v="K2A4A1"/><tag k="phone" v="+1-613-729-3129"/><tag k="website" v="http://www.riverparkwaycentre.ca"/><tag k="school:language" v="english"/><tag k="source" v="City of Ottawa"/><tag k="source:date" v="2019-02-28"/></node><node lat="45.426" lon="-75.675311"  id="-19"  changeset="false" ><tag k="amenity" v="childcare"/><tag k="name" v="Bettye Hyde Cooperative Early Learning Centre"/><tag k="addr:housenumber" v="43"/><tag k="addr:street" v="Blackburn Avenue"/><tag k="addr:postal_code" v="K1N8A4"/><tag k="phone" v="+1-613-236-3108"/><tag k="website" v="http://www.bettyehyde.com"/><tag k="school:language" v="english"/><tag k="source" v="City of Ottawa"/><tag k="source:date" v="2019-02-28"/></node><node lat="45.272574" lon="-75.758747"  id="-20"  changeset="false" ><tag k="amenity" v="childcare"/><tag k="name" v="Little Pickles and Poppets"/><tag k="addr:housenumber" v="3013"/><tag k="addr:street" v="Jockvale Road"/><tag k="addr:postal_code" v="K2J4E4"/><tag k="phone" v="+1-613-823-9272"/><tag k="school:language" v="english"/><tag k="source" v="City of Ottawa"/><tag k="source:date" v="2019-02-28"/></node><node lat="45.47172" lon="-75.50935"  id="-21"  changeset="false" ><tag k="amenity" v="childcare"/><tag k="name" v="La Coccinelle Reine des Bois"/><tag k="addr:housenumber" v="1450"/><tag k="addr:street" v="Duford Promenade"/><tag k="addr:postal_code" v="K1E1E6"/><tag k="phone" v="+1-613-824-7176"/><tag k="website" v="http://www.lacoccinelle.com"/><tag k="school:language" v="french"/><tag k="source" v="City of Ottawa"/><tag k="source:date" v="2019-02-28"/></node><node lat="45.428756" lon="-75.648509"  id="-22"  changeset="false" ><tag k="amenity" v="childcare"/><tag k="name" v="Fairview Child Care Centre"/><tag k="addr:housenumber" v="437"/><tag k="addr:street" v="Donald Street"/><tag k="addr:postal_code" v="K1K1L8"/><tag k="phone" v="+1-613-749-2556"/><tag k="school:language" v="english"/><tag k="source" v="City of Ottawa"/><tag k="source:date" v="2019-02-28"/></node><node lat="45.42574" lon="-75.657956"  id="-23"  changeset="false" ><tag k="amenity" v="childcare"/><tag k="name" v="Makonsag Aboriginal Head Start Inc"/><tag k="addr:housenumber" v="149"/><tag k="addr:street" v="King George Street"/><tag k="addr:postal_code" v="K1K1V2"/><tag k="phone" v="+1-613-724-5844"/><tag k="website" v="http://www.makonsag.ca"/><tag k="school:language" v="english"/><tag k="source" v="City of Ottawa"/><tag k="source:date" v="2019-02-28"/></node><node lat="45.221736" lon="-75.686326"  id="-24"  changeset="false" ><tag k="amenity" v="childcare"/><tag k="name" v="Manotick Co-operative Nursery School"/><tag k="addr:housenumber" v="5572"/><tag k="addr:street" v="Doctor Leach Drive"/><tag k="addr:postal_code" v="K4M1C8"/><tag k="phone" v="+1-613-692-2188"/><tag k="website" v="http://www.manoticknurseryschool.com/"/><tag k="school:language" v="english"/><tag k="source" v="City of Ottawa"/><tag k="source:date" v="2019-02-28"/></node><node lat="45.311567" lon="-75.882455"  id="-25"  changeset="false" ><tag k="amenity" v="childcare"/><tag k="name" v="Programme Petits pas à trois école Roger-St-Denis"/><tag k="addr:housenumber" v="186"/><tag k="addr:street" v="Barrow Crescent"/><tag k="addr:postal_code" v="K2L2C7"/><tag k="phone" v="+1-613-744-2555"/><tag k="school:language" v="french"/><tag k="source" v="City of Ottawa"/><tag k="source:date" v="2019-02-28"/></node><node lat="45.281766" lon="-75.708904"  id="-26"  changeset="false" ><tag k="amenity" v="childcare"/><tag k="name" v="Mothercraft Ottawa Waterbridge Program"/><tag k="addr:housenumber" v="75"/><tag k="addr:street" v="Waterbridge Drive"/><tag k="addr:postal_code" v="K2G6T3"/><tag k="phone" v="+1-613-825-3110"/><tag k="website" v="http://www.mothercraft.com"/><tag k="school:language" v="english"/><tag k="source" v="City of Ottawa"/><tag k="source:date" v="2019-02-28"/></node><node lat="45.447073" lon="-75.473805"  id="-27"  changeset="false" ><tag k="amenity" v="childcare"/><tag k="name" v="La Coccinelle Alain Fortin"/><tag k="addr:housenumber" v="676"/><tag k="addr:street" v="Lakeridge Promenade"/><tag k="addr:postal_code" v="K1C2X8"/><tag k="phone" v="+1-613-834-8055"/><tag k="website" v="http://www.lacoccinelle.com"/><tag k="school:language" v="french"/><tag k="source" v="City of Ottawa"/><tag k="source:date" v="2019-02-28"/></node><node lat="45.284794" lon="-75.862048"  id="-28"  changeset="false" ><tag k="amenity" v="childcare"/><tag k="name" v="Children's Village at Bridlewood"/><tag k="addr:housenumber" v="63"/><tag k="addr:street" v="Bluegrass Drive"/><tag k="addr:postal_code" v="K2M1G2"/><tag k="phone" v="+1-613-715-4217"/><tag k="school:language" v="english"/><tag k="source" v="City of Ottawa"/><tag k="source:date" v="2019-02-28"/></node><node lat="45.472581" lon="-75.50846"  id="-29"  changeset="false" ><tag k="amenity" v="childcare"/><tag k="name" v="La Coccinelle École la Source"/><tag k="addr:housenumber" v="1445"/><tag k="addr:street" v="Duford Promenade"/><tag k="addr:postal_code" v="K1E1E8"/><tag k="phone" v="+1-613-830-0212"/><tag k="website" v="http://www.lacoccinelle.com"/><tag k="school:language" v="french"/><tag k="source" v="City of Ottawa"/><tag k="source:date" v="2019-02-28"/></node><node lat="45.478761" lon="-75.48048"  id="-30"  changeset="false" ><tag k="amenity" v="childcare"/><tag k="name" v="St. Francis of Assisi Early Learning Centre"/><tag k="addr:housenumber" v="795B"/><tag k="addr:street" v="Watters Road"/><tag k="addr:postal_code" v="K4A2T2"/><tag k="phone" v="+1-613-830-7239"/><tag k="school:language" v="english"/><tag k="source" v="City of Ottawa"/><tag k="source:date" v="2019-02-28"/></node><node lat="45.244628" lon="-75.646479"  id="-31"  changeset="false" ><tag k="amenity" v="childcare"/><tag k="name" v="Manotick Montessori Casa Dei Bambini"/><tag k="addr:housenumber" v="5710"/><tag k="addr:street" v="Longshadow Street"/><tag k="addr:postal_code" v="K4M1M2"/><tag k="phone" v="+1-613-692-1969"/><tag k="website" v="http://brightpathkids.com/"/><tag k="school:language" v="english"/><tag k="source" v="City of Ottawa"/><tag k="source:date" v="2019-02-28"/></node><node lat="45.274574" lon="-75.93116"  id="-32"  changeset="false" ><tag k="amenity" v="childcare"/><tag k="name" v="Jackson Trails Early Learning Centre"/><tag k="addr:housenumber" v="1145"/><tag k="addr:street" v="B Stittsville Main Street"/><tag k="addr:postal_code" v="K2S1B6"/><tag k="phone" v="+1-613-836-1290"/><tag k="school:language" v="english"/><tag k="source" v="City of Ottawa"/><tag k="source:date" v="2019-02-28"/></node><node lat="45.356941" lon="-75.732081"  id="-33"  changeset="false" ><tag k="amenity" v="childcare"/><tag k="name" v="Huron Early Learning Centre"/><tag k="addr:housenumber" v="24"/><tag k="addr:street" v="Capilano Drive"/><tag k="addr:postal_code" v="K2E6G2"/><tag k="phone" v="+1-613-852-3799"/><tag k="school:language" v="english"/><tag k="source" v="City of Ottawa"/><tag k="source:date" v="2019-02-28"/></node><node lat="45.327378" lon="-75.922355"  id="-34"  changeset="false" ><tag k="amenity" v="childcare"/><tag k="name" v="Centre éducatif Coeur des Jeunes Saint-Rémi"/><tag k="addr:housenumber" v="100"/><tag k="addr:street" v="Walden Drive"/><tag k="addr:postal_code" v="K2L2C7"/><tag k="phone" v="+1-613-878-9686"/><tag k="website" v="http://www.coeurdesjeunes.ca"/><tag k="school:language" v="french"/><tag k="source" v="City of Ottawa"/><tag k="source:date" v="2019-02-28"/></node><node lat="45.440228" lon="-75.643201"  id="-35"  changeset="false" ><tag k="amenity" v="childcare"/><tag k="name" v="St. Laurent Academy/Académie St. Laurent"/><tag k="addr:housenumber" v="641"/><tag k="addr:street" v="Sladen Avenue"/><tag k="addr:postal_code" v="K1K2S8"/><tag k="phone" v="+1-613-842-8047"/><tag k="website" v="http://www.st-laurentacademy.com"/><tag k="school:language" v="english;french"/><tag k="source" v="City of Ottawa"/><tag k="source:date" v="2019-02-28"/></node><node lat="45.380947" lon="-75.750264"  id="-36"  changeset="false" ><tag k="amenity" v="childcare"/><tag k="name" v="Churchill Carling Daycare KSA Division"/><tag k="addr:housenumber" v="715"/><tag k="addr:street" v="Roosevelt Avenue"/><tag k="addr:postal_code" v="K2A2A8"/><tag k="phone" v="+1-613-798-2440"/><tag k="website" v="http://www.churchilldaycare.ca"/><tag k="school:language" v="english"/><tag k="source" v="City of Ottawa"/><tag k="source:date" v="2019-02-28"/></node><node lat="45.191202" lon="-75.83427"  id="-37"  changeset="false" ><tag k="amenity" v="childcare"/><tag k="name" v="Richmond Cooperative Nursery School"/><tag k="addr:housenumber" v="3529"/><tag k="addr:street" v="McBean Street"/><tag k="addr:postal_code" v="K0A2Z0"/><tag k="phone" v="+1-613-838-2575"/><tag k="website" v="http://www.rcns.ca"/><tag k="school:language" v="english"/><tag k="source" v="City of Ottawa"/><tag k="source:date" v="2019-02-28"/></node><node lat="45.349307" lon="-75.77229"  id="-38"  changeset="false" ><tag k="amenity" v="childcare"/><tag k="name" v="Bishop Hamilton Montessori School"/><tag k="addr:housenumber" v="2199"/><tag k="addr:street" v="Regency Terrace"/><tag k="addr:postal_code" v="K2C1H2"/><tag k="phone" v="+1-613-596-4013"/><tag k="website" v="http://BHMS.ca"/><tag k="school:language" v="english"/><tag k="source" v="City of Ottawa"/><tag k="source:date" v="2019-02-28"/></node><node lat="45.417563" lon="-75.694753"  id="-39"  changeset="false" ><tag k="amenity" v="childcare"/><tag k="name" v="Wellington Ward (Ottawa) Child Care Centre"/><tag k="addr:housenumber" v="258"/><tag k="addr:street" v="Lisgar Street"/><tag k="addr:postal_code" v="K2P0C9"/><tag k="phone" v="+1-613-236-0921"/><tag k="school:language" v="english"/><tag k="source" v="City of Ottawa"/><tag k="source:date" v="2019-02-28"/></node><node lat="45.440506" lon="-75.63096"  id="-40"  changeset="false" ><tag k="amenity" v="childcare"/><tag k="name" v="Centre Éducatif Brin de Soleil"/><tag k="addr:housenumber" v="350"/><tag k="addr:street" v="Den Haag Promenade"/><tag k="addr:postal_code" v="K1K2S8"/><tag k="phone" v="+1-613-741-4025"/><tag k="school:language" v="french"/><tag k="source" v="City of Ottawa"/><tag k="source:date" v="2019-02-28"/></node><node lat="45.39019" lon="-75.631299"  id="-41"  changeset="false" ><tag k="amenity" v="childcare"/><tag k="name" v="Le Carrefour d'Ottawa - Arch"/><tag k="addr:housenumber" v="2198"/><tag k="addr:street" v="Arch Rue"/><tag k="addr:postal_code" v="K1G2H7"/><tag k="phone" v="+1-613-523-6468"/><tag k="school:language" v="french"/><tag k="source" v="City of Ottawa"/><tag k="source:date" v="2019-02-28"/></node><node lat="45.429397" lon="-75.686839"  id="-42"  changeset="false" ><tag k="amenity" v="childcare"/><tag k="name" v="Andrew Fleck Child Care Centre"/><tag k="addr:housenumber" v="195"/><tag k="addr:street" v="George Street"/><tag k="addr:postal_code" v="K1N5W6"/><tag k="phone" v="+1-613-789-4100"/><tag k="website" v="http://www.afchildcare.on.ca"/><tag k="school:language" v="english"/><tag k="source" v="City of Ottawa"/><tag k="source:date" v="2019-02-28"/></node><node lat="45.402571" lon="-75.729553"  id="-43"  changeset="false" ><tag k="amenity" v="childcare"/><tag k="name" v="ABC Preschool Centre"/><tag k="addr:housenumber" v="28"/><tag k="addr:street" v="Oxford Street"/><tag k="addr:postal_code" v="K1Y2R7"/><tag k="phone" v="+1-613-729-1677"/><tag k="website" v="http://www.abcdaycarecentre.ca"/><tag k="school:language" v="english"/><tag k="source" v="City of Ottawa"/><tag k="source:date" v="2019-02-28"/></node><node lat="45.404399" lon="-75.688486"  id="-44"  changeset="false" ><tag k="amenity" v="childcare"/><tag k="name" v="Good Morning Preschool"/><tag k="addr:housenumber" v="174"/><tag k="addr:street" v="First Avenue"/><tag k="addr:postal_code" v="K1S2G4"/><tag k="phone" v="+1-613-276-7974"/><tag k="website" v="http://www.gmcaps.com"/><tag k="school:language" v="english"/><tag k="source" v="City of Ottawa"/><tag k="source:date" v="2019-02-28"/></node><node lat="45.284734" lon="-75.682913"  id="-45"  changeset="false" ><tag k="amenity" v="childcare"/><tag k="name" v="Centre Éducatif La Clémentine Bernard - Grandmaître"/><tag k="addr:housenumber" v="4170"/><tag k="addr:street" v="Spratt Road"/><tag k="addr:postal_code" v="K1V0Z5"/><tag k="phone" v="+1-613-822-4276"/><tag k="website" v="http://www.laclementine.ca"/><tag k="school:language" v="french"/><tag k="source" v="City of Ottawa"/><tag k="source:date" v="2019-02-28"/></node><node lat="45.352047" lon="-75.767695"  id="-46"  changeset="false" ><tag k="amenity" v="childcare"/><tag k="name" v="Le Cerf-Volant, école Terre-des-Jeunes"/><tag k="addr:housenumber" v="1303"/><tag k="addr:street" v="Fellows Chemin"/><tag k="addr:postal_code" v="K2C2V8"/><tag k="phone" v="+1-613-828-7830"/><tag k="website" v="http://www.grandirensemble.ca"/><tag k="school:language" v="french"/><tag k="source" v="City of Ottawa"/><tag k="source:date" v="2019-02-28"/></node><node lat="45.474359" lon="-75.508468"  id="-47"  changeset="false" ><tag k="amenity" v="childcare"/><tag k="name" v="Cumberland Hub Day Care"/><tag k="addr:housenumber" v="103-261"/><tag k="addr:street" v="Tompkins Avenue"/><tag k="addr:postal_code" v="K1E3K9"/><tag k="phone" v="+1-613-834-8642"/><tag k="website" v="http://www.cumberlandhubdaycare.ca"/><tag k="school:language" v="english"/><tag k="source" v="City of Ottawa"/><tag k="source:date" v="2019-02-28"/></node><node lat="45.411778" lon="-75.697141"  id="-48"  changeset="false" ><tag k="amenity" v="childcare"/><tag k="name" v="Florence Child Care"/><tag k="addr:housenumber" v="79"/><tag k="addr:street" v="Florence Street"/><tag k="addr:postal_code" v="K1R5N1"/><tag k="phone" v="+1-613-232-4101"/><tag k="school:language" v="english"/><tag k="source" v="City of Ottawa"/><tag k="source:date" v="2019-02-28"/></node><node lat="45.460164" lon="-75.597452"  id="-49"  changeset="false" ><tag k="amenity" v="childcare"/><tag k="name" v="CENTRE ÉDUCATIF SUR UN NUAGE"/><tag k="addr:housenumber" v="614"/><tag k="addr:street" v="Eastvale Promenade"/><tag k="addr:postal_code" v="K1J6Z6"/><tag k="phone" v="+1-613-745-5514"/><tag k="website" v="http://www.surunnuage.ca"/><tag k="school:language" v="french"/><tag k="source" v="City of Ottawa"/><tag k="source:date" v="2019-02-28"/></node><node lat="45.252939" lon="-75.6968"  id="-50"  changeset="false" ><tag k="amenity" v="childcare"/><tag k="name" v="My Little Preschool"/><tag k="addr:housenumber" v="815"/><tag k="addr:street" v="River Road"/><tag k="addr:postal_code" v="K4M1B2"/><tag k="phone" v="+1-613-692-0004"/><tag k="website" v="http://www.mylittlepreschool.ca"/><tag k="school:language" v="english"/><tag k="source" v="City of Ottawa"/><tag k="source:date" v="2019-02-28"/></node><node lat="45.349588" lon="-75.79459"  id="-51"  changeset="false" ><tag k="amenity" v="childcare"/><tag k="name" v="Foster's Farm Day Care Centre"/><tag k="addr:housenumber" v="1065"/><tag k="addr:street" v="Ramsay Crescent"/><tag k="addr:postal_code" v="K2B7Z9"/><tag k="phone" v="+1-613-829-8939"/><tag k="school:language" v="english"/><tag k="source" v="City of Ottawa"/><tag k="source:date" v="2019-02-28"/></node><node lat="45.371502" lon="-75.656829"  id="-52"  changeset="false" ><tag k="amenity" v="childcare"/><tag k="name" v="Programme Petits pas à trois école Marius-Barbeau"/><tag k="addr:housenumber" v="1345"/><tag k="addr:street" v="Nottinghill Avenue"/><tag k="addr:postal_code" v="K1V6T3"/><tag k="phone" v="+1-613-744-2555"/><tag k="school:language" v="french"/><tag k="source" v="City of Ottawa"/><tag k="source:date" v="2019-02-28"/></node><node lat="45.292301" lon="-75.728892"  id="-53"  changeset="false" ><tag k="amenity" v="childcare"/><tag k="name" v="Little Scholars Montessori Daycare"/><tag k="addr:housenumber" v="4-2910"/><tag k="addr:street" v="Woodroffe Avenue"/><tag k="addr:postal_code" v="K2J4G3"/><tag k="phone" v="+1-613-277-6866"/><tag k="website" v="http://littlescholarsmontessori.com"/><tag k="school:language" v="english"/><tag k="source" v="City of Ottawa"/><tag k="source:date" v="2019-02-28"/></node><node lat="45.465326" lon="-75.485225"  id="-54"  changeset="false" ><tag k="amenity" v="childcare"/><tag k="name" v="Centre parascolaire Alpha 3-12 d'Orléans Inc."/><tag k="addr:housenumber" v="1917"/><tag k="addr:street" v="Gardenway Chemin"/><tag k="addr:postal_code" v="K4A2Y7"/><tag k="phone" v="+1-613-824-8160"/><tag k="website" v="http://www.alpha312.ca"/><tag k="school:language" v="french"/><tag k="source" v="City of Ottawa"/><tag k="source:date" v="2019-02-28"/></node><node lat="45.479385" lon="-75.472972"  id="-55"  changeset="false" ><tag k="amenity" v="childcare"/><tag k="name" v="Trillium School Age Program"/><tag k="addr:housenumber" v="1515"/><tag k="addr:street" v="B Varennes Boulevard"/><tag k="addr:postal_code" v="K4A3S1"/><tag k="phone" v="+1-613-841-5497"/><tag k="website" v="http://www.gccs.ca"/><tag k="school:language" v="english"/><tag k="source" v="City of Ottawa"/><tag k="source:date" v="2019-02-28"/></node><node lat="45.411959" lon="-75.678277"  id="-56"  changeset="false" ><tag k="amenity" v="childcare"/><tag k="name" v="Rainbow Kidschool"/><tag k="addr:housenumber" v="63"/><tag k="addr:street" v="Evelyn Avenue"/><tag k="addr:postal_code" v="K1S0C6"/><tag k="phone" v="+1-613-235-2255"/><tag k="website" v="http://www.rainbowkidschool.ca"/><tag k="school:language" v="english"/><tag k="source" v="City of Ottawa"/><tag k="source:date" v="2019-02-28"/></node><node lat="45.315935" lon="-75.828582"  id="-57"  changeset="false" ><tag k="amenity" v="childcare"/><tag k="name" v="Bells Corners Cooperative Nursery School"/><tag k="addr:housenumber" v="3955"/><tag k="addr:street" v="Richmond Road"/><tag k="addr:postal_code" v="K2H5C5"/><tag k="phone" v="+1-613-828-6011"/><tag k="website" v="http://bccns.ca"/><tag k="school:language" v="english"/><tag k="source" v="City of Ottawa"/><tag k="source:date" v="2019-02-28"/></node><node lat="45.464884" lon="-75.460911"  id="-58"  changeset="false" ><tag k="amenity" v="childcare"/><tag k="name" v="La Coccinelle, De La Découverte"/><tag k="addr:housenumber" v="866"/><tag k="addr:street" v="Scala Avenue"/><tag k="addr:postal_code" v="K4A3T6"/><tag k="phone" v="+1-613-841-3535"/><tag k="website" v="http://www.lacoccinelle.com"/><tag k="school:language" v="french"/><tag k="source" v="City of Ottawa"/><tag k="source:date" v="2019-02-28"/></node><node lat="45.42574" lon="-75.657956"  id="-59"  changeset="false" ><tag k="amenity" v="childcare"/><tag k="name" v="VINCI School"/><tag k="addr:housenumber" v="149"/><tag k="addr:street" v="King George Street"/><tag k="addr:postal_code" v="K1K1V2"/><tag k="phone" v="+1-613-842-7557"/><tag k="website" v="http://www.vincischool.org"/><tag k="school:language" v="english"/><tag k="source" v="City of Ottawa"/><tag k="source:date" v="2019-02-28"/></node><node lat="45.330848" lon="-75.672962"  id="-60"  changeset="false" ><tag k="amenity" v="childcare"/><tag k="name" v="MFRC-NCR Playtime Platoon Childcare Centre /Garderie"/><tag k="addr:housenumber" v="330"/><tag k="addr:street" v="Croil Private"/><tag k="addr:postal_code" v="K1V1J1"/><tag k="phone" v="+1-613-998-4888"/><tag k="website" v="http://www.mfrc-ncr.org"/><tag k="school:language" v="english"/><tag k="source" v="City of Ottawa"/><tag k="source:date" v="2019-02-28"/></node><node lat="45.390236" lon="-75.749923"  id="-61"  changeset="false" ><tag k="amenity" v="childcare"/><tag k="name" v="Mothercraft Ottawa Child Care Centre"/><tag k="addr:housenumber" v="475"/><tag k="addr:street" v="Evered Avenue"/><tag k="addr:postal_code" v="K1Z5K9"/><tag k="phone" v="+1-613-728-1839"/><tag k="website" v="http://www.mothercraft.com"/><tag k="school:language" v="english"/><tag k="source" v="City of Ottawa"/><tag k="source:date" v="2019-02-28"/></node><node lat="45.421713" lon="-75.669177"  id="-62"  changeset="false" ><tag k="amenity" v="childcare"/><tag k="name" v="Centre Youville Centre"/><tag k="addr:housenumber" v="150"/><tag k="addr:street" v="Mann Avenue"/><tag k="addr:postal_code" v="K1N8P4"/><tag k="phone" v="+1-613-231-5150"/><tag k="school:language" v="english"/><tag k="source" v="City of Ottawa"/><tag k="source:date" v="2019-02-28"/></node><node lat="45.339295" lon="-75.905858"  id="-63"  changeset="false" ><tag k="amenity" v="childcare"/><tag k="name" v="The Children's Place (Megan's Place)"/><tag k="addr:housenumber" v="312"/><tag k="addr:street" v="Legget Drive"/><tag k="addr:postal_code" v="K2K1Y6"/><tag k="phone" v="+1-613-592-5002"/><tag k="website" v="http://www.childrensplace.on.ca"/><tag k="school:language" v="english"/><tag k="source" v="City of Ottawa"/><tag k="source:date" v="2019-02-28"/></node><node lat="45.283641" lon="-75.847275"  id="-64"  changeset="false" ><tag k="amenity" v="childcare"/><tag k="name" v="Lady Macdonald Centre"/><tag k="addr:housenumber" v="401"/><tag k="addr:street" v="Stonehaven Drive"/><tag k="addr:postal_code" v="K2M3B5"/><tag k="phone" v="+1-613-725-2040"/><tag k="website" v="http://www.childrensvillage.on.ca"/><tag k="school:language" v="english"/><tag k="source" v="City of Ottawa"/><tag k="source:date" v="2019-02-28"/></node><node lat="45.374844" lon="-75.659935"  id="-65"  changeset="false" ><tag k="amenity" v="childcare"/><tag k="name" v="Andrew Fleck Child Care Services - Charles Hulse Day Care"/><tag k="addr:housenumber" v="2605"/><tag k="addr:street" v="Alta Vista"/><tag k="addr:postal_code" v="K1V7T3"/><tag k="phone" v="+1-613-736-1913"/><tag k="website" v="http://www.afchildcare.on.ca"/><tag k="school:language" v="english"/><tag k="source" v="City of Ottawa"/><tag k="source:date" v="2019-02-28"/></node><node lat="45.394353" lon="-75.735887"  id="-66"  changeset="false" ><tag k="amenity" v="childcare"/><tag k="name" v="Elmdale Kindergarten School Age Program"/><tag k="addr:housenumber" v="49"/><tag k="addr:street" v="Iona Street"/><tag k="addr:postal_code" v="K1Y3L9"/><tag k="phone" v="+1-613-798-2273"/><tag k="school:language" v="english"/><tag k="source" v="City of Ottawa"/><tag k="source:date" v="2019-02-28"/></node><node lat="45.395336" lon="-75.614162"  id="-67"  changeset="false" ><tag k="amenity" v="childcare"/><tag k="name" v="Service à l'enfance Aladin Childcare Services"/><tag k="addr:housenumber" v="2240"/><tag k="addr:street" v="Russell Road"/><tag k="addr:postal_code" v="K1G1B3"/><tag k="phone" v="+1-613-733-0553"/><tag k="website" v="http://www.aladin.pw"/><tag k="school:language" v="english"/><tag k="source" v="City of Ottawa"/><tag k="source:date" v="2019-02-28"/></node><node lat="45.304833" lon="-75.905965"  id="-68"  changeset="false" ><tag k="amenity" v="childcare"/><tag k="name" v="Pickles and Poppets Nursery School"/><tag k="addr:housenumber" v="200"/><tag k="addr:street" v="Katimavik Road"/><tag k="addr:postal_code" v="K2L4A2"/><tag k="phone" v="+1-613-296-0668"/><tag k="school:language" v="english"/><tag k="source" v="City of Ottawa"/><tag k="source:date" v="2019-02-28"/></node><node lat="45.407707" lon="-75.652762"  id="-69"  changeset="false" ><tag k="amenity" v="childcare"/><tag k="name" v="Ottawa Montessori School"/><tag k="addr:housenumber" v="335"/><tag k="addr:street" v="Lindsay Street"/><tag k="addr:postal_code" v="K1G0L6"/><tag k="phone" v="+1-613-521-5185"/><tag k="website" v="http://www.omsmontessori.com"/><tag k="school:language" v="english"/><tag k="source" v="City of Ottawa"/><tag k="source:date" v="2019-02-28"/></node><node lat="45.490815" lon="-75.481171"  id="-70"  changeset="false" ><tag k="amenity" v="childcare"/><tag k="name" v="Centre éducatif des Bécasseaux"/><tag k="addr:housenumber" v="510"/><tag k="addr:street" v="Lacolle Way"/><tag k="addr:postal_code" v="K4A0N9"/><tag k="phone" v="+1-613-824-0722"/><tag k="website" v="http://www.centredesbecasseaux.com"/><tag k="school:language" v="french"/><tag k="source" v="City of Ottawa"/><tag k="source:date" v="2019-02-28"/></node><node lat="45.418294" lon="-75.703132"  id="-71"  changeset="false" ><tag k="amenity" v="childcare"/><tag k="name" v="Ottawa-Albert - Kids and Company"/><tag k="addr:housenumber" v="360"/><tag k="addr:street" v="Albert Street"/><tag k="addr:postal_code" v="K1R7X7"/><tag k="phone" v="+1-613-237-2658"/><tag k="website" v="http://www.kidsandcompany.com"/><tag k="school:language" v="english"/><tag k="source" v="City of Ottawa"/><tag k="source:date" v="2019-02-28"/></node><node lat="45.432471" lon="-75.681736"  id="-72"  changeset="false" ><tag k="amenity" v="childcare"/><tag k="name" v="Service à l'enfance Aladin, site Sainte-Anne"/><tag k="addr:housenumber" v="235"/><tag k="addr:street" v="Beausoleil Promenade"/><tag k="addr:postal_code" v="K1N8X8"/><tag k="phone" v="+1-613-241-0590"/><tag k="website" v="http://www.aladin.services"/><tag k="school:language" v="french"/><tag k="source" v="City of Ottawa"/><tag k="source:date" v="2019-02-28"/></node><node lat="45.256014" lon="-75.918603"  id="-73"  changeset="false" ><tag k="amenity" v="childcare"/><tag k="name" v="Brown Bear Day Care"/><tag k="addr:housenumber" v="1572"/><tag k="addr:street" v="Main Street"/><tag k="addr:postal_code" v="K2S1A5"/><tag k="phone" v="+1-613-831-2272"/><tag k="school:language" v="english"/><tag k="source" v="City of Ottawa"/><tag k="source:date" v="2019-02-28"/></node><node lat="45.31752" lon="-75.886623"  id="-74"  changeset="false" ><tag k="amenity" v="childcare"/><tag k="name" v="Kids Kingdom"/><tag k="addr:housenumber" v="66"/><tag k="addr:street" v="Hearst Way"/><tag k="addr:postal_code" v="K2L2P4"/><tag k="phone" v="+1-613-599-5437"/><tag k="website" v="http://www.kidskingdom.ca"/><tag k="school:language" v="english"/><tag k="source" v="City of Ottawa"/><tag k="source:date" v="2019-02-28"/></node><node lat="45.395265" lon="-75.744405"  id="-75"  changeset="false" ><tag k="amenity" v="childcare"/><tag k="name" v="Children's Centre"/><tag k="addr:housenumber" v="407"/><tag k="addr:street" v="Hilson Avenue"/><tag k="addr:postal_code" v="K1Z6B9"/><tag k="phone" v="+1-613-728-1797"/><tag k="website" v="http://www.cbcel.ca"/><tag k="school:language" v="english"/><tag k="source" v="City of Ottawa"/><tag k="source:date" v="2019-02-28"/></node><node lat="45.355976" lon="-75.640291"  id="-76"  changeset="false" ><tag k="amenity" v="childcare"/><tag k="name" v="Little Munchkins Hideout Daycare Centre"/><tag k="addr:housenumber" v="1426"/><tag k="addr:street" v="Hunt Club Road"/><tag k="addr:postal_code" v="K1T1M6"/><tag k="phone" v="+1-613-321-0633"/><tag k="school:language" v="english"/><tag k="source" v="City of Ottawa"/><tag k="source:date" v="2019-02-28"/></node><node lat="45.382341" lon="-75.731"  id="-77"  changeset="false" ><tag k="amenity" v="childcare"/><tag k="name" v="Annavale Headstart Nursery School"/><tag k="addr:housenumber" v="250"/><tag k="addr:street" v="Anna Avenue"/><tag k="addr:postal_code" v="K1Z7V6"/><tag k="phone" v="+1-613-798-5689"/><tag k="school:language" v="english"/><tag k="source" v="City of Ottawa"/><tag k="source:date" v="2019-02-28"/></node><node lat="45.42821" lon="-75.658864"  id="-78"  changeset="false" ><tag k="amenity" v="childcare"/><tag k="name" v="C.P.E. du Rocher"/><tag k="addr:housenumber" v="235"/><tag k="addr:street" v="Donald Rue"/><tag k="addr:postal_code" v="K1K1N1"/><tag k="phone" v="+1-819-643-5679"/><tag k="school:language" v="french"/><tag k="source" v="City of Ottawa"/><tag k="source:date" v="2019-02-28"/></node><node lat="45.363634" lon="-75.673043"  id="-79"  changeset="false" ><tag k="amenity" v="childcare"/><tag k="name" v="Le Cerf-Volant, George-Étienne-Cartier"/><tag k="addr:housenumber" v="880"/><tag k="addr:street" v="Thorndale Drive"/><tag k="addr:postal_code" v="K1V6Y3"/><tag k="phone" v="+1-613-789-3020"/><tag k="website" v="http://www.grandirensemble.ca"/><tag k="school:language" v="french"/><tag k="source" v="City of Ottawa"/><tag k="source:date" v="2019-02-28"/></node><node lat="45.421011" lon="-75.68966"  id="-80"  changeset="false" ><tag k="amenity" v="childcare"/><tag k="name" v="Centre Éducatif St. Luc/St. Luke's Child Care Centre"/><tag k="addr:housenumber" v="110"/><tag k="addr:street" v="Laurier Avenue West"/><tag k="addr:postal_code" v="K1P1J1"/><tag k="phone" v="+1-613-234-3617"/><tag k="school:language" v="english"/><tag k="source" v="City of Ottawa"/><tag k="source:date" v="2019-02-28"/></node><node lat="45.339158" lon="-75.901951"  id="-81"  changeset="false" ><tag k="amenity" v="childcare"/><tag k="name" v="Children's Universe Daycare-Kanata North"/><tag k="addr:housenumber" v="101"/><tag k="addr:street" v="Schneider Road"/><tag k="addr:postal_code" v="K2K1Y3"/><tag k="phone" v="+1-613-591-1777"/><tag k="website" v="http://www.childrensuniverse.net"/><tag k="school:language" v="english"/><tag k="source" v="City of Ottawa"/><tag k="source:date" v="2019-02-28"/></node><node lat="45.405872" lon="-75.648946"  id="-82"  changeset="false" ><tag k="amenity" v="childcare"/><tag k="name" v="Alta Vista Co-operative Nursery School Inc."/><tag k="addr:housenumber" v="480"/><tag k="addr:street" v="Avalon Place"/><tag k="addr:postal_code" v="K1G0W4"/><tag k="phone" v="+1-613-733-9746"/><tag k="website" v="http://www.avcns.com"/><tag k="school:language" v="english"/><tag k="source" v="City of Ottawa"/><tag k="source:date" v="2019-02-28"/></node><node lat="45.352181" lon="-75.712514"  id="-83"  changeset="false" ><tag k="amenity" v="childcare"/><tag k="name" v="Garderie Le Parasol"/><tag k="addr:housenumber" v="14"/><tag k="addr:street" v="Four Season Drive"/><tag k="addr:postal_code" v="K2E7P8"/><tag k="phone" v="+1-613-723-8970"/><tag k="school:language" v="french"/><tag k="source" v="City of Ottawa"/><tag k="source:date" v="2019-02-28"/></node><node lat="45.31807" lon="-75.593869"  id="-84"  changeset="false" ><tag k="amenity" v="childcare"/><tag k="name" v="Tiny Hoppers Findlay Creek"/><tag k="addr:housenumber" v="4772"/><tag k="addr:street" v="Bank Street"/><tag k="addr:postal_code" v="K1T4J5"/><tag k="phone" v="+1-613-822-2900"/><tag k="website" v="http://www.tinyhoppers"/><tag k="school:language" v="english"/><tag k="source" v="City of Ottawa"/><tag k="source:date" v="2019-02-28"/></node><node lat="45.399446" lon="-75.715812"  id="-85"  changeset="false" ><tag k="amenity" v="childcare"/><tag k="name" v="Devonshire School Age Day Care #2"/><tag k="addr:housenumber" v="175"/><tag k="addr:street" v="Beech Street"/><tag k="addr:postal_code" v="K1Y3T1"/><tag k="phone" v="+1-613-828-8743"/><tag k="school:language" v="english"/><tag k="source" v="City of Ottawa"/><tag k="source:date" v="2019-02-28"/></node><node lat="45.46686" lon="-75.545416"  id="-86"  changeset="false" ><tag k="amenity" v="childcare"/><tag k="name" v="The Orleans Preschool"/><tag k="addr:housenumber" v="1490"/><tag k="addr:street" v="Youville Drive"/><tag k="addr:postal_code" v="K1C2X8"/><tag k="phone" v="+1-613-837-2979"/><tag k="website" v="http://www.theorleanspreschool.com"/><tag k="school:language" v="english"/><tag k="source" v="City of Ottawa"/><tag k="source:date" v="2019-02-28"/></node><node lat="45.452459" lon="-75.592094"  id="-87"  changeset="false" ><tag k="amenity" v="childcare"/><tag k="name" v="Centre éducatif Séraphin-Marion"/><tag k="addr:housenumber" v="2147"/><tag k="addr:street" v="Loyola Avenue"/><tag k="addr:postal_code" v="K1J7W3"/><tag k="phone" v="+1-613-742-8960"/><tag k="website" v="http://www.cepeo.on.ca"/><tag k="school:language" v="french"/><tag k="source" v="City of Ottawa"/><tag k="source:date" v="2019-02-28"/></node><node lat="45.376942" lon="-75.955322"  id="-88"  changeset="false" ><tag k="amenity" v="childcare"/><tag k="name" v="Kanata Montessori School (North Campus)"/><tag k="addr:housenumber" v="1030"/><tag k="addr:street" v="Riddell Drive"/><tag k="addr:postal_code" v="K2K1X7"/><tag k="phone" v="+1-613-592-2189"/><tag k="website" v="http://www.kanatamontessori.com"/><tag k="school:language" v="english"/><tag k="source" v="City of Ottawa"/><tag k="source:date" v="2019-02-28"/></node><node lat="45.297275" lon="-75.887758"  id="-89"  changeset="false" ><tag k="amenity" v="childcare"/><tag k="name" v="The Playspace at Hazeldean Village"/><tag k="addr:housenumber" v="474"/><tag k="addr:street" v="Hazeldean Road"/><tag k="addr:postal_code" v="K2L4E5"/><tag k="phone" v="+1-613-831-3400"/><tag k="website" v="http://www.myplayspace.ca"/><tag k="school:language" v="english"/><tag k="source" v="City of Ottawa"/><tag k="source:date" v="2019-02-28"/></node><node lat="45.364882" lon="-75.75002"  id="-90"  changeset="false" ><tag k="amenity" v="childcare"/><tag k="name" v="Playtime Daycare Centre"/><tag k="addr:housenumber" v="1160"/><tag k="addr:street" v="Maitland Avenue"/><tag k="addr:postal_code" v="K2C2C2"/><tag k="phone" v="+1-613-727-5858"/><tag k="school:language" v="english"/><tag k="source" v="City of Ottawa"/><tag k="source:date" v="2019-02-28"/></node><node lat="45.354703" lon="-75.736833"  id="-91"  changeset="false" ><tag k="amenity" v="childcare"/><tag k="name" v="Community Coop Preschool"/><tag k="addr:housenumber" v="8"/><tag k="addr:street" v="Withrow Avenue"/><tag k="addr:postal_code" v="K2G2H6"/><tag k="phone" v="+1-613-224-6173"/><tag k="website" v="http://www.magma.ca/~ccps"/><tag k="school:language" v="english"/><tag k="source" v="City of Ottawa"/><tag k="source:date" v="2019-02-28"/></node><node lat="45.45681" lon="-75.532272"  id="-92"  changeset="false" ><tag k="amenity" v="childcare"/><tag k="name" v="MIFO école Étoile de l'Est"/><tag k="addr:housenumber" v="6220"/><tag k="addr:street" v="Beauséjour Promenade"/><tag k="addr:postal_code" v="K1C8E4"/><tag k="phone" v="+1-613-834-5166"/><tag k="school:language" v="french"/><tag k="source" v="City of Ottawa"/><tag k="source:date" v="2019-02-28"/></node><node lat="45.334539" lon="-75.667845"  id="-93"  changeset="false" ><tag k="amenity" v="childcare"/><tag k="name" v="Elizabeth Park Child Care Centre"/><tag k="addr:housenumber" v="101"/><tag k="addr:street" v="Croil Private"/><tag k="addr:postal_code" v="K1V1B5"/><tag k="phone" v="+1-613-738-7714"/><tag k="website" v="http://www.gccs.ca"/><tag k="school:language" v="english"/><tag k="source" v="City of Ottawa"/><tag k="source:date" v="2019-02-28"/></node><node lat="45.285452" lon="-75.868624"  id="-94"  changeset="false" ><tag k="amenity" v="childcare"/><tag k="name" v="Kids and Company Eagleson"/><tag k="addr:housenumber" v="110"/><tag k="addr:street" v="Michael Cowpland Drive"/><tag k="addr:postal_code" v="K2M1X3"/><tag k="phone" v="+1-905-771-1153"/><tag k="website" v="http://www.kidsandcompany.com"/><tag k="school:language" v="english"/><tag k="source" v="City of Ottawa"/><tag k="source:date" v="2019-02-28"/></node><node lat="45.267548" lon="-75.749578"  id="-95"  changeset="false" ><tag k="amenity" v="childcare"/><tag k="name" v="A Gym Tale"/><tag k="addr:housenumber" v="3777"/><tag k="addr:street" v="Strandherd Road"/><tag k="addr:postal_code" v="K2J4B1"/><tag k="phone" v="+1-613-825-9165"/><tag k="school:language" v="english"/><tag k="source" v="City of Ottawa"/><tag k="source:date" v="2019-02-28"/></node><node lat="45.291376" lon="-75.860796"  id="-96"  changeset="false" ><tag k="amenity" v="childcare"/><tag k="name" v="Stonehaven Early Learning Centre"/><tag k="addr:housenumber" v="50B"/><tag k="addr:street" v="Stonehaven Drive"/><tag k="addr:postal_code" v="K2M2K6"/><tag k="phone" v="+1-613-599-4499"/><tag k="school:language" v="english"/><tag k="source" v="City of Ottawa"/><tag k="source:date" v="2019-02-28"/></node><node lat="45.287505" lon="-75.672408"  id="-97"  changeset="false" ><tag k="amenity" v="childcare"/><tag k="name" v="Tiny Hoppers Corp."/><tag k="addr:housenumber" v="4456"/><tag k="addr:street" v="Limebank Road"/><tag k="addr:postal_code" v="K1V2N8"/><tag k="phone" v="+1-613-822-4588"/><tag k="website" v="http://www.tinyhoppers.ca"/><tag k="school:language" v="english"/><tag k="source" v="City of Ottawa"/><tag k="source:date" v="2019-02-28"/></node><node lat="45.348882" lon="-75.936497"  id="-98"  changeset="false" ><tag k="amenity" v="childcare"/><tag k="name" v="Centre préscolaire et parascolaire L Étoile filante de Kanata nord"/><tag k="addr:housenumber" v="1385"/><tag k="addr:street" v="Halton Terrasse"/><tag k="addr:postal_code" v="K2K2P9"/><tag k="phone" v="+1-613-270-0060"/><tag k="website" v="http://letoilefilante.ca"/><tag k="school:language" v="french"/><tag k="source" v="City of Ottawa"/><tag k="source:date" v="2019-02-28"/></node><node lat="45.481328" lon="-75.509418"  id="-99"  changeset="false" ><tag k="amenity" v="childcare"/><tag k="name" v="Ruddy Family Y Child Care Centre"/><tag k="addr:housenumber" v="265"/><tag k="addr:street" v="Centrum Boulevard"/><tag k="addr:postal_code" v="K1E3X7"/><tag k="phone" v="+1-613-830-4199"/><tag k="source" v="City of Ottawa"/><tag k="source:date" v="2019-02-28"/></node><node lat="45.284763" lon="-75.708482"  id="-100"  changeset="false" ><tag k="amenity" v="childcare"/><tag k="name" v="Crestway Early Learning Centre"/><tag k="addr:housenumber" v="201"/><tag k="addr:street" v="Crestway Drive"/><tag k="addr:postal_code" v="K2G6Z3"/><tag k="phone" v="+1-613-823-8383"/><tag k="school:language" v="english"/><tag k="source" v="City of Ottawa"/><tag k="source:date" v="2019-02-28"/></node><node lat="45.363058" lon="-75.762879"  id="-101"  changeset="false" ><tag k="amenity" v="childcare"/><tag k="name" v="Centre de l'enfant Aux 4 vents"/><tag k="addr:housenumber" v="2093"/><tag k="addr:street" v="Bel-Air Promenade"/><tag k="addr:postal_code" v="K2C0X2"/><tag k="phone" v="+1-613-228-2613"/><tag k="website" v="http://www.4vents.ca"/><tag k="school:language" v="french"/><tag k="source" v="City of Ottawa"/><tag k="source:date" v="2019-02-28"/></node><node lat="45.432612" lon="-75.667073"  id="-102"  changeset="false" ><tag k="amenity" v="childcare"/><tag k="name" v="Centre éducatif les Débrouillards - école Trillium"/><tag k="addr:housenumber" v="307"/><tag k="addr:street" v="Montgomery Rue"/><tag k="addr:postal_code" v="K1L7W8"/><tag k="phone" v="+1-613-747-6524"/><tag k="website" v="http://www.centrelesdebrouillards.com"/><tag k="school:language" v="french"/><tag k="source" v="City of Ottawa"/><tag k="source:date" v="2019-02-28"/></node><node lat="45.436989" lon="-75.552237"  id="-103"  changeset="false" ><tag k="amenity" v="childcare"/><tag k="name" v="Children's Universe Day Care - Blackburn Hamlet"/><tag k="addr:housenumber" v="2919"/><tag k="addr:street" v="Innes Road"/><tag k="addr:postal_code" v="K1B4K5"/><tag k="phone" v="+1-613-590-9755"/><tag k="website" v="http://www.childrensuniverse.net"/><tag k="school:language" v="english"/><tag k="source" v="City of Ottawa"/><tag k="source:date" v="2019-02-28"/></node><node lat="45.47192" lon="-75.509881"  id="-104"  changeset="false" ><tag k="amenity" v="childcare"/><tag k="name" v="Programme Petits pas à trois école Reines-des-Bois"/><tag k="addr:housenumber" v="1450"/><tag k="addr:street" v="Dufour Rue"/><tag k="addr:postal_code" v="K1E1E6"/><tag k="phone" v="+1-613-744-2555"/><tag k="school:language" v="french"/><tag k="source" v="City of Ottawa"/><tag k="source:date" v="2019-02-28"/></node><node lat="45.260608" lon="-75.922417"  id="-105"  changeset="false" ><tag k="amenity" v="childcare"/><tag k="name" v="Ottawa Carleton District School Board (Banting Preschool Program)"/><tag k="addr:housenumber" v="1453"/><tag k="addr:street" v="Stittsville Main Street"/><tag k="addr:postal_code" v="K2S1A3"/><tag k="phone" v="+1-613-831-8827"/><tag k="school:language" v="english"/><tag k="source" v="City of Ottawa"/><tag k="source:date" v="2019-02-28"/></node><node lat="45.255031" lon="-75.915695"  id="-106"  changeset="false" ><tag k="amenity" v="childcare"/><tag k="name" v="Merrily We Go Preschool"/><tag k="addr:housenumber" v="1619"/><tag k="addr:street" v="Stittsville Main Street"/><tag k="addr:postal_code" v="K2S1B2"/><tag k="phone" v="+1-613-836-4320"/><tag k="website" v="http://merrilywego@vpweb.ca"/><tag k="school:language" v="english"/><tag k="source" v="City of Ottawa"/><tag k="source:date" v="2019-02-28"/></node><node lat="45.402415" lon="-75.723919"  id="-107"  changeset="false" ><tag k="amenity" v="childcare"/><tag k="name" v="Le Carrefour d'Ottawa"/><tag k="addr:housenumber" v="35"/><tag k="addr:street" v="Melrose Avenue"/><tag k="addr:postal_code" v="K1Y1T8"/><tag k="phone" v="+1-613-798-0575"/><tag k="school:language" v="french"/><tag k="source" v="City of Ottawa"/><tag k="source:date" v="2019-02-28"/></node><node lat="45.365988" lon="-75.72698"  id="-108"  changeset="false" ><tag k="amenity" v="childcare"/><tag k="name" v="Sessila Academy Inc./ Académie Séssila Inc."/><tag k="addr:housenumber" v="1026"/><tag k="addr:street" v="Baseline Road"/><tag k="addr:postal_code" v="K2C0A6"/><tag k="phone" v="+1-613-252-4202"/><tag k="school:language" v="english;french"/><tag k="source" v="City of Ottawa"/><tag k="source:date" v="2019-02-28"/></node><node lat="45.320898" lon="-75.889717"  id="-109"  changeset="false" ><tag k="amenity" v="childcare"/><tag k="name" v="Tiny Hoppers Kanata North Daycare"/><tag k="addr:housenumber" v="50"/><tag k="addr:street" v="Colchester Square"/><tag k="addr:postal_code" v="K2K2W9"/><tag k="phone" v="+1-613-599-9998"/><tag k="website" v="http://www.tinyhoppers.ca"/><tag k="school:language" v="english"/><tag k="source" v="City of Ottawa"/><tag k="source:date" v="2019-02-28"/></node><node lat="45.393568" lon="-75.683975"  id="-110"  changeset="false" ><tag k="amenity" v="childcare"/><tag k="name" v="Glebe Parents' Daycare Hopewell Campus"/><tag k="addr:housenumber" v="17"/><tag k="addr:street" v="Hopewell Avenue"/><tag k="addr:postal_code" v="K1S2Y7"/><tag k="phone" v="+1-613-730-0515"/><tag k="school:language" v="english"/><tag k="source" v="City of Ottawa"/><tag k="source:date" v="2019-02-28"/></node><node lat="45.30825" lon="-75.95032"  id="-111"  changeset="false" ><tag k="amenity" v="childcare"/><tag k="name" v="Kanata Creative Kindergarten"/><tag k="addr:housenumber" v="1817"/><tag k="addr:street" v="Richardson Side Road Road West"/><tag k="addr:postal_code" v="K0A1L0"/><tag k="phone" v="+1-613-592-1570"/><tag k="school:language" v="english;french"/><tag k="source" v="City of Ottawa"/><tag k="source:date" v="2019-02-28"/></node><node lat="45.405797" lon="-75.654859"  id="-112"  changeset="false" ><tag k="amenity" v="childcare"/><tag k="name" v="Riverview Kindergarten and School Age Program"/><tag k="addr:housenumber" v="260"/><tag k="addr:street" v="Knox Crescent"/><tag k="addr:postal_code" v="K1G0K8"/><tag k="phone" v="+1-613-526-1541"/><tag k="website" v="http://www.afchildcare.on.ca"/><tag k="school:language" v="english"/><tag k="source" v="City of Ottawa"/><tag k="source:date" v="2019-02-28"/></node><node lat="45.279589" lon="-75.759675"  id="-113"  changeset="false" ><tag k="amenity" v="childcare"/><tag k="name" v="Barrhaven Child Care Centre - Malvern Site"/><tag k="addr:housenumber" v="101-A"/><tag k="addr:street" v="Malvern Drive"/><tag k="addr:postal_code" v="K2J2S8"/><tag k="phone" v="+1-613-825-1271"/><tag k="website" v="http://barrhavenccc.org"/><tag k="school:language" v="english"/><tag k="source" v="City of Ottawa"/><tag k="source:date" v="2019-02-28"/></node><node lat="45.406094" lon="-75.719245"  id="-114"  changeset="false" ><tag k="amenity" v="childcare"/><tag k="name" v="Devonshire School Age Day Care"/><tag k="addr:housenumber" v="100"/><tag k="addr:street" v="Breezehill Avenue North"/><tag k="addr:postal_code" v="K1Y2H5"/><tag k="phone" v="+1-613-828-8743"/><tag k="school:language" v="english"/><tag k="source" v="City of Ottawa"/><tag k="source:date" v="2019-02-28"/></node><node lat="45.427397" lon="-75.648511"  id="-115"  changeset="false" ><tag k="amenity" v="childcare"/><tag k="name" v="Garderie Providence Day Care Centre"/><tag k="addr:housenumber" v="998"/><tag k="addr:street" v="Frances Street"/><tag k="addr:postal_code" v="K1K3L5"/><tag k="phone" v="+1-613-744-0010"/><tag k="website" v="http://www.antoninesisters.ca"/><tag k="school:language" v="french"/><tag k="source" v="City of Ottawa"/><tag k="source:date" v="2019-02-28"/></node><node lat="45.404218" lon="-75.710367"  id="-116"  changeset="false" ><tag k="amenity" v="childcare"/><tag k="name" v="Ottawa Carleton District School Board (Adult High School Preschool Program)"/><tag k="addr:housenumber" v="300"/><tag k="addr:street" v="Rochester Street"/><tag k="addr:postal_code" v="K1R7N4"/><tag k="phone" v="+1-613-233-2464"/><tag k="school:language" v="english"/><tag k="source" v="City of Ottawa"/><tag k="source:date" v="2019-02-28"/></node><node lat="45.359043" lon="-75.644433"  id="-117"  changeset="false" ><tag k="amenity" v="childcare"/><tag k="name" v="Greenboro Day Care Centre"/><tag k="addr:housenumber" v="1400"/><tag k="addr:street" v="Cahill Drive"/><tag k="addr:postal_code" v="K1T2Y9"/><tag k="phone" v="+1-613-526-3203"/><tag k="website" v="http://www.cbcel.ca"/><tag k="school:language" v="english"/><tag k="source" v="City of Ottawa"/><tag k="source:date" v="2019-02-28"/></node><node lat="45.269567" lon="-75.94096"  id="-118"  changeset="false" ><tag k="amenity" v="childcare"/><tag k="name" v="Stittsville Imagination Station Preschool and Kinder - Carp Road"/><tag k="addr:housenumber" v="1115"/><tag k="addr:street" v="Carp Road"/><tag k="addr:postal_code" v="K2S1B9"/><tag k="phone" v="+1-613-435-9177"/><tag k="website" v="http://www.ispreschool.ca"/><tag k="school:language" v="english"/><tag k="source" v="City of Ottawa"/><tag k="source:date" v="2019-02-28"/></node><node lat="45.422679" lon="-75.681295"  id="-119"  changeset="false" ><tag k="amenity" v="childcare"/><tag k="name" v="Garderie Bernadette Child Care Centre"/><tag k="addr:housenumber" v="100"/><tag k="addr:street" v="Thomas More"/><tag k="addr:postal_code" v="K1N6N5"/><tag k="phone" v="+1-613-562-5937"/><tag k="school:language" v="english"/><tag k="source" v="City of Ottawa"/><tag k="source:date" v="2019-02-28"/></node><node lat="45.395353" lon="-75.614453"  id="-120"  changeset="false" ><tag k="amenity" v="childcare"/><tag k="name" v="Hawthorne Meadows Nursery School"/><tag k="addr:housenumber" v="2244"/><tag k="addr:street" v="Russell Road"/><tag k="addr:postal_code" v="K1G1B8"/><tag k="phone" v="+1-613-731-1507"/><tag k="school:language" v="english"/><tag k="source" v="City of Ottawa"/><tag k="source:date" v="2019-02-28"/></node><node lat="45.259802" lon="-75.76778"  id="-121"  changeset="false" ><tag k="amenity" v="childcare"/><tag k="name" v="Strandherd Montessori Daycare"/><tag k="addr:postal_code" v="K2J4A7"/><tag k="phone" v="+1-613-277-6866"/><tag k="website" v="http://littlescholarsmontessori.com"/><tag k="school:language" v="english"/><tag k="source" v="City of Ottawa"/><tag k="source:date" v="2019-02-28"/></node><node lat="45.345605" lon="-75.770497"  id="-122"  changeset="false" ><tag k="amenity" v="childcare"/><tag k="name" v="Centrepointe Child Care Centre"/><tag k="addr:housenumber" v="75"/><tag k="addr:street" v="Hemmingwood Way"/><tag k="addr:postal_code" v="K2G5T6"/><tag k="phone" v="+1-613-225-9678"/><tag k="school:language" v="english"/><tag k="source" v="City of Ottawa"/><tag k="source:date" v="2019-02-28"/></node><node lat="45.281096" lon="-75.728907"  id="-123"  changeset="false" ><tag k="amenity" v="childcare"/><tag k="name" v="Strandherd School Age Program"/><tag k="addr:housenumber" v="333"/><tag k="addr:street" v="B Beatrice Drive"/><tag k="addr:postal_code" v="K2J4W1"/><tag k="phone" v="+1-613-825-9399"/><tag k="school:language" v="english"/><tag k="source" v="City of Ottawa"/><tag k="source:date" v="2019-02-28"/></node><node lat="45.364882" lon="-75.75002"  id="-124"  changeset="false" ><tag k="amenity" v="childcare"/><tag k="name" v="Little Love Bugs Daycare"/><tag k="addr:housenumber" v="1160"/><tag k="addr:street" v="Maitland Avenue"/><tag k="addr:postal_code" v="K2C2C2"/><tag k="phone" v="+1-613-695-7701"/><tag k="website" v="http://www.littlelovebugs.ca"/><tag k="school:language" v="english"/><tag k="source" v="City of Ottawa"/><tag k="source:date" v="2019-02-28"/></node><node lat="45.435035" lon="-75.660113"  id="-125"  changeset="false" ><tag k="amenity" v="childcare"/><tag k="name" v="Cooperative Para-scolaire Vanier Co-operative School-age Program"/><tag k="addr:housenumber" v="236"/><tag k="addr:street" v="Levis Avenue"/><tag k="addr:postal_code" v="K1L6H8"/><tag k="phone" v="+1-613-741-5563"/><tag k="school:language" v="english"/><tag k="source" v="City of Ottawa"/><tag k="source:date" v="2019-02-28"/></node><node lat="45.474422" lon="-75.521179"  id="-126"  changeset="false" ><tag k="amenity" v="childcare"/><tag k="name" v="A-Z Daycare"/><tag k="addr:housenumber" v="1145"/><tag k="addr:street" v="St.Pierre Street"/><tag k="addr:postal_code" v="K1C1L4"/><tag k="phone" v="+1-613-824-1330"/><tag k="school:language" v="english"/><tag k="source" v="City of Ottawa"/><tag k="source:date" v="2019-02-28"/></node><node lat="45.363031" lon="-75.777061"  id="-127"  changeset="false" ><tag k="amenity" v="childcare"/><tag k="name" v="Le Cerf-Volant - Édouard-Bond"/><tag k="addr:housenumber" v="920"/><tag k="addr:street" v="Parkhaven Avenue"/><tag k="addr:postal_code" v="K2B5K3"/><tag k="phone" v="+1-613-596-1971"/><tag k="website" v="http://www.grandirensemble.ca"/><tag k="school:language" v="french"/><tag k="source" v="City of Ottawa"/><tag k="source:date" v="2019-02-28"/></node><node lat="45.362398" lon="-75.779194"  id="-128"  changeset="false" ><tag k="amenity" v="childcare"/><tag k="name" v="Ottawa Carleton District School Board (Woodroffe High School Infant Toddler Preschool Program)"/><tag k="addr:housenumber" v="2410"/><tag k="addr:street" v="Georgina Drive"/><tag k="addr:postal_code" v="K2B7M8"/><tag k="phone" v="+1-613-828-4094"/><tag k="school:language" v="english"/><tag k="source" v="City of Ottawa"/><tag k="source:date" v="2019-02-28"/></node><node lat="45.442538" lon="-75.636011"  id="-129"  changeset="false" ><tag k="amenity" v="childcare"/><tag k="name" v="Sunflower Co-operative Day Nursery"/><tag k="addr:housenumber" v="700"/><tag k="addr:street" v="Montreal Road"/><tag k="addr:postal_code" v="K1A0P7"/><tag k="phone" v="+1-613-748-2268"/><tag k="school:language" v="english;french"/><tag k="source" v="City of Ottawa"/><tag k="source:date" v="2019-02-28"/></node><node lat="45.348892" lon="-75.716712"  id="-130"  changeset="false" ><tag k="amenity" v="childcare"/><tag k="name" v="Borden Farm Child Care Centre"/><tag k="addr:housenumber" v="170"/><tag k="addr:street" v="Chesterton Drive"/><tag k="addr:postal_code" v="K2E5V1"/><tag k="phone" v="+1-613-224-1411"/><tag k="school:language" v="english"/><tag k="source" v="City of Ottawa"/><tag k="source:date" v="2019-02-28"/></node><node lat="45.329659" lon="-75.781803"  id="-131"  changeset="false" ><tag k="amenity" v="childcare"/><tag k="name" v="St. Mary's Daycare"/><tag k="addr:housenumber" v="2"/><tag k="addr:street" v="Canfield Road"/><tag k="addr:postal_code" v="K2H5T1"/><tag k="phone" v="+1-613-596-6279"/><tag k="website" v="http://www.stmarysdaycare.ca"/><tag k="school:language" v="english"/><tag k="source" v="City of Ottawa"/><tag k="source:date" v="2019-02-28"/></node><node lat="45.469376" lon="-75.474557"  id="-132"  changeset="false" ><tag k="amenity" v="childcare"/><tag k="name" v="Gardenway School Age Program"/><tag k="addr:housenumber" v="2133B"/><tag k="addr:street" v="Gardenway Drive"/><tag k="addr:postal_code" v="K4A3M2"/><tag k="phone" v="+1-613-841-7437"/><tag k="school:language" v="english"/><tag k="source" v="City of Ottawa"/><tag k="source:date" v="2019-02-28"/></node><node lat="45.352078" lon="-75.623143"  id="-133"  changeset="false" ><tag k="amenity" v="childcare"/><tag k="name" v="Le Cerf-Volant, école Sainte-Bernadette"/><tag k="addr:housenumber" v="3781"/><tag k="addr:street" v="Sixth Rue"/><tag k="addr:postal_code" v="K1T1K5"/><tag k="phone" v="+1-613-282-9876"/><tag k="website" v="http://www.grandirensemble.ca"/><tag k="school:language" v="french"/><tag k="source" v="City of Ottawa"/><tag k="source:date" v="2019-02-28"/></node><node lat="45.389416" lon="-75.733507"  id="-134"  changeset="false" ><tag k="amenity" v="childcare"/><tag k="name" v="Ottawa Children's Montessori"/><tag k="addr:housenumber" v="630"/><tag k="addr:street" v="Island Park Drive"/><tag k="addr:postal_code" v="K1Y0B7"/><tag k="phone" v="+1-613-226-8771"/><tag k="school:language" v="english"/><tag k="source" v="City of Ottawa"/><tag k="source:date" v="2019-02-28"/></node><node lat="45.352363" lon="-75.65027"  id="-135"  changeset="false" ><tag k="amenity" v="childcare"/><tag k="name" v="Children's Castle Daycare"/><tag k="addr:housenumber" v="1187-"/><tag k="addr:street" v="89 Huntclub Road"/><tag k="addr:postal_code" v="K1V8S4"/><tag k="phone" v="+1-613-733-0380"/><tag k="website" v="http://www.ccdc1187.com"/><tag k="school:language" v="english"/><tag k="source" v="City of Ottawa"/><tag k="source:date" v="2019-02-28"/></node><node lat="45.248555" lon="-75.906518"  id="-136"  changeset="false" ><tag k="amenity" v="childcare"/><tag k="name" v="Baywood School Age Program"/><tag k="addr:housenumber" v="4"/><tag k="addr:street" v="Baywood Street"/><tag k="addr:postal_code" v="K2S1A5"/><tag k="phone" v="+1-613-831-7366"/><tag k="school:language" v="english"/><tag k="source" v="City of Ottawa"/><tag k="source:date" v="2019-02-28"/></node><node lat="45.421577" lon="-75.605064"  id="-137"  changeset="false" ><tag k="amenity" v="childcare"/><tag k="name" v="MIFO École des pins"/><tag k="addr:housenumber" v="1487"/><tag k="addr:street" v="Ridgebrook Promenade"/><tag k="addr:postal_code" v="K1B4K6"/><tag k="phone" v="+1-613-830-6436"/><tag k="website" v="http://www.mifo.net"/><tag k="school:language" v="french"/><tag k="source" v="City of Ottawa"/><tag k="source:date" v="2019-02-28"/></node><node lat="45.471373" lon="-75.470804"  id="-138"  changeset="false" ><tag k="amenity" v="childcare"/><tag k="name" v="La Coccinelle, Arc-en-Ciel"/><tag k="addr:housenumber" v="1830"/><tag k="addr:street" v="Portobello Promenade"/><tag k="addr:postal_code" v="K4A3T6"/><tag k="phone" v="+1-613-841-4034"/><tag k="school:language" v="french"/><tag k="source" v="City of Ottawa"/><tag k="source:date" v="2019-02-28"/></node><node lat="45.440567" lon="-75.669765"  id="-139"  changeset="false" ><tag k="amenity" v="childcare"/><tag k="name" v="Centre éducatif les débrouillards-Trille des Bois"/><tag k="addr:housenumber" v="140"/><tag k="addr:street" v="Genest Rue"/><tag k="addr:postal_code" v="K1L7Y9"/><tag k="phone" v="+1-613-747-6524"/><tag k="website" v="http://debrouillards.educatif@gmail.com"/><tag k="school:language" v="french"/><tag k="source" v="City of Ottawa"/><tag k="source:date" v="2019-02-28"/></node><node lat="45.465923" lon="-75.521679"  id="-140"  changeset="false" ><tag k="amenity" v="childcare"/><tag k="name" v="MIFO école St. Joseph d'Orléans"/><tag k="addr:housenumber" v="6664"/><tag k="addr:street" v="Carrière Rue"/><tag k="addr:postal_code" v="K1C1J4"/><tag k="phone" v="+1-613-824-0820"/><tag k="school:language" v="french"/><tag k="source" v="City of Ottawa"/><tag k="source:date" v="2019-02-28"/></node><node lat="45.465778" lon="-75.521509"  id="-141"  changeset="false" ><tag k="amenity" v="childcare"/><tag k="name" v="Programme Petits pas à trois école St-Joseph"/><tag k="addr:housenumber" v="6664"/><tag k="addr:street" v="Carrière Rue"/><tag k="addr:postal_code" v="K1C1J4"/><tag k="phone" v="+1-613-744-2555"/><tag k="school:language" v="french"/><tag k="source" v="City of Ottawa"/><tag k="source:date" v="2019-02-28"/></node><node lat="45.407021" lon="-75.734693"  id="-142"  changeset="false" ><tag k="amenity" v="childcare"/><tag k="name" v="Garderie Tunney's Day Care"/><tag k="addr:postal_code" v="K1A0T6"/><tag k="phone" v="+1-613-230-1125"/><tag k="school:language" v="english;french"/><tag k="source" v="City of Ottawa"/><tag k="source:date" v="2019-02-28"/></node><node lat="45.404287" lon="-75.748072"  id="-143"  changeset="false" ><tag k="amenity" v="childcare"/><tag k="name" v="Keyworth Early Learning Centre"/><tag k="addr:housenumber" v="130B"/><tag k="addr:street" v="Keyworth Avenue"/><tag k="addr:postal_code" v="K1Y0E6"/><tag k="phone" v="+1-613-722-0411"/><tag k="school:language" v="english"/><tag k="source" v="City of Ottawa"/><tag k="source:date" v="2019-02-28"/></node><node lat="45.245884" lon="-75.736166"  id="-144"  changeset="false" ><tag k="amenity" v="childcare"/><tag k="name" v="Centre éducatif coopérative Le Manège - River Mist"/><tag k="addr:housenumber" v="2450"/><tag k="addr:street" v="River Mist Road"/><tag k="addr:postal_code" v="K2J4X1"/><tag k="phone" v="+1-613-271-8811"/><tag k="website" v="http://www.lemanege.ca"/><tag k="school:language" v="english"/><tag k="source" v="City of Ottawa"/><tag k="source:date" v="2019-02-28"/></node><node lat="45.352114" lon="-75.622765"  id="-145"  changeset="false" ><tag k="amenity" v="childcare"/><tag k="name" v="Programme Petits pas à trois école Sainte Bernadette"/><tag k="addr:housenumber" v="3781"/><tag k="addr:street" v="Sixth Rue"/><tag k="addr:postal_code" v="K1T1K5"/><tag k="phone" v="+1-613-744-2555"/><tag k="school:language" v="french"/><tag k="source" v="City of Ottawa"/><tag k="source:date" v="2019-02-28"/></node><node lat="45.432346" lon="-75.566431"  id="-146"  changeset="false" ><tag k="amenity" v="childcare"/><tag k="name" v="MIFO école Sainte Marie"/><tag k="addr:housenumber" v="2599"/><tag k="addr:street" v="Innes Chemin"/><tag k="addr:postal_code" v="K1B3J8"/><tag k="phone" v="+1-613-824-6102"/><tag k="school:language" v="french"/><tag k="source" v="City of Ottawa"/><tag k="source:date" v="2019-02-28"/></node><node lat="45.42699" lon="-75.604549"  id="-147"  changeset="false" ><tag k="amenity" v="childcare"/><tag k="name" v="Children's Aid Society Headstart Nursery"/><tag k="addr:housenumber" v="1602"/><tag k="addr:street" v="Telesat Court"/><tag k="addr:postal_code" v="K1B1B1"/><tag k="phone" v="+1-613-747-7800"/><tag k="school:language" v="english"/><tag k="source" v="City of Ottawa"/><tag k="source:date" v="2019-02-28"/></node><node lat="45.291164" lon="-75.735381"  id="-148"  changeset="false" ><tag k="amenity" v="childcare"/><tag k="name" v="Mountshannon School Age Program"/><tag k="addr:housenumber" v="60-B"/><tag k="addr:street" v="Mountshannon Drive"/><tag k="addr:postal_code" v="K2J4B8"/><tag k="phone" v="+1-613-823-3196"/><tag k="school:language" v="english"/><tag k="source" v="City of Ottawa"/><tag k="source:date" v="2019-02-28"/></node><node lat="45.430678" lon="-75.562415"  id="-149"  changeset="false" ><tag k="amenity" v="childcare"/><tag k="name" v="Blackburn Hamlet Preschool"/><tag k="addr:housenumber" v="202"/><tag k="addr:street" v="Glen Park Drive"/><tag k="addr:postal_code" v="K1B5A3"/><tag k="phone" v="+1-613-824-3251"/><tag k="website" v="http://www.bhps.ca"/><tag k="school:language" v="english"/><tag k="source" v="City of Ottawa"/><tag k="source:date" v="2019-02-28"/></node><node lat="45.426378" lon="-75.642509"  id="-150"  changeset="false" ><tag k="amenity" v="childcare"/><tag k="name" v="Andrew Fleck Child Care Services - Overbrook Daycare"/><tag k="addr:housenumber" v="557"/><tag k="addr:street" v="Queen Mary"/><tag k="addr:postal_code" v="K1K1V9"/><tag k="phone" v="+1-613-736-1913"/><tag k="website" v="http://www.afchildcare.on.ca"/><tag k="school:language" v="english"/><tag k="source" v="City of Ottawa"/><tag k="source:date" v="2019-02-28"/></node><node lat="45.383829" lon="-75.665299"  id="-151"  changeset="false" ><tag k="amenity" v="childcare"/><tag k="name" v="Andrew Fleck Child Care Services - Alta Vista Child Care Centre"/><tag k="addr:housenumber" v="1349"/><tag k="addr:street" v="Randall"/><tag k="addr:postal_code" v="K1H7T3"/><tag k="phone" v="+1-613-736-1913"/><tag k="website" v="http://www.afchildcare.on.ca"/><tag k="school:language" v="english"/><tag k="source" v="City of Ottawa"/><tag k="source:date" v="2019-02-28"/></node><node lat="45.460524" lon="-75.597654"  id="-152"  changeset="false" ><tag k="amenity" v="childcare"/><tag k="name" v="Petits pas à trois école La Vérendrye"/><tag k="addr:housenumber" v="614"/><tag k="addr:street" v="Eastvale Promenade"/><tag k="addr:postal_code" v="K1J6Z6"/><tag k="phone" v="+1-613-744-2555"/><tag k="school:language" v="french"/><tag k="source" v="City of Ottawa"/><tag k="source:date" v="2019-02-28"/></node><node lat="45.270208" lon="-75.731696"  id="-153"  changeset="false" ><tag k="amenity" v="childcare"/><tag k="name" v="Centre éducatif coopérative Le Manège - Chapman Mills"/><tag k="addr:housenumber" v="651"/><tag k="addr:street" v="Chapman Mills Promenade"/><tag k="addr:postal_code" v="K2J4X1"/><tag k="phone" v="+1-613-440-0390"/><tag k="website" v="http://www.lemanege.ca"/><tag k="school:language" v="french"/><tag k="source" v="City of Ottawa"/><tag k="source:date" v="2019-02-28"/></node><node lat="45.274291" lon="-75.739666"  id="-154"  changeset="false" ><tag k="amenity" v="childcare"/><tag k="name" v="City View Centre for Child and Family Services (Group Care)"/><tag k="addr:housenumber" v="1099"/><tag k="addr:street" v="Longfields Drive"/><tag k="addr:postal_code" v="K2J5L2"/><tag k="phone" v="+1-613-823-8244"/><tag k="school:language" v="english"/><tag k="source" v="City of Ottawa"/><tag k="source:date" v="2019-02-28"/></node><node lat="45.393948" lon="-75.653365"  id="-155"  changeset="false" ><tag k="amenity" v="childcare"/><tag k="name" v="Centre des Petits d'Ottawa (2005) Inc."/><tag k="addr:housenumber" v="445"/><tag k="addr:street" v="Pleasant Park Chemin"/><tag k="addr:postal_code" v="K1H5M9"/><tag k="phone" v="+1-613-562-4710"/><tag k="website" v="http://www.cdpottawa.ca"/><tag k="school:language" v="french"/><tag k="source" v="City of Ottawa"/><tag k="source:date" v="2019-02-28"/></node><node lat="45.429334" lon="-75.667318"  id="-156"  changeset="false" ><tag k="amenity" v="childcare"/><tag k="name" v="Edgewood Child Care Centre"/><tag k="addr:housenumber" v="9"/><tag k="addr:street" v="Stevens Avenue"/><tag k="addr:postal_code" v="K1K1K4"/><tag k="phone" v="+1-613-748-7000"/><tag k="website" v="http://edgewoodchildcare.ca"/><tag k="school:language" v="english"/><tag k="source" v="City of Ottawa"/><tag k="source:date" v="2019-02-28"/></node><node lat="45.428245" lon="-75.658898"  id="-157"  changeset="false" ><tag k="amenity" v="childcare"/><tag k="name" v="Andrew Fleck Child Care Services - Making Connections Nursery School"/><tag k="addr:housenumber" v="235"/><tag k="addr:street" v="Donald Street"/><tag k="addr:postal_code" v="K1K1N1"/><tag k="phone" v="+1-613-741-3511"/><tag k="website" v="http://www.afchildcare.on.ca"/><tag k="school:language" v="english"/><tag k="source" v="City of Ottawa"/><tag k="source:date" v="2019-02-28"/></node><node lat="45.45097" lon="-75.657059"  id="-158"  changeset="false" ><tag k="amenity" v="childcare"/><tag k="name" v="Before and After School in Manor Park"/><tag k="addr:housenumber" v="100"/><tag k="addr:street" v="Braemar Street"/><tag k="addr:postal_code" v="K1K3C9"/><tag k="phone" v="+1-613-741-4776"/><tag k="website" v="http://www.manorpark.ca"/><tag k="school:language" v="english"/><tag k="source" v="City of Ottawa"/><tag k="source:date" v="2019-02-28"/></node><node lat="45.306931" lon="-75.584883"  id="-159"  changeset="false" ><tag k="amenity" v="childcare"/><tag k="name" v="Leitrim Montessori Preschool"/><tag k="addr:housenumber" v="4861"/><tag k="addr:street" v="Bank Street"/><tag k="addr:postal_code" v="K1X1G6"/><tag k="phone" v="+1-613-822-6848"/><tag k="website" v="http://www.leitrimmontessori.com"/><tag k="school:language" v="english"/><tag k="source" v="City of Ottawa"/><tag k="source:date" v="2019-02-28"/></node><node lat="45.325976" lon="-75.896282"  id="-160"  changeset="false" ><tag k="amenity" v="childcare"/><tag k="name" v="Beaverbrook Montessori School"/><tag k="addr:housenumber" v="990"/><tag k="addr:street" v="Teron Road"/><tag k="addr:postal_code" v="K2K1K1"/><tag k="phone" v="+1-613-614-4904"/><tag k="school:language" v="english"/><tag k="source" v="City of Ottawa"/><tag k="source:date" v="2019-02-28"/></node><node lat="45.388904" lon="-75.675118"  id="-161"  changeset="false" ><tag k="amenity" v="childcare"/><tag k="name" v="Dr. Ernest Couture Child Care Centre"/><tag k="addr:housenumber" v="2185"/><tag k="addr:street" v="Riverside Drive East"/><tag k="addr:postal_code" v="K1H8K5"/><tag k="phone" v="+1-613-731-2980"/><tag k="school:language" v="english"/><tag k="source" v="City of Ottawa"/><tag k="source:date" v="2019-02-28"/></node><node lat="45.262926" lon="-75.933958"  id="-162"  changeset="false" ><tag k="amenity" v="childcare"/><tag k="name" v="Stittsville Co-op Nursery School"/><tag k="addr:housenumber" v="27"/><tag k="addr:street" v="Hobin Street"/><tag k="addr:postal_code" v="K2S1G8"/><tag k="phone" v="+1-613-836-1500"/><tag k="school:language" v="english"/><tag k="source" v="City of Ottawa"/><tag k="source:date" v="2019-02-28"/></node><node lat="45.388094" lon="-75.728801"  id="-163"  changeset="false" ><tag k="amenity" v="childcare"/><tag k="name" v="The Children's Place (Annex)"/><tag k="addr:housenumber" v="1160"/><tag k="addr:street" v="Carling Avenue"/><tag k="addr:postal_code" v="K1Z7K6"/><tag k="phone" v="+1-613-725-9995"/><tag k="website" v="http://www.childrensplace.on.ca"/><tag k="school:language" v="english"/><tag k="source" v="City of Ottawa"/><tag k="source:date" v="2019-02-28"/></node><node lat="45.384112" lon="-75.661575"  id="-164"  changeset="false" ><tag k="amenity" v="childcare"/><tag k="name" v="St. Thomas the Apostle Nursery School"/><tag k="addr:housenumber" v="2345"/><tag k="addr:street" v="Alta Vista Drive"/><tag k="addr:postal_code" v="K1H7M6"/><tag k="phone" v="+1-613-731-4150"/><tag k="website" v="http://stthomasnurseryschool@bellnet.ca"/><tag k="school:language" v="english"/><tag k="source" v="City of Ottawa"/><tag k="source:date" v="2019-02-28"/></node><node lat="45.347057" lon="-75.790966"  id="-165"  changeset="false" ><tag k="amenity" v="childcare"/><tag k="name" v="Acadekidz"/><tag k="addr:housenumber" v="1010"/><tag k="addr:street" v="Morrison Drive"/><tag k="addr:postal_code" v="K2H8K7"/><tag k="phone" v="+1-613-721-3872"/><tag k="website" v="http://www.acadekidz.org"/><tag k="school:language" v="english;french"/><tag k="source" v="City of Ottawa"/><tag k="source:date" v="2019-02-28"/></node><node lat="45.401612" lon="-75.614121"  id="-166"  changeset="false" ><tag k="amenity" v="childcare"/><tag k="name" v="St-Laurent Academy"/><tag k="addr:housenumber" v="2525"/><tag k="addr:street" v="Lancaster Road"/><tag k="addr:postal_code" v="K1B4L5"/><tag k="phone" v="+1-613-842-8047"/><tag k="website" v="http://www.st-laurentacademy.com"/><tag k="school:language" v="english;french"/><tag k="source" v="City of Ottawa"/><tag k="source:date" v="2019-02-28"/></node><node lat="45.329093" lon="-75.780544"  id="-167"  changeset="false" ><tag k="amenity" v="childcare"/><tag k="name" v="Weefolk Playhouse"/><tag k="addr:housenumber" v="171"/><tag k="addr:street" v="Greenbank Road"/><tag k="addr:postal_code" v="K2H5V6"/><tag k="phone" v="+1-613-729-1535"/><tag k="school:language" v="english"/><tag k="source" v="City of Ottawa"/><tag k="source:date" v="2019-02-28"/></node><node lat="45.311219" lon="-75.882196"  id="-168"  changeset="false" ><tag k="amenity" v="childcare"/><tag k="name" v="Centre éducatif Coeur des Jeunes Roger-Saint-Denis"/><tag k="addr:housenumber" v="186"/><tag k="addr:street" v="Croissant Barrow"/><tag k="addr:postal_code" v="K2L2C7"/><tag k="phone" v="+1-613-599-2225"/><tag k="school:language" v="french"/><tag k="source" v="City of Ottawa"/><tag k="source:date" v="2019-02-28"/></node><node lat="45.472601" lon="-75.493813"  id="-169"  changeset="false" ><tag k="amenity" v="childcare"/><tag k="name" v="River Heights Children's Centre"/><tag k="addr:housenumber" v="1515"/><tag k="addr:street" v="Tenth Line Road"/><tag k="addr:postal_code" v="K1E3E8"/><tag k="phone" v="+1-613-834-8152"/><tag k="school:language" v="english"/><tag k="source" v="City of Ottawa"/><tag k="source:date" v="2019-02-28"/></node><node lat="45.162592" lon="-75.941737"  id="-170"  changeset="false" ><tag k="amenity" v="childcare"/><tag k="name" v="Munster Co-operative Nursery School"/><tag k="addr:housenumber" v="7816"/><tag k="addr:street" v="Bleeks Road"/><tag k="addr:postal_code" v="K0A3P0"/><tag k="phone" v="+1-613-838-8754"/><tag k="website" v="http://www.munstercns.org"/><tag k="school:language" v="english"/><tag k="source" v="City of Ottawa"/><tag k="source:date" v="2019-02-28"/></node><node lat="45.308138" lon="-75.902235"  id="-171"  changeset="false" ><tag k="amenity" v="childcare"/><tag k="name" v="Katimavik Early Learning Centre"/><tag k="addr:housenumber" v="180"/><tag k="addr:street" v="Katimavik Road"/><tag k="addr:postal_code" v="K2L4A7"/><tag k="phone" v="+1-613-591-5611"/><tag k="school:language" v="english"/><tag k="source" v="City of Ottawa"/><tag k="source:date" v="2019-02-28"/></node><node lat="45.403202" lon="-75.682475"  id="-172"  changeset="false" ><tag k="amenity" v="childcare"/><tag k="name" v="Glebe Parents' Day Care Centre"/><tag k="addr:housenumber" v="10"/><tag k="addr:street" v="Fifth Avenue"/><tag k="addr:postal_code" v="K1S5N5"/><tag k="phone" v="+1-613-233-9268"/><tag k="website" v="http://glebeparentsdaycare.ca"/><tag k="school:language" v="english"/><tag k="source" v="City of Ottawa"/><tag k="source:date" v="2019-02-28"/></node><node lat="45.343247" lon="-75.785867"  id="-173"  changeset="false" ><tag k="amenity" v="childcare"/><tag k="name" v="Rodnichok Daycare"/><tag k="addr:housenumber" v="1311"/><tag k="addr:street" v="Pinecrest Road"/><tag k="addr:postal_code" v="K2C3E7"/><tag k="phone" v="+1-613-596-5123"/><tag k="website" v="http://rodnik.ca"/><tag k="school:language" v="english"/><tag k="source" v="City of Ottawa"/><tag k="source:date" v="2019-02-28"/></node><node lat="45.439962" lon="-75.670303"  id="-174"  changeset="false" ><tag k="amenity" v="childcare"/><tag k="name" v="Centre éducatif Les Petites Frimousses et Centre éducatif spécialisé L'Image"/><tag k="addr:housenumber" v="135"/><tag k="addr:street" v="Alice Rue"/><tag k="addr:postal_code" v="K1L7X5"/><tag k="phone" v="+1-613-742-0884"/><tag k="school:language" v="french"/><tag k="source" v="City of Ottawa"/><tag k="source:date" v="2019-02-28"/></node><node lat="45.483474" lon="-75.528575"  id="-175"  changeset="false" ><tag k="amenity" v="childcare"/><tag k="name" v="Kidz Only Child Care"/><tag k="addr:housenumber" v="7859"/><tag k="addr:street" v="Decarie Drive"/><tag k="addr:postal_code" v="K1C2J4"/><tag k="phone" v="+1-613-837-2324"/><tag k="school:language" v="english"/><tag k="source" v="City of Ottawa"/><tag k="source:date" v="2019-02-28"/></node><node lat="45.430916" lon="-75.661289"  id="-176"  changeset="false" ><tag k="amenity" v="childcare"/><tag k="name" v="Centre Éducatif Tournesol"/><tag k="addr:housenumber" v="194"/><tag k="addr:street" v="McArthur Road"/><tag k="addr:postal_code" v="K1L6P5"/><tag k="phone" v="+1-613-745-2729"/><tag k="school:language" v="french"/><tag k="source" v="City of Ottawa"/><tag k="source:date" v="2019-02-28"/></node><node lat="45.481375" lon="-75.48639"  id="-177"  changeset="false" ><tag k="amenity" v="childcare"/><tag k="name" v="Fallingbrook School Age Program"/><tag k="addr:housenumber" v="679-B"/><tag k="addr:street" v="Deancourt Crescent"/><tag k="addr:postal_code" v="K4A3E1"/><tag k="phone" v="+1-613-830-6971"/><tag k="website" v="http://www.gccs.ca"/><tag k="school:language" v="english"/><tag k="source" v="City of Ottawa"/><tag k="source:date" v="2019-02-28"/></node><node lat="45.371502" lon="-75.656829"  id="-178"  changeset="false" ><tag k="amenity" v="childcare"/><tag k="name" v="Le Cerf-Volant, école Marius Barbeau"/><tag k="addr:housenumber" v="1345"/><tag k="addr:street" v="Nottinghill Avenue"/><tag k="addr:postal_code" v="K1V6T3"/><tag k="phone" v="+1-613-695-5596"/><tag k="website" v="http://www.grandirensemble.ca"/><tag k="school:language" v="french"/><tag k="source" v="City of Ottawa"/><tag k="source:date" v="2019-02-28"/></node><node lat="45.291783" lon="-75.85719"  id="-179"  changeset="false" ><tag k="amenity" v="childcare"/><tag k="name" v="Tiny Hoppers in Bridlewood"/><tag k="addr:housenumber" v="64"/><tag k="addr:street" v="Stonehaven Drive"/><tag k="addr:postal_code" v="K2M2Y2"/><tag k="phone" v="+1-613-599-6277"/><tag k="website" v="http://www.tinyhoppers.ca"/><tag k="school:language" v="english"/><tag k="source" v="City of Ottawa"/><tag k="source:date" v="2019-02-28"/></node><node lat="45.352239" lon="-75.641445"  id="-180"  changeset="false" ><tag k="amenity" v="childcare"/><tag k="name" v="The Imagination Station Children's Learning Centre"/><tag k="addr:housenumber" v="3581"/><tag k="addr:street" v="Albion Road"/><tag k="addr:postal_code" v="K1T1A2"/><tag k="phone" v="+1-613-526-4923"/><tag k="school:language" v="english"/><tag k="source" v="City of Ottawa"/><tag k="source:date" v="2019-02-28"/></node><node lat="45.463183" lon="-75.467331"  id="-181"  changeset="false" ><tag k="amenity" v="childcare"/><tag k="name" v="Portobello Early Learning Centre"/><tag k="addr:housenumber" v="2000B"/><tag k="addr:street" v="Portobello Boulevard"/><tag k="addr:postal_code" v="K4A4M9"/><tag k="phone" v="+1-613-837-1784"/><tag k="school:language" v="english"/><tag k="source" v="City of Ottawa"/><tag k="source:date" v="2019-02-28"/></node><node lat="45.473617" lon="-75.552247"  id="-182"  changeset="false" ><tag k="amenity" v="childcare"/><tag k="name" v="MIFO école des Voyageurs"/><tag k="addr:housenumber" v="6030"/><tag k="addr:street" v="Voyageur Promenade"/><tag k="addr:postal_code" v="K1C2T1"/><tag k="phone" v="+1-613-830-1111"/><tag k="website" v="http://www.mifo.net"/><tag k="school:language" v="french"/><tag k="source" v="City of Ottawa"/><tag k="source:date" v="2019-02-28"/></node><node lat="45.209544" lon="-75.662336"  id="-183"  changeset="false" ><tag k="amenity" v="childcare"/><tag k="name" v="Rideau Valley Child Care Centre"/><tag k="addr:housenumber" v="5858"/><tag k="addr:street" v="Rideau Valley Drive North"/><tag k="addr:postal_code" v="K4M1B3"/><tag k="phone" v="+1-613-692-4625"/><tag k="school:language" v="english"/><tag k="source" v="City of Ottawa"/><tag k="source:date" v="2019-02-28"/></node><node lat="45.377366" lon="-75.744243"  id="-184"  changeset="false" ><tag k="amenity" v="childcare"/><tag k="name" v="First Journey Montessori Inc."/><tag k="addr:housenumber" v="1551"/><tag k="addr:street" v="Laperriere Avenue"/><tag k="addr:postal_code" v="K1Z7T2"/><tag k="phone" v="+1-613-723-0838"/><tag k="school:language" v="english;french"/><tag k="source" v="City of Ottawa"/><tag k="source:date" v="2019-02-28"/></node><node lat="45.274683" lon="-75.767851"  id="-185"  changeset="false" ><tag k="amenity" v="childcare"/><tag k="name" v="Pickles and Poppets Nursery School"/><tag k="addr:housenumber" v="2900"/><tag k="addr:street" v="Jockvale Road"/><tag k="addr:postal_code" v="K2J4J5"/><tag k="phone" v="+1-613-296-0668"/><tag k="school:language" v="english"/><tag k="source" v="City of Ottawa"/><tag k="source:date" v="2019-02-28"/></node><node lat="45.271426" lon="-75.724935"  id="-186"  changeset="false" ><tag k="amenity" v="childcare"/><tag k="name" v="Chapman Mills Early Learning Centre"/><tag k="addr:housenumber" v="500"/><tag k="addr:street" v="B Chapman Mills Drive"/><tag k="addr:postal_code" v="K2G3R4"/><tag k="phone" v="+1-613-823-9414"/><tag k="school:language" v="english"/><tag k="source" v="City of Ottawa"/><tag k="source:date" v="2019-02-28"/></node><node lat="45.373224" lon="-75.739821"  id="-187"  changeset="false" ><tag k="amenity" v="childcare"/><tag k="name" v="Esther By Child Care Centre"/><tag k="addr:housenumber" v="1550"/><tag k="addr:street" v="Caldwell Avenue"/><tag k="addr:postal_code" v="K1Z8M7"/><tag k="phone" v="+1-613-729-3242"/><tag k="website" v="http://ottawa.ca/daycare"/><tag k="school:language" v="english"/><tag k="source" v="City of Ottawa"/><tag k="source:date" v="2019-02-28"/></node><node lat="45.43364" lon="-75.683633"  id="-188"  changeset="false" ><tag k="amenity" v="childcare"/><tag k="name" v="Centre Éducatif Beausoleil Educational Centre"/><tag k="addr:housenumber" v="333"/><tag k="addr:street" v="York Street"/><tag k="addr:postal_code" v="K1N8W4"/><tag k="phone" v="+1-613-789-1398"/><tag k="school:language" v="french"/><tag k="source" v="City of Ottawa"/><tag k="source:date" v="2019-02-28"/></node><node lat="45.348571" lon="-75.634804"  id="-189"  changeset="false" ><tag k="amenity" v="childcare"/><tag k="name" v="Centre éducatif La Clémentine"/><tag k="addr:housenumber" v="3395"/><tag k="addr:street" v="D'Aoust Avenue"/><tag k="addr:postal_code" v="K1T4A8"/><tag k="phone" v="+1-613-523-8429"/><tag k="website" v="http://www.laclementine.ca"/><tag k="school:language" v="french"/><tag k="source" v="City of Ottawa"/><tag k="source:date" v="2019-02-28"/></node><node lat="45.41581" lon="-76.1477"  id="-190"  changeset="false" ><tag k="amenity" v="childcare"/><tag k="name" v="West Carleton Kids' Korner Inc."/><tag k="addr:housenumber" v="5670"/><tag k="addr:street" v="Carp Road"/><tag k="addr:postal_code" v="K0A2H0"/><tag k="phone" v="+1-613-832-1300"/><tag k="school:language" v="english"/><tag k="source" v="City of Ottawa"/><tag k="source:date" v="2019-02-28"/></node><node lat="45.434619" lon="-75.570547"  id="-191"  changeset="false" ><tag k="amenity" v="childcare"/><tag k="name" v="Children's Universe Child Care - Glen Ogilvie"/><tag k="addr:housenumber" v="46"/><tag k="addr:street" v="Centrepark Drive"/><tag k="addr:postal_code" v="K1B3C1"/><tag k="phone" v="+1-613-830-1227"/><tag k="website" v="http://WWW.CHILDRENSUNIVERSE.NET"/><tag k="school:language" v="english"/><tag k="source" v="City of Ottawa"/><tag k="source:date" v="2019-02-28"/></node><node lat="45.437696" lon="-75.530321"  id="-192"  changeset="false" ><tag k="amenity" v="childcare"/><tag k="name" v="La Coccinelle, Le Prélude"/><tag k="addr:housenumber" v="6025"/><tag k="addr:street" v="Longleaf"/><tag k="addr:postal_code" v="K1W1G3"/><tag k="phone" v="+1-613-841-8630"/><tag k="website" v="http://www.lacoccinelle.com"/><tag k="school:language" v="french"/><tag k="source" v="City of Ottawa"/><tag k="source:date" v="2019-02-28"/></node><node lat="45.284394" lon="-75.877243"  id="-193"  changeset="false" ><tag k="amenity" v="childcare"/><tag k="name" v="Kanata Montessori School"/><tag k="addr:housenumber" v="355"/><tag k="addr:street" v="Michael Cowpland Drive"/><tag k="addr:postal_code" v="K2M2C5"/><tag k="phone" v="+1-613-592-2189"/><tag k="website" v="http://www.kanatamontessori.com"/><tag k="school:language" v="english"/><tag k="source" v="City of Ottawa"/><tag k="source:date" v="2019-02-28"/></node><node lat="45.411655" lon="-75.680128"  id="-194"  changeset="false" ><tag k="amenity" v="childcare"/><tag k="name" v="Riverside Montessori Pre-School"/><tag k="addr:housenumber" v="88"/><tag k="addr:street" v="Main Street"/><tag k="addr:postal_code" v="K1S1C2"/><tag k="phone" v="+1-613-521-4888"/><tag k="website" v="http://www.riversidemontessori.com"/><tag k="school:language" v="english"/><tag k="source" v="City of Ottawa"/><tag k="source:date" v="2019-02-28"/></node><node lat="45.400807" lon="-75.690675"  id="-195"  changeset="false" ><tag k="amenity" v="childcare"/><tag k="name" v="Glebe Parent's Daycare Mutchmor Campus"/><tag k="addr:housenumber" v="185"/><tag k="addr:street" v="Fifth Avenue"/><tag k="addr:postal_code" v="K1S2N1"/><tag k="phone" v="+1-613-233-0124"/><tag k="school:language" v="english"/><tag k="source" v="City of Ottawa"/><tag k="source:date" v="2019-02-28"/></node><node lat="45.328544" lon="-75.893243"  id="-196"  changeset="false" ><tag k="amenity" v="childcare"/><tag k="name" v="Kanata Research Park Family Centre - Summer Camp Program"/><tag k="addr:housenumber" v="100"/><tag k="addr:street" v="Penfield Drive"/><tag k="addr:postal_code" v="K2K2S5"/><tag k="phone" v="+1-613-591-1995"/><tag k="website" v="http://www.krpfamilycentre.com"/><tag k="school:language" v="english"/><tag k="source" v="City of Ottawa"/><tag k="source:date" v="2019-02-28"/></node><node lat="45.356604" lon="-75.929511"  id="-197"  changeset="false" ><tag k="amenity" v="childcare"/><tag k="name" v="The Greenwoods Academy"/><tag k="addr:housenumber" v="1056"/><tag k="addr:street" v="Klondike Road"/><tag k="addr:postal_code" v="K2K1X7"/><tag k="phone" v="+1-613-591-3100"/><tag k="website" v="http://www.greenwoodsacademy.com"/><tag k="school:language" v="english"/><tag k="source" v="City of Ottawa"/><tag k="source:date" v="2019-02-28"/></node><node lat="45.28775" lon="-75.726481"  id="-198"  changeset="false" ><tag k="amenity" v="childcare"/><tag k="name" v="Centre de l'enfant Aux 4 vents - Barrhaven"/><tag k="addr:housenumber" v="11"/><tag k="addr:street" v="Claridge Chemin"/><tag k="addr:postal_code" v="K2J5A3"/><tag k="phone" v="+1-613-825-9092"/><tag k="school:language" v="french"/><tag k="source" v="City of Ottawa"/><tag k="source:date" v="2019-02-28"/></node><node lat="45.450667" lon="-75.677796"  id="-199"  changeset="false" ><tag k="amenity" v="childcare"/><tag k="name" v="Rockcliffe Child Care Centre"/><tag k="addr:housenumber" v="340"/><tag k="addr:street" v="Buena Vista Road"/><tag k="addr:postal_code" v="K1M1C1"/><tag k="phone" v="+1-613-745-8005"/><tag k="website" v="http://www.rccc.info"/><tag k="school:language" v="english"/><tag k="source" v="City of Ottawa"/><tag k="source:date" v="2019-02-28"/></node><node lat="45.42185" lon="-75.702959"  id="-200"  changeset="false" ><tag k="amenity" v="childcare"/><tag k="name" v="Children on the Hill/Les enfants de la colline"/><tag k="addr:postal_code" v="K1A0A6"/><tag k="phone" v="+1-613-992-2879"/><tag k="school:language" v="english;french"/><tag k="source" v="City of Ottawa"/><tag k="source:date" v="2019-02-28"/></node><node lat="45.468603" lon="-75.535456"  id="-201"  changeset="false" ><tag k="amenity" v="childcare"/><tag k="name" v="MIFO école de l'Odyssée"/><tag k="addr:housenumber" v="1770"/><tag k="addr:street" v="Grey Nuns Promenade"/><tag k="addr:postal_code" v="K1C1C3"/><tag k="phone" v="+1-613-590-1148"/><tag k="school:language" v="french"/><tag k="source" v="City of Ottawa"/><tag k="source:date" v="2019-02-28"/></node><node lat="45.468728" lon="-75.458283"  id="-202"  changeset="false" ><tag k="amenity" v="childcare"/><tag k="name" v="La Coccinelle, Béatrice-Desloges"/><tag k="addr:housenumber" v="1999"/><tag k="addr:street" v="Provence Avenue"/><tag k="addr:postal_code" v="K4A3Y6"/><tag k="phone" v="+1-613-841-2840"/><tag k="website" v="http://www.lacoccinelle.com"/><tag k="school:language" v="french"/><tag k="source" v="City of Ottawa"/><tag k="source:date" v="2019-02-28"/></node><node lat="45.458745" lon="-75.566996"  id="-203"  changeset="false" ><tag k="amenity" v="childcare"/><tag k="name" v="Garderie Heritage Child Care Centre"/><tag k="addr:housenumber" v="1425"/><tag k="addr:street" v="St.Joseph Boulevard"/><tag k="addr:postal_code" v="K1C7K9"/><tag k="phone" v="+1-613-837-9255"/><tag k="website" v="http://www.gccs.ca"/><tag k="school:language" v="english;french"/><tag k="source" v="City of Ottawa"/><tag k="source:date" v="2019-02-28"/></node><node lat="45.399695" lon="-75.728082"  id="-204"  changeset="false" ><tag k="amenity" v="childcare"/><tag k="name" v="Queensway Preschool"/><tag k="addr:housenumber" v="429"/><tag k="addr:street" v="Parkdale Avenue"/><tag k="addr:postal_code" v="K1Y1H3"/><tag k="phone" v="+1-613-728-8053"/><tag k="website" v="http://www.swchc.on.ca"/><tag k="school:language" v="english"/><tag k="source" v="City of Ottawa"/><tag k="source:date" v="2019-02-28"/></node><node lat="45.459343" lon="-75.461029"  id="-205"  changeset="false" ><tag k="amenity" v="childcare"/><tag k="name" v="La Coccinelle, Des Sentiers"/><tag k="addr:housenumber" v="2159"/><tag k="addr:street" v="Nantes Rue"/><tag k="addr:postal_code" v="K4A4C4"/><tag k="phone" v="+1-613-837-9726"/><tag k="website" v="http://www.lacoccinelle.com"/><tag k="school:language" v="french"/><tag k="source" v="City of Ottawa"/><tag k="source:date" v="2019-02-28"/></node><node lat="45.43997" lon="-75.628669"  id="-206"  changeset="false" ><tag k="amenity" v="childcare"/><tag k="name" v="Garderie éducative Renée Tassé"/><tag k="addr:housenumber" v="801"/><tag k="addr:street" v="l'Aviation Promenade"/><tag k="addr:postal_code" v="K1K4R3"/><tag k="phone" v="+1-613-742-2493"/><tag k="school:language" v="french"/><tag k="source" v="City of Ottawa"/><tag k="source:date" v="2019-02-28"/></node><node lat="45.263012" lon="-75.925371"  id="-207"  changeset="false" ><tag k="amenity" v="childcare"/><tag k="name" v="Holy Spirit School Age Program"/><tag k="addr:housenumber" v="1383"/><tag k="addr:street" v="Main Street"/><tag k="addr:postal_code" v="K2S1A8"/><tag k="phone" v="+1-613-831-3034"/><tag k="school:language" v="english"/><tag k="source" v="City of Ottawa"/><tag k="source:date" v="2019-02-28"/></node><node lat="45.427113" lon="-75.680811"  id="-208"  changeset="false" ><tag k="amenity" v="childcare"/><tag k="name" v="Sandy Hill Child Care Centre - Centre d'enfants côte de sable"/><tag k="addr:housenumber" v="300"/><tag k="addr:street" v="Wilbrod Street"/><tag k="addr:postal_code" v="K1N6M1"/><tag k="phone" v="+1-613-237-5232"/><tag k="website" v="http://sandyhillchildcare.net"/><tag k="school:language" v="english"/><tag k="source" v="City of Ottawa"/><tag k="source:date" v="2019-02-28"/></node><node lat="45.354552" lon="-75.794449"  id="-209"  changeset="false" ><tag k="amenity" v="childcare"/><tag k="name" v="Queensway West Montessori School"/><tag k="addr:housenumber" v="930"/><tag k="addr:street" v="Watson Street"/><tag k="addr:postal_code" v="K2B6B9"/><tag k="phone" v="+1-613-721-1029"/><tag k="website" v="http://www.qwmontessori.com"/><tag k="school:language" v="english"/><tag k="source" v="City of Ottawa"/><tag k="source:date" v="2019-02-28"/></node><node lat="45.339773" lon="-75.75482"  id="-210"  changeset="false" ><tag k="amenity" v="childcare"/><tag k="name" v="Little Scholars Montessori Learning Centre"/><tag k="addr:housenumber" v="1455"/><tag k="addr:street" v="Woodroffe Avenue"/><tag k="addr:postal_code" v="K2G1W1"/><tag k="phone" v="+1-613-277-6866"/><tag k="website" v="http://www.littlescholarsmontessori.com"/><tag k="school:language" v="english"/><tag k="source" v="City of Ottawa"/><tag k="source:date" v="2019-02-28"/></node><node lat="45.381398" lon="-75.634462"  id="-211"  changeset="false" ><tag k="amenity" v="childcare"/><tag k="name" v="Cornerstone Children's Centre/Heatherington Nursery School"/><tag k="addr:housenumber" v="2330"/><tag k="addr:street" v="Don Reid Drive"/><tag k="addr:postal_code" v="K1H1E1"/><tag k="phone" v="+1-613-731-2440"/><tag k="school:language" v="english"/><tag k="source" v="City of Ottawa"/><tag k="source:date" v="2019-02-28"/></node><node lat="45.352472" lon="-75.91747"  id="-212"  changeset="false" ><tag k="amenity" v="childcare"/><tag k="name" v="Kanata Research Park Family Centre"/><tag k="addr:housenumber" v="100"/><tag k="addr:street" v="Helmsdale Drive"/><tag k="addr:postal_code" v="K2K2S5"/><tag k="phone" v="+1-613-591-1995"/><tag k="school:language" v="english"/><tag k="source" v="City of Ottawa"/><tag k="source:date" v="2019-02-28"/></node><node lat="45.34607" lon="-75.626259"  id="-213"  changeset="false" ><tag k="amenity" v="childcare"/><tag k="name" v="Monkey Around Play and Learn Centre"/><tag k="addr:housenumber" v="2950-2960"/><tag k="addr:street" v="Bank Street"/><tag k="addr:postal_code" v="K1T1N8"/><tag k="phone" v="+1-613-299-6630"/><tag k="school:language" v="english"/><tag k="source" v="City of Ottawa"/><tag k="source:date" v="2019-02-28"/></node><node lat="45.432531" lon="-75.659954"  id="-214"  changeset="false" ><tag k="amenity" v="childcare"/><tag k="name" v="Programme Petits pas à trois école Horizon Jeunesse"/><tag k="addr:housenumber" v="349"/><tag k="addr:street" v="Olmstead Rue"/><tag k="addr:postal_code" v="K1L1B1"/><tag k="phone" v="+1-613-744-2555"/><tag k="school:language" v="french"/><tag k="source" v="City of Ottawa"/><tag k="source:date" v="2019-02-28"/></node><node lat="45.500925" lon="-75.45388"  id="-215"  changeset="false" ><tag k="amenity" v="childcare"/><tag k="name" v="Orleans Montessori Children's House Inc."/><tag k="addr:housenumber" v="1212"/><tag k="addr:street" v="Arbuste Avenue"/><tag k="addr:postal_code" v="K4C1C2"/><tag k="phone" v="+1-613-833-1442"/><tag k="website" v="http://www.orleansmontessori.ca"/><tag k="school:language" v="english;french"/><tag k="source" v="City of Ottawa"/><tag k="source:date" v="2019-02-28"/></node><node lat="45.276409" lon="-75.68944"  id="-216"  changeset="false" ><tag k="amenity" v="childcare"/><tag k="name" v="Shoreline Early Learning Centre"/><tag k="addr:housenumber" v="4330B"/><tag k="addr:street" v="Spratt Road"/><tag k="addr:postal_code" v="K1V2A7"/><tag k="phone" v="+1-613-822-8956"/><tag k="school:language" v="english"/><tag k="source" v="City of Ottawa"/><tag k="source:date" v="2019-02-28"/></node><node lat="45.270226" lon="-75.903279"  id="-217"  changeset="false" ><tag k="amenity" v="childcare"/><tag k="name" v="Programme Petits pas à trois école Jean Paul II"/><tag k="addr:housenumber" v="5473"/><tag k="addr:street" v="Abbott Rue Est"/><tag k="addr:postal_code" v="K2S0A8"/><tag k="phone" v="+1-613-744-2555"/><tag k="school:language" v="french"/><tag k="source" v="City of Ottawa"/><tag k="source:date" v="2019-02-28"/></node><node lat="45.457595" lon="-75.466666"  id="-218"  changeset="false" ><tag k="amenity" v="childcare"/><tag k="name" v="Avalon YMCA-YWCA Child Care"/><tag k="addr:housenumber" v="2080"/><tag k="addr:street" v="Portobello Boulevard"/><tag k="addr:postal_code" v="K4A0K5"/><tag k="phone" v="+1-613-824-2681"/><tag k="school:language" v="english"/><tag k="source" v="City of Ottawa"/><tag k="source:date" v="2019-02-28"/></node><node lat="45.392096" lon="-75.620397"  id="-219"  changeset="false" ><tag k="amenity" v="childcare"/><tag k="name" v="Service à l'enfance Aladin Childcare Services-Hawthorne"/><tag k="addr:housenumber" v="2158"/><tag k="addr:street" v="St.Laurent Boulevard"/><tag k="addr:postal_code" v="K1G1H7"/><tag k="phone" v="+1-613-733-0553"/><tag k="school:language" v="english"/><tag k="source" v="City of Ottawa"/><tag k="source:date" v="2019-02-28"/></node><node lat="45.268111" lon="-75.767939"  id="-220"  changeset="false" ><tag k="amenity" v="childcare"/><tag k="name" v="Barrhaven Child Care Centre"/><tag k="addr:housenumber" v="56"/><tag k="addr:street" v="Kennevale Drive"/><tag k="addr:postal_code" v="K2J3B2"/><tag k="phone" v="+1-613-825-9385"/><tag k="school:language" v="english"/><tag k="source" v="City of Ottawa"/><tag k="source:date" v="2019-02-28"/></node><node lat="45.405906" lon="-75.708749"  id="-221"  changeset="false" ><tag k="amenity" v="childcare"/><tag k="name" v="St. Anthony's Children's Centre"/><tag k="addr:housenumber" v="414"/><tag k="addr:street" v="Booth Street"/><tag k="addr:postal_code" v="K1R7K7"/><tag k="phone" v="+1-613-232-4308"/><tag k="school:language" v="english"/><tag k="source" v="City of Ottawa"/><tag k="source:date" v="2019-02-28"/></node><node lat="45.392495" lon="-75.646033"  id="-222"  changeset="false" ><tag k="amenity" v="childcare"/><tag k="name" v="Service à l'enfance Aladin Childcare Services - Pleasant Park"/><tag k="addr:housenumber" v="564"/><tag k="addr:street" v="Pleasant Park Road"/><tag k="addr:postal_code" v="K1H5N1"/><tag k="phone" v="+1-613-733-0590"/><tag k="website" v="http://www.aladin.services"/><tag k="school:language" v="english"/><tag k="source" v="City of Ottawa"/><tag k="source:date" v="2019-02-28"/></node><node lat="45.421613" lon="-75.416294"  id="-223"  changeset="false" ><tag k="amenity" v="childcare"/><tag k="name" v="Children's Village at Navan"/><tag k="addr:housenumber" v="1375"/><tag k="addr:street" v="Colonial Road"/><tag k="addr:postal_code" v="K4B1N1"/><tag k="phone" v="+1-613-835-1583"/><tag k="school:language" v="english"/><tag k="source" v="City of Ottawa"/><tag k="source:date" v="2019-02-28"/></node><node lat="45.41053" lon="-75.709173"  id="-224"  changeset="false" ><tag k="amenity" v="childcare"/><tag k="name" v="Nanny Goat Hill Nursery School"/><tag k="addr:housenumber" v="755"/><tag k="addr:street" v="Somerset Street"/><tag k="addr:postal_code" v="K1R6R1"/><tag k="phone" v="+1-613-235-7561"/><tag k="website" v="http://www.swchc.on.ca"/><tag k="school:language" v="english"/><tag k="source" v="City of Ottawa"/><tag k="source:date" v="2019-02-28"/></node><node lat="45.414865" lon="-75.704765"  id="-225"  changeset="false" ><tag k="amenity" v="childcare"/><tag k="name" v="Centretown Parent's Extended care"/><tag k="addr:housenumber" v="376"/><tag k="addr:street" v="Gloucester Street"/><tag k="addr:postal_code" v="K1R5E8"/><tag k="phone" v="+1-613-230-3020"/><tag k="school:language" v="english"/><tag k="source" v="City of Ottawa"/><tag k="source:date" v="2019-02-28"/></node><node lat="45.406428" lon="-75.685334"  id="-226"  changeset="false" ><tag k="amenity" v="childcare"/><tag k="name" v="Glebe Parents' Daycare First Avenue Campus"/><tag k="addr:housenumber" v="73"/><tag k="addr:street" v="First Avenue"/><tag k="addr:postal_code" v="K1S2G1"/><tag k="phone" v="+1-613-236-4502"/><tag k="school:language" v="english"/><tag k="source" v="City of Ottawa"/><tag k="source:date" v="2019-02-28"/></node><node lat="45.435063" lon="-75.642633"  id="-227"  changeset="false" ><tag k="amenity" v="childcare"/><tag k="name" v="Ottawa Carleton District School Board (Rideau High School Infant Toddler Preschool Program)"/><tag k="addr:housenumber" v="815"/><tag k="addr:street" v="St.Laurent Boulevard"/><tag k="addr:postal_code" v="K1K3A7"/><tag k="phone" v="+1-613-745-5414"/><tag k="school:language" v="english"/><tag k="source" v="City of Ottawa"/><tag k="source:date" v="2019-02-28"/></node><node lat="45.365152" lon="-75.769513"  id="-228"  changeset="false" ><tag k="amenity" v="childcare"/><tag k="name" v="Whitehaven Kindergarten School Age Centre Inc."/><tag k="addr:housenumber" v="919"/><tag k="addr:street" v="Woodroffe Avenue"/><tag k="addr:postal_code" v="K2A3G9"/><tag k="phone" v="+1-613-759-8364"/><tag k="school:language" v="english"/><tag k="source" v="City of Ottawa"/><tag k="source:date" v="2019-02-28"/></node><node lat="45.433088" lon="-75.530236"  id="-229"  changeset="false" ><tag k="amenity" v="childcare"/><tag k="name" v="Orleans Montessori Preschool and Child Care"/><tag k="addr:housenumber" v="2820"/><tag k="addr:street" v="Navan Road"/><tag k="addr:postal_code" v="K1C7G4"/><tag k="phone" v="+1-613-216-2507"/><tag k="website" v="http://www.ompsc.com"/><tag k="school:language" v="english"/><tag k="source" v="City of Ottawa"/><tag k="source:date" v="2019-02-28"/></node><node lat="45.366095" lon="-75.699894"  id="-230"  changeset="false" ><tag k="amenity" v="childcare"/><tag k="name" v="Carleton Memorial Day Care Centre"/><tag k="addr:housenumber" v="740"/><tag k="addr:street" v="Melfa Crescent"/><tag k="addr:postal_code" v="K2C0P2"/><tag k="phone" v="+1-613-226-1953"/><tag k="school:language" v="english"/><tag k="source" v="City of Ottawa"/><tag k="source:date" v="2019-02-28"/></node><node lat="45.304786" lon="-75.905869"  id="-231"  changeset="false" ><tag k="amenity" v="childcare"/><tag k="name" v="Little Pickles, Katimavik"/><tag k="addr:housenumber" v="200"/><tag k="addr:street" v="Katimavik Road"/><tag k="addr:postal_code" v="K2L4A2"/><tag k="phone" v="+1-613-296-0668"/><tag k="school:language" v="english"/><tag k="source" v="City of Ottawa"/><tag k="source:date" v="2019-02-28"/></node><node lat="45.270208" lon="-75.903259"  id="-232"  changeset="false" ><tag k="amenity" v="childcare"/><tag k="name" v="Centre éducatif coopérative Le Manège-Stittsville"/><tag k="addr:housenumber" v="5473"/><tag k="addr:street" v="Abbott Rue Est"/><tag k="addr:postal_code" v="K2S0A8"/><tag k="phone" v="+1-613-831-1226"/><tag k="website" v="http://www.lemanege.ca"/><tag k="school:language" v="french"/><tag k="source" v="City of Ottawa"/><tag k="source:date" v="2019-02-28"/></node><node lat="45.330754" lon="-75.702697"  id="-233"  changeset="false" ><tag k="amenity" v="childcare"/><tag k="name" v="Little Explorers Reggio Emilia Pre-School"/><tag k="addr:housenumber" v="6"/><tag k="addr:street" v="Deakin Street"/><tag k="addr:postal_code" v="K2E1C4"/><tag k="phone" v="+1-613-697-2810"/><tag k="website" v="http://www.littleexplorers.ca"/><tag k="school:language" v="english"/><tag k="source" v="City of Ottawa"/><tag k="source:date" v="2019-02-28"/></node><node lat="45.360679" lon="-75.70089"  id="-234"  changeset="false" ><tag k="amenity" v="childcare"/><tag k="name" v="Andrew Fleck Child Care Services - Carleton Heights Child Care Centre"/><tag k="addr:housenumber" v="1660"/><tag k="addr:street" v="Prince of Wales Drive"/><tag k="addr:postal_code" v="K2C1P4"/><tag k="phone" v="+1-613-736-1913"/><tag k="website" v="http://www.afchildcare.on.ca"/><tag k="school:language" v="english"/><tag k="source" v="City of Ottawa"/><tag k="source:date" v="2019-02-28"/></node><node lat="45.432166" lon="-75.50919"  id="-235"  changeset="false" ><tag k="amenity" v="childcare"/><tag k="name" v="MIFO- école Notre Dame des Champs"/><tag k="addr:housenumber" v="6280"/><tag k="addr:street" v="Renaud Rue"/><tag k="addr:postal_code" v="K4B1H9"/><tag k="phone" v="+1-613-830-6436"/><tag k="website" v="http://www.mifo.net"/><tag k="school:language" v="french"/><tag k="source" v="City of Ottawa"/><tag k="source:date" v="2019-02-28"/></node><node lat="45.347566" lon="-75.757586"  id="-236"  changeset="false" ><tag k="amenity" v="childcare"/><tag k="name" v="Algonquin College Early Learning Centre"/><tag k="addr:housenumber" v="1385"/><tag k="addr:street" v="Woodroffe Avenue"/><tag k="addr:postal_code" v="K2G1V8"/><tag k="phone" v="+1-613-727-4723"/><tag k="school:language" v="english"/><tag k="source" v="City of Ottawa"/><tag k="source:date" v="2019-02-28"/></node><node lat="45.340572" lon="-75.899107"  id="-237"  changeset="false" ><tag k="amenity" v="childcare"/><tag k="name" v="Kanata North Early Learning Centre"/><tag k="addr:housenumber" v="103-232"/><tag k="addr:street" v="Herzberg Road"/><tag k="addr:postal_code" v="K2K2A1"/><tag k="phone" v="+1-613-287-0806"/><tag k="website" v="http://www.kanata-northelc.ca"/><tag k="school:language" v="english;french"/><tag k="source" v="City of Ottawa"/><tag k="source:date" v="2019-02-28"/></node><node lat="45.447649" lon="-75.65008"  id="-238"  changeset="false" ><tag k="amenity" v="childcare"/><tag k="name" v="Le Carrousel"/><tag k="addr:housenumber" v="431"/><tag k="addr:street" v="St-Laurent Boulevard"/><tag k="addr:postal_code" v="K1K2Z8"/><tag k="phone" v="+1-613-789-3020"/><tag k="school:language" v="french"/><tag k="source" v="City of Ottawa"/><tag k="source:date" v="2019-02-28"/></node><node lat="45.395896" lon="-75.725566"  id="-239"  changeset="false" ><tag k="amenity" v="childcare"/><tag k="name" v="Martin Luther Kindergarten"/><tag k="addr:housenumber" v="579"/><tag k="addr:street" v="Parkdale Avenue"/><tag k="addr:postal_code" v="K1Y4K1"/><tag k="phone" v="+1-613-236-1570"/><tag k="website" v="http://WWW.GLCO.ORG"/><tag k="school:language" v="english;german"/><tag k="source" v="City of Ottawa"/><tag k="source:date" v="2019-02-28"/></node><node lat="45.391051" lon="-75.680926"  id="-240"  changeset="false" ><tag k="amenity" v="childcare"/><tag k="name" v="Capital Day Care Centre"/><tag k="addr:housenumber" v="1230"/><tag k="addr:street" v="Bank Street"/><tag k="addr:postal_code" v="K1S3Y3"/><tag k="phone" v="+1-613-733-8208"/><tag k="school:language" v="english"/><tag k="source" v="City of Ottawa"/><tag k="source:date" v="2019-02-28"/></node><node lat="45.385271" lon="-75.741726"  id="-241"  changeset="false" ><tag k="amenity" v="childcare"/><tag k="name" v="Westboro Jewish Montessori Preschool"/><tag k="addr:housenumber" v="192"/><tag k="addr:street" v="Switzer Avenue"/><tag k="addr:postal_code" v="K1Z7H9"/><tag k="phone" v="+1-613-729-1619"/><tag k="school:language" v="english"/><tag k="source" v="City of Ottawa"/><tag k="source:date" v="2019-02-28"/></node><node lat="45.398847" lon="-75.630878"  id="-242"  changeset="false" ><tag k="amenity" v="childcare"/><tag k="name" v="Centre éducatif La Clémentine Marie Curie"/><tag k="addr:housenumber" v="860"/><tag k="addr:street" v="Colson Avenue"/><tag k="addr:postal_code" v="K1G1R7"/><tag k="phone" v="+1-613-260-1150"/><tag k="school:language" v="french"/><tag k="source" v="City of Ottawa"/><tag k="source:date" v="2019-02-28"/></node><node lat="45.360105" lon="-75.800913"  id="-243"  changeset="false" ><tag k="amenity" v="childcare"/><tag k="name" v="Pinecrest Queensway Headstart Nursery School"/><tag k="addr:housenumber" v="2860"/><tag k="addr:street" v="Ahearn Avenue"/><tag k="addr:postal_code" v="K2B6G2"/><tag k="phone" v="+1-613-829-1125"/><tag k="website" v="http://www.pinecrest-queensway.com"/><tag k="school:language" v="english"/><tag k="source" v="City of Ottawa"/><tag k="source:date" v="2019-02-28"/></node><node lat="45.388329" lon="-75.728302"  id="-244"  changeset="false" ><tag k="amenity" v="childcare"/><tag k="name" v="The Children's Place (Carling)"/><tag k="addr:housenumber" v="1150"/><tag k="addr:street" v="Carling Avenue"/><tag k="addr:postal_code" v="K1Z7K5"/><tag k="phone" v="+1-613-729-1222"/><tag k="website" v="http://www.childrensplace.on.ca"/><tag k="school:language" v="english"/><tag k="source" v="City of Ottawa"/><tag k="source:date" v="2019-02-28"/></node><node lat="45.403325" lon="-75.729182"  id="-245"  changeset="false" ><tag k="amenity" v="childcare"/><tag k="name" v="ABC Infant and Toddler Centre"/><tag k="addr:housenumber" v="5"/><tag k="addr:street" v="Pinehurst Avenue"/><tag k="addr:postal_code" v="K1Y1K2"/><tag k="phone" v="+1-613-729-9296"/><tag k="website" v="http://www.abcdaycarecentre.ca"/><tag k="school:language" v="english"/><tag k="source" v="City of Ottawa"/><tag k="source:date" v="2019-02-28"/></node><node lat="45.4068" lon="-75.707798"  id="-246"  changeset="false" ><tag k="amenity" v="childcare"/><tag k="name" v="Dalhousie Parents Daycare Centre"/><tag k="addr:housenumber" v="391"/><tag k="addr:street" v="Booth Street"/><tag k="addr:postal_code" v="K1R7K5"/><tag k="phone" v="+1-613-234-2850"/><tag k="school:language" v="english"/><tag k="source" v="City of Ottawa"/><tag k="source:date" v="2019-02-28"/></node><node lat="45.28217" lon="-75.843849"  id="-247"  changeset="false" ><tag k="amenity" v="childcare"/><tag k="name" v="Emerald Meadows School Age Program"/><tag k="addr:housenumber" v="500"/><tag k="addr:street" v="B Stonehaven Drive"/><tag k="addr:postal_code" v="K2M2V6"/><tag k="phone" v="+1-613-270-9773"/><tag k="school:language" v="english"/><tag k="source" v="City of Ottawa"/><tag k="source:date" v="2019-02-28"/></node><node lat="45.130145" lon="-75.710882"  id="-248"  changeset="false" ><tag k="amenity" v="childcare"/><tag k="name" v="North Gower Co-operative Nursery School"/><tag k="addr:housenumber" v="2300"/><tag k="addr:street" v="Community Way"/><tag k="addr:postal_code" v="K0A2T0"/><tag k="phone" v="+1-613-489-4271"/><tag k="website" v="http://www.ngcns.com"/><tag k="school:language" v="english"/><tag k="source" v="City of Ottawa"/><tag k="source:date" v="2019-02-28"/></node><node lat="45.401094" lon="-75.651601"  id="-249"  changeset="false" ><tag k="amenity" v="childcare"/><tag k="name" v="Ottawa Children's Treatment Centre Preschool"/><tag k="addr:housenumber" v="395"/><tag k="addr:street" v="Smyth Road"/><tag k="addr:postal_code" v="K1H8L2"/><tag k="phone" v="+1-613-737-0871"/><tag k="website" v="http://www.octc.ca"/><tag k="school:language" v="english"/><tag k="source" v="City of Ottawa"/><tag k="source:date" v="2019-02-28"/></node><node lat="45.432531" lon="-75.659954"  id="-250"  changeset="false" ><tag k="amenity" v="childcare"/><tag k="name" v="Centre éducatif Brin de Soleil"/><tag k="addr:housenumber" v="349"/><tag k="addr:street" v="Olmstead Rue"/><tag k="addr:postal_code" v="K1L1B1"/><tag k="phone" v="+1-613-741-8515"/><tag k="school:language" v="french"/><tag k="source" v="City of Ottawa"/><tag k="source:date" v="2019-02-28"/></node><node lat="45.44253" lon="-75.596759"  id="-251"  changeset="false" ><tag k="amenity" v="childcare"/><tag k="name" v="Charmian Craven Child Care Centre"/><tag k="addr:housenumber" v="2071"/><tag k="addr:street" v="Jasmine Crescent"/><tag k="addr:postal_code" v="K1J7W2"/><tag k="phone" v="+1-613-746-9286"/><tag k="school:language" v="english"/><tag k="source" v="City of Ottawa"/><tag k="source:date" v="2019-02-28"/></node><node lat="45.439795" lon="-75.670924"  id="-252"  changeset="false" ><tag k="amenity" v="childcare"/><tag k="name" v="Centre éducatif Les Débrouillards"/><tag k="addr:housenumber" v="135"/><tag k="addr:street" v="Alice Rue"/><tag k="addr:postal_code" v="K1L7X5"/><tag k="phone" v="+1-613-746-6327"/><tag k="school:language" v="french"/><tag k="source" v="City of Ottawa"/><tag k="source:date" v="2019-02-28"/></node><node lat="45.432598" lon="-75.682059"  id="-253"  changeset="false" ><tag k="amenity" v="childcare"/><tag k="name" v="Programme Petits pas à trois - École catholique Sainte-Anne"/><tag k="addr:housenumber" v="235"/><tag k="addr:street" v="Beausoleil Drive"/><tag k="addr:postal_code" v="K1N8X8"/><tag k="phone" v="+1-613-744-2555"/><tag k="website" v="http://www.ecolecatholique.ca"/><tag k="school:language" v="french"/><tag k="source" v="City of Ottawa"/><tag k="source:date" v="2019-02-28"/></node><node lat="45.394403" lon="-75.682653"  id="-254"  changeset="false" ><tag k="amenity" v="childcare"/><tag k="name" v="Glebe Reggio Centre"/><tag k="addr:housenumber" v="276"/><tag k="addr:street" v="Sunnyside Avenue"/><tag k="addr:postal_code" v="K1S0R4"/><tag k="phone" v="+1-613-236-3000"/><tag k="website" v="http://www.glebereggiocentre.ca"/><tag k="school:language" v="english"/><tag k="source" v="City of Ottawa"/><tag k="source:date" v="2019-02-28"/></node><node lat="45.439624" lon="-75.695157"  id="-255"  changeset="false" ><tag k="amenity" v="childcare"/><tag k="name" v="Centre éducatif Pinocchio Educational Centre"/><tag k="addr:housenumber" v="111"/><tag k="addr:street" v="Sussex Drive"/><tag k="addr:postal_code" v="K1N5A1"/><tag k="phone" v="+1-613-789-1027"/><tag k="school:language" v="french"/><tag k="source" v="City of Ottawa"/><tag k="source:date" v="2019-02-28"/></node><node lat="45.454447" lon="-75.598546"  id="-256"  changeset="false" ><tag k="amenity" v="childcare"/><tag k="name" v="Beacon Learning Centre"/><tag k="addr:housenumber" v="2379"/><tag k="addr:street" v="Ogilvie Road"/><tag k="addr:postal_code" v="K1J7N4"/><tag k="phone" v="+1-613-741-3422"/><tag k="website" v="http://www.beaconlearningcentre.com"/><tag k="school:language" v="english"/><tag k="source" v="City of Ottawa"/><tag k="source:date" v="2019-02-28"/></node><node lat="45.296066" lon="-75.88507"  id="-257"  changeset="false" ><tag k="amenity" v="childcare"/><tag k="name" v="Glen Cairn Coop Preschool"/><tag k="addr:housenumber" v="186"/><tag k="addr:street" v="Morrena Road"/><tag k="addr:postal_code" v="K2L1E1"/><tag k="phone" v="+1-613-836-3318"/><tag k="website" v="http://gccp.ca"/><tag k="school:language" v="english"/><tag k="source" v="City of Ottawa"/><tag k="source:date" v="2019-02-28"/></node><node lat="45.449233" lon="-75.537682"  id="-258"  changeset="false" ><tag k="amenity" v="childcare"/><tag k="name" v="Forest Valley School Age Program"/><tag k="addr:housenumber" v="1570A"/><tag k="addr:street" v="Forest Valley Drive"/><tag k="addr:postal_code" v="K1C6X7"/><tag k="phone" v="+1-613-841-8559"/><tag k="website" v="http://www.gccs.ca"/><tag k="school:language" v="english"/><tag k="source" v="City of Ottawa"/><tag k="source:date" v="2019-02-28"/></node><node lat="45.402225" lon="-75.691483"  id="-259"  changeset="false" ><tag k="amenity" v="childcare"/><tag k="name" v="Glebe Co-operative Nursery School Inc."/><tag k="addr:housenumber" v="175"/><tag k="addr:street" v="Third Avenue"/><tag k="addr:postal_code" v="K1S2K2"/><tag k="phone" v="+1-613-233-9708"/><tag k="school:language" v="english"/><tag k="source" v="City of Ottawa"/><tag k="source:date" v="2019-02-28"/></node><node lat="45.443775" lon="-75.599374"  id="-260"  changeset="false" ><tag k="amenity" v="childcare"/><tag k="name" v="Elmridge School Age Program"/><tag k="addr:housenumber" v="1923"/><tag k="addr:street" v="Elmridge Drive"/><tag k="addr:postal_code" v="K1J8G7"/><tag k="phone" v="+1-613-746-2425"/><tag k="school:language" v="english"/><tag k="source" v="City of Ottawa"/><tag k="source:date" v="2019-02-28"/></node><node lat="45.473747" lon="-75.481526"  id="-261"  changeset="false" ><tag k="amenity" v="childcare"/><tag k="name" v="MIFO-école des Pionniers"/><tag k="addr:housenumber" v="720"/><tag k="addr:street" v="Merkley Promenade East"/><tag k="addr:postal_code" v="K4A1L8"/><tag k="phone" v="+1-613-830-6436"/><tag k="website" v="http://www.mifo.ca"/><tag k="school:language" v="french"/><tag k="source" v="City of Ottawa"/><tag k="source:date" v="2019-02-28"/></node><node lat="45.266128" lon="-75.771486"  id="-262"  changeset="false" ><tag k="amenity" v="childcare"/><tag k="name" v="Tiny Hoppers Barrhaven"/><tag k="addr:housenumber" v="3023"/><tag k="addr:street" v="Cedarview Road"/><tag k="addr:postal_code" v="K2J4A8"/><tag k="phone" v="+1-613-440-8507"/><tag k="website" v="http://www.tinyhoppers.ca"/><tag k="school:language" v="english"/><tag k="source" v="City of Ottawa"/><tag k="source:date" v="2019-02-28"/></node><node lat="45.147367" lon="-75.602938"  id="-263"  changeset="false" ><tag k="amenity" v="childcare"/><tag k="name" v="Osgoode Cooperative Nursery School"/><tag k="addr:housenumber" v="5660"/><tag k="addr:street" v="Osgoode Main Street"/><tag k="addr:postal_code" v="K0A2W0"/><tag k="phone" v="+1-613-826-2528"/><tag k="website" v="http://www.theocns.com"/><tag k="school:language" v="english"/><tag k="source" v="City of Ottawa"/><tag k="source:date" v="2019-02-28"/></node><node lat="45.280123" lon="-75.906981"  id="-264"  changeset="false" ><tag k="amenity" v="childcare"/><tag k="name" v="Dolphin Tale Child Care Ltd."/><tag k="addr:housenumber" v="59"/><tag k="addr:street" v="Iber Road"/><tag k="addr:postal_code" v="K2S1E7"/><tag k="phone" v="+1-613-825-7673"/><tag k="website" v="http://www.dolphintalechildcare.ca"/><tag k="school:language" v="english"/><tag k="source" v="City of Ottawa"/><tag k="source:date" v="2019-02-28"/></node><node lat="45.321162" lon="-75.827224"  id="-265"  changeset="false" ><tag k="amenity" v="childcare"/><tag k="name" v="Lynwood Early Learning Centre"/><tag k="addr:housenumber" v="3877-B"/><tag k="addr:street" v="Richmond Road"/><tag k="addr:postal_code" v="K2H5C1"/><tag k="phone" v="+1-613-224-4455"/><tag k="school:language" v="english"/><tag k="source" v="City of Ottawa"/><tag k="source:date" v="2019-02-28"/></node><node lat="45.37545" lon="-75.66742"  id="-266"  changeset="false" ><tag k="amenity" v="childcare"/><tag k="name" v="Kinderville"/><tag k="addr:housenumber" v="1644"/><tag k="addr:street" v="Bank Street"/><tag k="addr:postal_code" v="K1V7Y6"/><tag k="phone" v="+1-613-523-8060"/><tag k="school:language" v="english"/><tag k="source" v="City of Ottawa"/><tag k="source:date" v="2019-02-28"/></node><node lat="45.38552" lon="-75.694112"  id="-267"  changeset="false" ><tag k="amenity" v="childcare"/><tag k="name" v="Colonel By Child Care Centre"/><tag k="addr:housenumber" v="1125"/><tag k="addr:street" v="Colonel By Drive"/><tag k="addr:postal_code" v="K1S5B6"/><tag k="phone" v="+1-613-520-2715"/><tag k="school:language" v="english"/><tag k="source" v="City of Ottawa"/><tag k="source:date" v="2019-02-28"/></node><node lat="45.35735" lon="-75.783017"  id="-268"  changeset="false" ><tag k="amenity" v="childcare"/><tag k="name" v="REKSAP Centres for Early Learning (Severn)"/><tag k="addr:housenumber" v="2553"/><tag k="addr:street" v="Severn Avenue"/><tag k="addr:postal_code" v="K2B7V8"/><tag k="phone" v="+1-613-828-8743"/><tag k="school:language" v="english"/><tag k="source" v="City of Ottawa"/><tag k="source:date" v="2019-02-28"/></node><node lat="45.27076" lon="-75.908169"  id="-269"  changeset="false" ><tag k="amenity" v="childcare"/><tag k="name" v="Andrew Fleck Child Care Services - Stittsville Kindergarten and School Age Program"/><tag k="addr:housenumber" v="40"/><tag k="addr:street" v="Granite Ridge Drive"/><tag k="addr:postal_code" v="K2S1Y9"/><tag k="phone" v="+1-613-836-0325"/><tag k="website" v="http://www.afchildcare.on.ca"/><tag k="school:language" v="english"/><tag k="source" v="City of Ottawa"/><tag k="source:date" v="2019-02-28"/></node><node lat="45.431056" lon="-75.660056"  id="-270"  changeset="false" ><tag k="amenity" v="childcare"/><tag k="name" v="The Sivummut Head Start Program"/><tag k="addr:housenumber" v="230"/><tag k="addr:street" v="McArthur Avenue"/><tag k="addr:postal_code" v="K1L6P5"/><tag k="phone" v="+1-613-741-4396"/><tag k="school:language" v="english"/><tag k="source" v="City of Ottawa"/><tag k="source:date" v="2019-02-28"/></node><node lat="45.411217" lon="-75.689328"  id="-271"  changeset="false" ><tag k="amenity" v="childcare"/><tag k="name" v="Taggart Family Y Child Care Centre"/><tag k="addr:housenumber" v="180"/><tag k="addr:street" v="Argyle Street"/><tag k="addr:postal_code" v="K2P1B7"/><tag k="phone" v="+1-613-237-1320"/><tag k="website" v="http://www.ymcaywca.ca"/><tag k="school:language" v="english"/><tag k="source" v="City of Ottawa"/><tag k="source:date" v="2019-02-28"/></node><node lat="45.431132" lon="-75.660341"  id="-272"  changeset="false" ><tag k="amenity" v="childcare"/><tag k="name" v="Tumiralaat Inuit Child Care Centre"/><tag k="addr:housenumber" v="224"/><tag k="addr:street" v="McArthur Avenue"/><tag k="addr:postal_code" v="K1L6P5"/><tag k="phone" v="+1-613-744-3133"/><tag k="website" v="http://www.ottawainuitchildrens.com"/><tag k="school:language" v="english"/><tag k="source" v="City of Ottawa"/><tag k="source:date" v="2019-02-28"/></node><node lat="45.342966" lon="-75.762086"  id="-273"  changeset="false" ><tag k="amenity" v="childcare"/><tag k="name" v="Centrepointe Artistic Preschool"/><tag k="addr:housenumber" v="117"/><tag k="addr:street" v="Centrepointe Drive"/><tag k="addr:postal_code" v="K2G5X3"/><tag k="phone" v="+1-613-226-6257"/><tag k="school:language" v="english"/><tag k="source" v="City of Ottawa"/><tag k="source:date" v="2019-02-28"/></node><node lat="45.396882" lon="-75.726155"  id="-274"  changeset="false" ><tag k="amenity" v="childcare"/><tag k="name" v="Parkdale Montessori School"/><tag k="addr:housenumber" v="555"/><tag k="addr:street" v="Parkdale Avenue"/><tag k="addr:postal_code" v="K1Y1H9"/><tag k="phone" v="+1-613-216-7275"/><tag k="school:language" v="english"/><tag k="source" v="City of Ottawa"/><tag k="source:date" v="2019-02-28"/></node><node lat="45.288421" lon="-75.867427"  id="-275"  changeset="false" ><tag k="amenity" v="childcare"/><tag k="name" v="Bridlewood Child Learning Centre"/><tag k="addr:housenumber" v="2"/><tag k="addr:street" v="Stonehaven Drive"/><tag k="addr:postal_code" v="K2M2P9"/><tag k="phone" v="+1-613-591-0171"/><tag k="school:language" v="english"/><tag k="source" v="City of Ottawa"/><tag k="source:date" v="2019-02-28"/></node><node lat="45.375972" lon="-75.771204"  id="-276"  changeset="false" ><tag k="amenity" v="childcare"/><tag k="name" v="Rainbow Montessori School Inc"/><tag k="addr:housenumber" v="2120"/><tag k="addr:street" v="Prince Charles Road"/><tag k="addr:postal_code" v="K2A3L3"/><tag k="school:language" v="english"/><tag k="source" v="City of Ottawa"/><tag k="source:date" v="2019-02-28"/></node><node lat="45.406" lon="-75.663247"  id="-277"  changeset="false" ><tag k="amenity" v="childcare"/><tag k="name" v="Lycée Claudel"/><tag k="addr:housenumber" v="1635"/><tag k="addr:street" v="Riverside Drive"/><tag k="addr:postal_code" v="K1G0E5"/><tag k="website" v="http://www.claudel.org/"/><tag k="school:language" v="french"/><tag k="source" v="City of Ottawa"/><tag k="source:date" v="2019-02-28"/></node><node lat="45.393165" lon="-75.752329"  id="-278"  changeset="false" ><tag k="amenity" v="childcare"/><tag k="name" v="Westboro Montessori School"/><tag k="addr:housenumber" v="307"/><tag k="addr:street" v="Richmond Road"/><tag k="addr:postal_code" v="K1Z6X3"/><tag k="phone" v="+1-613-321-0788"/><tag k="website" v="http://westboromontessori.com"/><tag k="school:language" v="english"/><tag k="source" v="City of Ottawa"/><tag k="source:date" v="2019-02-28"/></node><node lat="45.407307" lon="-75.691148"  id="-279"  changeset="false" ><tag k="amenity" v="childcare"/><tag k="name" v="Acorn Early Learning Centre"/><tag k="addr:housenumber" v="600"/><tag k="addr:street" v="Bank Street"/><tag k="addr:postal_code" v="K1S3T6"/><tag k="phone" v="+1-613-216-7668"/><tag k="website" v="http://www.acornelc.com"/><tag k="school:language" v="english"/><tag k="source" v="City of Ottawa"/><tag k="source:date" v="2019-02-28"/></node><node lat="45.355491" lon="-75.354097"  id="-280"  changeset="false" ><tag k="amenity" v="childcare"/><tag k="name" v="La Coccinelle, Saint-Guillaume"/><tag k="addr:housenumber" v="5750"/><tag k="addr:street" v="Buckland Chemin"/><tag k="addr:postal_code" v="K0A3H0"/><tag k="phone" v="+1-613-835-3202"/><tag k="website" v="http://www.lacoccinelle.com"/><tag k="school:language" v="french"/><tag k="source" v="City of Ottawa"/><tag k="source:date" v="2019-02-28"/></node><node lat="45.287231" lon="-75.846129"  id="-281"  changeset="false" ><tag k="amenity" v="childcare"/><tag k="name" v="Centre éducatif coopérative Le Manège-Kanata"/><tag k="addr:housenumber" v="100"/><tag k="addr:street" v="Stonehaven Promenade"/><tag k="addr:postal_code" v="K2M2H4"/><tag k="phone" v="+1-613-271-1621"/><tag k="website" v="http://www.lemanege.ca"/><tag k="school:language" v="french"/><tag k="source" v="City of Ottawa"/><tag k="source:date" v="2019-02-28"/></node><node lat="45.440319" lon="-75.677769"  id="-282"  changeset="false" ><tag k="amenity" v="childcare"/><tag k="name" v="Fern Hill School"/><tag k="addr:housenumber" v="50"/><tag k="addr:street" v="Vaughan Street"/><tag k="addr:postal_code" v="K1M1X1"/><tag k="phone" v="+1-613-746-0255"/><tag k="school:language" v="english"/><tag k="source" v="City of Ottawa"/><tag k="source:date" v="2019-02-28"/></node><node lat="45.390593" lon="-75.755798"  id="-283"  changeset="false" ><tag k="amenity" v="childcare"/><tag k="name" v="Westboro Montessori Children's House"/><tag k="addr:housenumber" v="387"/><tag k="addr:street" v="Danforth Avenue"/><tag k="addr:postal_code" v="K2A0E1"/><tag k="phone" v="+1-613-680-0712"/><tag k="website" v="http://www.westboromontessori.com"/><tag k="school:language" v="english"/><tag k="source" v="City of Ottawa"/><tag k="source:date" v="2019-02-28"/></node><node lat="45.281624" lon="-75.685189"  id="-284"  changeset="false" ><tag k="amenity" v="childcare"/><tag k="name" v="Canyon Walk Child Care Centre"/><tag k="addr:housenumber" v="4175-B"/><tag k="addr:street" v="Spratt Road"/><tag k="addr:postal_code" v="K1V1T6"/><tag k="phone" v="+1-613-686-6646"/><tag k="website" v="http://www.gccs.ca"/><tag k="school:language" v="english"/><tag k="source" v="City of Ottawa"/><tag k="source:date" v="2019-02-28"/></node><node lat="45.346252" lon="-76.037258"  id="-285"  changeset="false" ><tag k="amenity" v="childcare"/><tag k="name" v="Carp Nursery School"/><tag k="addr:housenumber" v="3774"/><tag k="addr:street" v="Carp Road"/><tag k="addr:postal_code" v="K0A1L0"/><tag k="phone" v="+1-613-839-3416"/><tag k="website" v="http://www.carpcooperativenurseryschool.org"/><tag k="school:language" v="english"/><tag k="source" v="City of Ottawa"/><tag k="source:date" v="2019-02-28"/></node><node lat="45.375964" lon="-75.751746"  id="-286"  changeset="false" ><tag k="amenity" v="childcare"/><tag k="name" v="Ganon Preschool"/><tag k="addr:housenumber" v="21"/><tag k="addr:street" v="Nadolny Sachs Private"/><tag k="addr:postal_code" v="K2A1R9"/><tag k="phone" v="+1-613-798-9818"/><tag k="website" v="http://www.jccottawa.com/ganon"/><tag k="school:language" v="english"/><tag k="source" v="City of Ottawa"/><tag k="source:date" v="2019-02-28"/></node><node lat="45.258969" lon="-75.922109"  id="-287"  changeset="false" ><tag k="amenity" v="childcare"/><tag k="name" v="Stittsville Childcare Centre"/><tag k="addr:housenumber" v="1488"/><tag k="addr:street" v="Main Street"/><tag k="addr:postal_code" v="K2S1B2"/><tag k="phone" v="+1-613-831-8012"/><tag k="website" v="http://www.stittsvillechildcarecentre.com"/><tag k="school:language" v="english"/><tag k="source" v="City of Ottawa"/><tag k="source:date" v="2019-02-28"/></node><node lat="45.278347" lon="-75.920847"  id="-288"  changeset="false" ><tag k="amenity" v="childcare"/><tag k="name" v="Stittsville's Imagination Station Preschool and Kinder"/><tag k="addr:housenumber" v="5891"/><tag k="addr:street" v="Hazeldean Road"/><tag k="addr:postal_code" v="K2S1B9"/><tag k="phone" v="+1-613-836-1771"/><tag k="website" v="http://www.ispreschool.ca"/><tag k="school:language" v="english"/><tag k="source" v="City of Ottawa"/><tag k="source:date" v="2019-02-28"/></node><node lat="45.270804" lon="-75.942696"  id="-289"  changeset="false" ><tag k="amenity" v="childcare"/><tag k="name" v="Brown Bear Day Care - Carp Road"/><tag k="addr:housenumber" v="1079"/><tag k="addr:street" v="Carp Road"/><tag k="addr:postal_code" v="K2S1B9"/><tag k="phone" v="+1-613-831-0774"/><tag k="website" v="http://brownbeardaycare.ca"/><tag k="school:language" v="english"/><tag k="source" v="City of Ottawa"/><tag k="source:date" v="2019-02-28"/></node><node lat="45.32695" lon="-75.897213"  id="-290"  changeset="false" ><tag k="amenity" v="childcare"/><tag k="name" v="Elsie Stapleford Child Care Centre"/><tag k="addr:housenumber" v="1000"/><tag k="addr:street" v="Teron Road"/><tag k="addr:postal_code" v="K2K1R1"/><tag k="phone" v="+1-613-592-5151"/><tag k="website" v="http://www.ottawa.ca/daycare"/><tag k="school:language" v="english"/><tag k="source" v="City of Ottawa"/><tag k="source:date" v="2019-02-28"/></node><node lat="45.28808" lon="-75.871514"  id="-291"  changeset="false" ><tag k="amenity" v="childcare"/><tag k="name" v="Children's Universe Daycare - Kanata"/><tag k="addr:housenumber" v="80"/><tag k="addr:street" v="Terence Matthews Crescent"/><tag k="addr:postal_code" v="K2M2B4"/><tag k="phone" v="+1-613-836-9000"/><tag k="website" v="http://www.childrensuniverse.net"/><tag k="school:language" v="english"/><tag k="source" v="City of Ottawa"/><tag k="source:date" v="2019-02-28"/></node><node lat="45.458352" lon="-75.566605"  id="-292"  changeset="false" ><tag k="amenity" v="childcare"/><tag k="name" v="Orchardview Montessori School"/><tag k="addr:housenumber" v="1367"/><tag k="addr:street" v="St.Joseph Boulevard"/><tag k="addr:postal_code" v="K1C7K9"/><tag k="phone" v="+1-613-424-7601"/><tag k="website" v="http://orchardviewmontessori.com"/><tag k="school:language" v="english"/><tag k="source" v="City of Ottawa"/><tag k="source:date" v="2019-02-28"/></node><node lat="45.403424" lon="-75.692514"  id="-293"  changeset="false" ><tag k="amenity" v="childcare"/><tag k="name" v="Glebe Montessori School"/><tag k="addr:housenumber" v="650"/><tag k="addr:street" v="Lyon Street South"/><tag k="addr:postal_code" v="K1S3Z7"/><tag k="phone" v="+1-613-237-3824"/><tag k="website" v="http://www.glebemontessori.com"/><tag k="school:language" v="english"/><tag k="source" v="City of Ottawa"/><tag k="source:date" v="2019-02-28"/></node><node lat="45.357561" lon="-75.927228"  id="-294"  changeset="false" ><tag k="amenity" v="childcare"/><tag k="name" v="Children's Village at Klondike"/><tag k="addr:housenumber" v="1032"/><tag k="addr:street" v="Klondike Road"/><tag k="addr:postal_code" v="K2K1X7"/><tag k="phone" v="+1-613-599-0008"/><tag k="website" v="http://www.childrensvillage.on.ca"/><tag k="school:language" v="english"/><tag k="source" v="City of Ottawa"/><tag k="source:date" v="2019-02-28"/></node><node lat="45.341058" lon="-75.922677"  id="-295"  changeset="false" ><tag k="amenity" v="childcare"/><tag k="name" v="Kids and Company - Kanata"/><tag k="addr:housenumber" v="11"/><tag k="addr:street" v="Hines Road"/><tag k="addr:postal_code" v="K2K2X1"/><tag k="phone" v="+1-416-938-8024"/><tag k="website" v="http://www.kidsandcompany.com"/><tag k="school:language" v="english"/><tag k="source" v="City of Ottawa"/><tag k="source:date" v="2019-02-28"/></node><node lat="45.492087" lon="-75.484516"  id="-296"  changeset="false" ><tag k="amenity" v="childcare"/><tag k="name" v="The Little School Daycare - Orleans"/><tag k="addr:housenumber" v="850"/><tag k="addr:street" v="Taylor Creek Boulevard"/><tag k="addr:postal_code" v="K1C1T1"/><tag k="phone" v="+1-613-837-9138"/><tag k="website" v="http://www.thelittleschool.ca"/><tag k="school:language" v="english"/><tag k="source" v="City of Ottawa"/><tag k="source:date" v="2019-02-28"/></node><node lat="45.366592" lon="-75.790358"  id="-297"  changeset="false" ><tag k="amenity" v="childcare"/><tag k="name" v="REKSAP Centres for Early Learning (Regina)"/><tag k="addr:housenumber" v="2599"/><tag k="addr:street" v="Regina Street"/><tag k="addr:postal_code" v="K2B6X4"/><tag k="phone" v="+1-613-828-8743"/><tag k="website" v="http://www.reksap.org"/><tag k="school:language" v="english"/><tag k="source" v="City of Ottawa"/><tag k="source:date" v="2019-02-28"/></node><node lat="45.28871" lon="-75.717001"  id="-298"  changeset="false" ><tag k="amenity" v="childcare"/><tag k="name" v="Children's Village at Stoneway"/><tag k="addr:housenumber" v="170"/><tag k="addr:street" v="Stoneway Drive"/><tag k="addr:postal_code" v="K2G6R2"/><tag k="phone" v="+1-613-823-2200"/><tag k="school:language" v="english"/><tag k="source" v="City of Ottawa"/><tag k="source:date" v="2019-02-28"/></node><node lat="45.37655" lon="-75.752133"  id="-299"  changeset="false" ><tag k="amenity" v="childcare"/><tag k="name" v="Early Beginnings Multicultural Child Development Centre of Ottawa-Carleton"/><tag k="addr:housenumber" v="11"/><tag k="addr:street" v="Nadolny Sachs Private"/><tag k="addr:postal_code" v="K2A1R9"/><tag k="phone" v="+1-613-722-5157"/><tag k="website" v="http://www.earlybeginningsottawa.ca"/><tag k="school:language" v="english"/><tag k="source" v="City of Ottawa"/><tag k="source:date" v="2019-02-28"/></node><node lat="45.236592" lon="-75.471709"  id="-300"  changeset="false" ><tag k="amenity" v="childcare"/><tag k="name" v="Metcalfe Co-operative Nursery School"/><tag k="addr:housenumber" v="8243"/><tag k="addr:street" v="Victoria Street"/><tag k="addr:postal_code" v="K0A2P0"/><tag k="phone" v="+1-613-821-3196"/><tag k="website" v="http://ruralfamilyconnections.ca"/><tag k="school:language" v="english"/><tag k="source" v="City of Ottawa"/><tag k="source:date" v="2019-02-28"/></node><node lat="45.257371" lon="-75.919928"  id="-301"  changeset="false" ><tag k="amenity" v="childcare"/><tag k="name" v="Brown Bear Day Care 3"/><tag k="addr:housenumber" v="1536"/><tag k="addr:street" v="Main Street"/><tag k="addr:postal_code" v="K2S1A5"/><tag k="phone" v="+1-613-831-4747"/><tag k="website" v="http://www.brownbeardaycare.ca"/><tag k="school:language" v="english"/><tag k="source" v="City of Ottawa"/><tag k="source:date" v="2019-02-28"/></node><node lat="45.29696" lon="-75.734084"  id="-302"  changeset="false" ><tag k="amenity" v="childcare"/><tag k="name" v="The Play House Learning Centre"/><tag k="addr:housenumber" v="3350"/><tag k="addr:street" v="Fallowfield Road"/><tag k="addr:postal_code" v="K2J5L1"/><tag k="phone" v="+1-613-825-7529"/><tag k="website" v="http://www.phlc.ca"/><tag k="school:language" v="english"/><tag k="source" v="City of Ottawa"/><tag k="source:date" v="2019-02-28"/></node><node lat="45.401678" lon="-75.646748"  id="-303"  changeset="false" ><tag k="amenity" v="childcare"/><tag k="name" v="Garderie Oasis Child Care Centre"/><tag k="addr:housenumber" v="507"/><tag k="addr:street" v="Smyth Chemin"/><tag k="addr:postal_code" v="K1H8M2"/><tag k="phone" v="+1-613-736-8206"/><tag k="website" v="http://www.garderie-oasis-childcare.ca"/><tag k="school:language" v="french"/><tag k="source" v="City of Ottawa"/><tag k="source:date" v="2019-02-28"/></node><node lat="45.373888" lon="-75.674696"  id="-304"  changeset="false" ><tag k="amenity" v="childcare"/><tag k="name" v="Future Scholars Montessori Academy"/><tag k="addr:housenumber" v="1000"/><tag k="addr:street" v="Brookfield Avenue"/><tag k="addr:postal_code" v="K1V6J1"/><tag k="phone" v="+1-613-244-3762"/><tag k="website" v="http://www.futurescholarsmontessori.com"/><tag k="school:language" v="english"/><tag k="source" v="City of Ottawa"/><tag k="source:date" v="2019-02-28"/></node><node lat="45.359104" lon="-75.687915"  id="-305"  changeset="false" ><tag k="amenity" v="childcare"/><tag k="name" v="Riverside Park Nursery School"/><tag k="addr:housenumber" v="3191"/><tag k="addr:street" v="Riverside Drive"/><tag k="addr:postal_code" v="K1V8N8"/><tag k="phone" v="+1-613-738-0305"/><tag k="website" v="http://www.rpnsottawa.com"/><tag k="school:language" v="english"/><tag k="source" v="City of Ottawa"/><tag k="source:date" v="2019-02-28"/></node><node lat="45.398706" lon="-75.730918"  id="-306"  changeset="false" ><tag k="amenity" v="childcare"/><tag k="name" v="Pro-Care After School Centre"/><tag k="addr:housenumber" v="151"/><tag k="addr:street" v="Holland Avenue"/><tag k="addr:postal_code" v="K1Y0Y2"/><tag k="phone" v="+1-613-695-7762"/><tag k="website" v="http://www.procarecentre.ca"/><tag k="school:language" v="english"/><tag k="source" v="City of Ottawa"/><tag k="source:date" v="2019-02-28"/></node><node lat="45.339464" lon="-75.905539"  id="-307"  changeset="false" ><tag k="amenity" v="childcare"/><tag k="name" v="The Children's Place (Kanata)"/><tag k="addr:housenumber" v="310"/><tag k="addr:street" v="Legget Drive"/><tag k="addr:postal_code" v="K2K1Y6"/><tag k="phone" v="+1-613-592-5002"/><tag k="website" v="http://www.childrensplace.on.ca"/><tag k="school:language" v="english"/><tag k="source" v="City of Ottawa"/><tag k="source:date" v="2019-02-28"/></node><node lat="45.437262" lon="-75.613481"  id="-308"  changeset="false" ><tag k="amenity" v="childcare"/><tag k="name" v="Little Acorn Early Learning Centre"/><tag k="addr:housenumber" v="1921"/><tag k="addr:street" v="Ogilvie Road"/><tag k="addr:postal_code" v="K1J0B9"/><tag k="phone" v="+1-613-216-7668"/><tag k="website" v="http://www.littleacornelc.com"/><tag k="school:language" v="english;french"/><tag k="source" v="City of Ottawa"/><tag k="source:date" v="2019-02-28"/></node><node lat="45.399839" lon="-75.705577"  id="-309"  changeset="false" ><tag k="amenity" v="childcare"/><tag k="name" v="Dow's Lake Day Care / Garderie Lac Dow"/><tag k="addr:housenumber" v="580"/><tag k="addr:street" v="Booth Street"/><tag k="addr:postal_code" v="K1A0E4"/><tag k="phone" v="+1-613-567-9854"/><tag k="website" v="http://www.dld-gld.com"/><tag k="school:language" v="english;french"/><tag k="source" v="City of Ottawa"/><tag k="source:date" v="2019-02-28"/></node><node lat="45.328884" lon="-75.901098"  id="-310"  changeset="false" ><tag k="amenity" v="childcare"/><tag k="name" v="Kanata Academy Private School Reg. Inc."/><tag k="addr:housenumber" v="2"/><tag k="addr:street" v="Beaverbrook Road West"/><tag k="addr:postal_code" v="K2K1L1"/><tag k="phone" v="+1-613-599-5399"/><tag k="website" v="http://www.kanataacademy.com"/><tag k="school:language" v="english"/><tag k="source" v="City of Ottawa"/><tag k="source:date" v="2019-02-28"/></node></osm>