<?xml version="1.0" encoding="UTF-8"?><osm version="0.6" generator="https://github.com/Rub21/geojson2osm"><node lat="45.401387" lon="-75.73023"  id="-1"  changeset="false" ><tag k="name" v="Wading Pool - Parkdale"/><tag k="leisure" v="swimming_pool"/><tag k="name:fr" v="Pataugeoire - Parkdale"/><tag k="addr:housenumber" v="366"/><tag k="addr:street" v="Parkdale Avenue"/><tag k="wheelchair" v="no"/><tag k="covered" v="no"/><tag k="seasonal" v="summer"/><tag k="website" v="http://ottawa.ca/en/residents/recreation-and-parks/swimming#wading-pool-locations"/><tag k="operator" v="City of Ottawa"/><tag k="source" v="City of Ottawa"/><tag k="source:date" v="2017-12-08"/><tag k="note" v="Closed: Thursday"/></node><node lat="45.383082" lon="-75.666397"  id="-2"  changeset="false" ><tag k="name" v="Wading Pool - Alta Vista"/><tag k="leisure" v="swimming_pool"/><tag k="name:fr" v="Pataugeoire - Alta Vista"/><tag k="addr:housenumber" v="1309"/><tag k="addr:street" v="Randall Avenue"/><tag k="wheelchair" v="no"/><tag k="covered" v="no"/><tag k="seasonal" v="summer"/><tag k="website" v="http://ottawa.ca/en/residents/recreation-and-parks/swimming#wading-pool-locations"/><tag k="operator" v="City of Ottawa"/><tag k="source" v="City of Ottawa"/><tag k="source:date" v="2017-12-08"/><tag k="note" v="Closed: Monday"/></node><node lat="45.417176" lon="-75.645996"  id="-3"  changeset="false" ><tag k="name" v="Wading Pool - Cecil Morrison"/><tag k="leisure" v="swimming_pool"/><tag k="name:fr" v="Pataugeoire - Cecil-Morrison"/><tag k="addr:housenumber" v="1332"/><tag k="addr:street" v="Avenue North"/><tag k="wheelchair" v="no"/><tag k="covered" v="no"/><tag k="seasonal" v="summer"/><tag k="website" v="http://ottawa.ca/en/residents/recreation-and-parks/swimming#wading-pool-locations"/><tag k="operator" v="City of Ottawa"/><tag k="source" v="City of Ottawa"/><tag k="source:date" v="2017-12-08"/><tag k="note" v="Closed: Saturday"/></node><node lat="45.379555" lon="-75.677266"  id="-4"  changeset="false" ><tag k="name" v="Wading Pool - Heron"/><tag k="leisure" v="swimming_pool"/><tag k="name:fr" v="Pataugeoire - Heron"/><tag k="addr:housenumber" v="999"/><tag k="addr:street" v="Heron Road"/><tag k="wheelchair" v="no"/><tag k="covered" v="no"/><tag k="seasonal" v="summer"/><tag k="website" v="http://ottawa.ca/en/residents/recreation-and-parks/swimming#wading-pool-locations"/><tag k="operator" v="City of Ottawa"/><tag k="source" v="City of Ottawa"/><tag k="source:date" v="2017-12-08"/><tag k="note" v="Closed: Friday"/></node><node lat="45.406132" lon="-75.671622"  id="-5"  changeset="false" ><tag k="name" v="Wading Pool - Brantwood"/><tag k="leisure" v="swimming_pool"/><tag k="name:fr" v="Pataugeoire - Brantwood"/><tag k="addr:housenumber" v="120"/><tag k="addr:street" v="Clegg Street"/><tag k="wheelchair" v="no"/><tag k="covered" v="no"/><tag k="seasonal" v="summer"/><tag k="website" v="http://ottawa.ca/en/residents/recreation-and-parks/swimming#wading-pool-locations"/><tag k="operator" v="City of Ottawa"/><tag k="source" v="City of Ottawa"/><tag k="source:date" v="2017-12-08"/><tag k="note" v="Closed: Monday"/></node><node lat="45.415133" lon="-75.686965"  id="-6"  changeset="false" ><tag k="name" v="Wading Pool - St. Luke's"/><tag k="leisure" v="swimming_pool"/><tag k="name:fr" v="Pataugeoire - St. Luke's"/><tag k="addr:housenumber" v="166"/><tag k="addr:street" v="Frank Street"/><tag k="wheelchair" v="no"/><tag k="covered" v="no"/><tag k="seasonal" v="summer"/><tag k="website" v="http://ottawa.ca/en/residents/recreation-and-parks/swimming#wading-pool-locations"/><tag k="operator" v="City of Ottawa"/><tag k="source" v="City of Ottawa"/><tag k="source:date" v="2017-12-08"/><tag k="note" v="Closed: Wednesday"/></node><node lat="45.389522" lon="-75.628833"  id="-7"  changeset="false" ><tag k="name" v="Wading Pool - Canterbury"/><tag k="leisure" v="swimming_pool"/><tag k="name:fr" v="Pataugeoire - Canterbury"/><tag k="addr:housenumber" v="2185"/><tag k="addr:street" v="Arch Street"/><tag k="wheelchair" v="no"/><tag k="covered" v="no"/><tag k="seasonal" v="summer"/><tag k="website" v="http://ottawa.ca/en/residents/recreation-and-parks/swimming#wading-pool-locations"/><tag k="operator" v="City of Ottawa"/><tag k="source" v="City of Ottawa"/><tag k="source:date" v="2017-12-08"/><tag k="note" v="Closed: Saturday,Sunday"/></node><node lat="45.402733" lon="-75.625667"  id="-8"  changeset="false" ><tag k="name" v="Wading Pool - Alda Burt"/><tag k="leisure" v="swimming_pool"/><tag k="name:fr" v="Pataugeoire - Alda-Burt"/><tag k="addr:housenumber" v="1816"/><tag k="addr:street" v="ST Laurent Boulevard"/><tag k="wheelchair" v="no"/><tag k="covered" v="no"/><tag k="seasonal" v="summer"/><tag k="website" v="http://ottawa.ca/en/residents/recreation-and-parks/swimming#wading-pool-locations"/><tag k="operator" v="City of Ottawa"/><tag k="source" v="City of Ottawa"/><tag k="source:date" v="2017-12-08"/><tag k="note" v="Closed: Sunday"/></node><node lat="45.393681" lon="-75.615927"  id="-9"  changeset="false" ><tag k="name" v="Wading Pool - Hawthorne"/><tag k="leisure" v="swimming_pool"/><tag k="name:fr" v="Pataugeoire - Hawthorne"/><tag k="addr:housenumber" v="2139"/><tag k="addr:street" v="Tawney Road"/><tag k="wheelchair" v="no"/><tag k="covered" v="no"/><tag k="seasonal" v="summer"/><tag k="website" v="http://ottawa.ca/en/residents/recreation-and-parks/swimming#wading-pool-locations"/><tag k="operator" v="City of Ottawa"/><tag k="source" v="City of Ottawa"/><tag k="source:date" v="2017-12-08"/><tag k="note" v="Closed: Monday,Sunday"/></node><node lat="45.395963" lon="-75.626135"  id="-10"  changeset="false" ><tag k="name" v="Wading Pool - Weston"/><tag k="leisure" v="swimming_pool"/><tag k="name:fr" v="Pataugeoire - Weston"/><tag k="addr:housenumber" v="955"/><tag k="addr:street" v="Pleasant Park Road"/><tag k="wheelchair" v="no"/><tag k="covered" v="no"/><tag k="seasonal" v="summer"/><tag k="website" v="http://ottawa.ca/en/residents/recreation-and-parks/swimming#wading-pool-locations"/><tag k="operator" v="City of Ottawa"/><tag k="source" v="City of Ottawa"/><tag k="source:date" v="2017-12-08"/><tag k="note" v="Closed: Monday"/></node><node lat="45.354887" lon="-75.802019"  id="-11"  changeset="false" ><tag k="name" v="Wading Pool - Michèle"/><tag k="leisure" v="swimming_pool"/><tag k="name:fr" v="Pataugeoire - Michele"/><tag k="addr:housenumber" v="2955"/><tag k="addr:street" v="Michéle Drive"/><tag k="wheelchair" v="no"/><tag k="covered" v="no"/><tag k="seasonal" v="summer"/><tag k="website" v="http://ottawa.ca/en/residents/recreation-and-parks/swimming#wading-pool-locations"/><tag k="operator" v="City of Ottawa"/><tag k="source" v="City of Ottawa"/><tag k="source:date" v="2017-12-08"/><tag k="note" v="Closed: Wednesday"/></node><node lat="45.356313" lon="-75.775931"  id="-12"  changeset="false" ><tag k="name" v="Wading Pool - Parkway"/><tag k="leisure" v="swimming_pool"/><tag k="name:fr" v="Pataugeoire - Parkway"/><tag k="addr:housenumber" v="2095"/><tag k="addr:street" v="Kingsley Road"/><tag k="wheelchair" v="no"/><tag k="covered" v="no"/><tag k="seasonal" v="summer"/><tag k="website" v="http://ottawa.ca/en/residents/recreation-and-parks/swimming#wading-pool-locations"/><tag k="operator" v="City of Ottawa"/><tag k="source" v="City of Ottawa"/><tag k="source:date" v="2017-12-08"/><tag k="note" v="Closed: Saturday,Sunday"/></node><node lat="45.351436" lon="-75.795749"  id="-13"  changeset="false" ><tag k="name" v="Wading Pool - Ruth Wildgen"/><tag k="leisure" v="swimming_pool"/><tag k="name:fr" v="Pataugeoire - Ruth-Wildgen"/><tag k="addr:housenumber" v="1099"/><tag k="addr:street" v="Grenon Avenue"/><tag k="wheelchair" v="no"/><tag k="covered" v="no"/><tag k="seasonal" v="summer"/><tag k="website" v="http://ottawa.ca/en/residents/recreation-and-parks/swimming#wading-pool-locations"/><tag k="operator" v="City of Ottawa"/><tag k="source" v="City of Ottawa"/><tag k="source:date" v="2017-12-08"/><tag k="note" v="Closed: Saturday"/></node><node lat="45.359592" lon="-75.753609"  id="-14"  changeset="false" ><tag k="name" v="Wading Pool - Agincourt"/><tag k="leisure" v="swimming_pool"/><tag k="name:fr" v="Pataugeoire - Agincourt"/><tag k="addr:housenumber" v="1269"/><tag k="addr:street" v="Albany Drive"/><tag k="wheelchair" v="no"/><tag k="covered" v="no"/><tag k="seasonal" v="summer"/><tag k="website" v="http://ottawa.ca/en/residents/recreation-and-parks/swimming#wading-pool-locations"/><tag k="operator" v="City of Ottawa"/><tag k="source" v="City of Ottawa"/><tag k="source:date" v="2017-12-08"/><tag k="note" v="Closed: Monday"/></node><node lat="45.369991" lon="-75.61937"  id="-15"  changeset="false" ><tag k="name" v="Wading Pool - Elizabeth Manley"/><tag k="leisure" v="swimming_pool"/><tag k="name:fr" v="Pataugeoire - Elizabeth-Manley"/><tag k="addr:housenumber" v="1161"/><tag k="addr:street" v="Blohm Drive"/><tag k="wheelchair" v="yes"/><tag k="covered" v="no"/><tag k="seasonal" v="summer"/><tag k="website" v="http://ottawa.ca/en/residents/recreation-and-parks/swimming#wading-pool-locations"/><tag k="operator" v="City of Ottawa"/><tag k="source" v="City of Ottawa"/><tag k="source:date" v="2017-12-08"/><tag k="note" v="Closed: Monday"/></node><node lat="45.433497" lon="-75.681543"  id="-16"  changeset="false" ><tag k="name" v="Wading Pool - Jules Morin"/><tag k="leisure" v="swimming_pool"/><tag k="name:fr" v="Pataugeoire - Jules-Morin"/><tag k="addr:housenumber" v="400"/><tag k="addr:street" v="Clarence Street East"/><tag k="wheelchair" v="yes"/><tag k="covered" v="no"/><tag k="seasonal" v="summer"/><tag k="website" v="http://ottawa.ca/en/residents/recreation-and-parks/swimming#wading-pool-locations"/><tag k="operator" v="City of Ottawa"/><tag k="source" v="City of Ottawa"/><tag k="source:date" v="2017-12-08"/><tag k="note" v="Closed: Wednesday"/></node><node lat="45.364924" lon="-75.762548"  id="-17"  changeset="false" ><tag k="name" v="Wading Pool - Kingsmere"/><tag k="leisure" v="swimming_pool"/><tag k="name:fr" v="Pataugeoire - Kingsmere"/><tag k="addr:housenumber" v="2074"/><tag k="addr:street" v="Benjamin Avenue"/><tag k="wheelchair" v="no"/><tag k="covered" v="no"/><tag k="seasonal" v="summer"/><tag k="website" v="http://ottawa.ca/en/residents/recreation-and-parks/swimming#wading-pool-locations"/><tag k="operator" v="City of Ottawa"/><tag k="source" v="City of Ottawa"/><tag k="source:date" v="2017-12-08"/><tag k="note" v="Closed: Monday,Sunday"/></node><node lat="45.359636" lon="-75.702542"  id="-18"  changeset="false" ><tag k="name" v="Wading Pool - Carleton Heights"/><tag k="leisure" v="swimming_pool"/><tag k="name:fr" v="Pataugeoire - Carleton Heights"/><tag k="addr:housenumber" v="1665"/><tag k="addr:street" v="Apeldoorn Avenue"/><tag k="wheelchair" v="no"/><tag k="covered" v="no"/><tag k="seasonal" v="summer"/><tag k="website" v="http://ottawa.ca/en/residents/recreation-and-parks/swimming#wading-pool-locations"/><tag k="operator" v="City of Ottawa"/><tag k="source" v="City of Ottawa"/><tag k="source:date" v="2017-12-08"/><tag k="note" v="Closed: Saturday,Sunday"/></node><node lat="45.367907" lon="-75.706737"  id="-19"  changeset="false" ><tag k="name" v="Wading Pool - Rideauview"/><tag k="leisure" v="swimming_pool"/><tag k="name:fr" v="Pataugeoire - Rideauview"/><tag k="addr:housenumber" v="960"/><tag k="addr:street" v="Eiffel Avenue"/><tag k="wheelchair" v="no"/><tag k="covered" v="no"/><tag k="seasonal" v="summer"/><tag k="website" v="http://ottawa.ca/en/residents/recreation-and-parks/swimming#wading-pool-locations"/><tag k="operator" v="City of Ottawa"/><tag k="source" v="City of Ottawa"/><tag k="source:date" v="2017-12-08"/><tag k="note" v="Closed: Sunday"/></node><node lat="45.368861" lon="-75.657086"  id="-20"  changeset="false" ><tag k="name" v="Wading Pool - Frank Licari"/><tag k="leisure" v="swimming_pool"/><tag k="name:fr" v="Pataugeoire - Frank-Licari"/><tag k="addr:housenumber" v="1990"/><tag k="addr:street" v="Cochrane Street"/><tag k="wheelchair" v="no"/><tag k="covered" v="no"/><tag k="seasonal" v="summer"/><tag k="website" v="http://ottawa.ca/en/residents/recreation-and-parks/swimming#wading-pool-locations"/><tag k="operator" v="City of Ottawa"/><tag k="source" v="City of Ottawa"/><tag k="source:date" v="2017-12-08"/><tag k="note" v="Closed: Thursday"/></node><node lat="45.442238" lon="-75.668508"  id="-21"  changeset="false" ><tag k="name" v="Wading Pool - Optimiste"/><tag k="leisure" v="swimming_pool"/><tag k="name:fr" v="Pataugeoire - Optimiste"/><tag k="addr:housenumber" v="43"/><tag k="addr:street" v="Ste-Cécile Street"/><tag k="wheelchair" v="yes"/><tag k="covered" v="no"/><tag k="seasonal" v="summer"/><tag k="website" v="http://ottawa.ca/en/residents/recreation-and-parks/swimming#wading-pool-locations"/><tag k="operator" v="City of Ottawa"/><tag k="source" v="City of Ottawa"/><tag k="source:date" v="2017-12-08"/><tag k="note" v="Closed: Monday"/></node><node lat="45.295524" lon="-75.885043"  id="-22"  changeset="false" ><tag k="name" v="Wading Pool - Glen Cairn"/><tag k="leisure" v="swimming_pool"/><tag k="name:fr" v="Pataugeoire - Glen Cairn"/><tag k="addr:housenumber" v="50"/><tag k="addr:street" v="Castlefrank Road"/><tag k="wheelchair" v="no"/><tag k="covered" v="no"/><tag k="seasonal" v="summer"/><tag k="website" v="http://ottawa.ca/en/residents/recreation-and-parks/swimming#wading-pool-locations"/><tag k="operator" v="City of Ottawa"/><tag k="source" v="City of Ottawa"/><tag k="source:date" v="2017-12-08"/></node><node lat="45.434159" lon="-75.563671"  id="-23"  changeset="false" ><tag k="name" v="Wading Pool - Bearbrook"/><tag k="leisure" v="swimming_pool"/><tag k="name:fr" v="Pataugeoire - Bearbrook"/><tag k="addr:housenumber" v="2679"/><tag k="addr:street" v="Innes Road"/><tag k="wheelchair" v="no"/><tag k="covered" v="no"/><tag k="seasonal" v="summer"/><tag k="website" v="http://ottawa.ca/en/residents/recreation-and-parks/swimming#wading-pool-locations"/><tag k="operator" v="City of Ottawa"/><tag k="source" v="City of Ottawa"/><tag k="source:date" v="2017-12-08"/></node><node lat="45.344388" lon="-75.737957"  id="-24"  changeset="false" ><tag k="name" v="Wading Pool - Crestview"/><tag k="leisure" v="swimming_pool"/><tag k="name:fr" v="Pataugeoire - Crestview"/><tag k="addr:housenumber" v="58"/><tag k="addr:street" v="Fieldrow Street"/><tag k="wheelchair" v="no"/><tag k="covered" v="no"/><tag k="seasonal" v="summer"/><tag k="website" v="http://ottawa.ca/en/residents/recreation-and-parks/swimming#wading-pool-locations"/><tag k="operator" v="City of Ottawa"/><tag k="source" v="City of Ottawa"/><tag k="source:date" v="2017-12-08"/></node><node lat="45.372233" lon="-75.738869"  id="-25"  changeset="false" ><tag k="name" v="Wading Pool - Bellevue Manor"/><tag k="leisure" v="swimming_pool"/><tag k="name:fr" v="Pataugeoire - Bellevue Manor"/><tag k="addr:housenumber" v="1520"/><tag k="addr:street" v="Caldwell Avenue"/><tag k="wheelchair" v="no"/><tag k="covered" v="no"/><tag k="seasonal" v="summer"/><tag k="website" v="http://ottawa.ca/en/residents/recreation-and-parks/swimming#wading-pool-locations"/><tag k="operator" v="City of Ottawa"/><tag k="source" v="City of Ottawa"/><tag k="source:date" v="2017-12-08"/><tag k="note" v="Closed: Thursday"/></node><node lat="45.420785" lon="-75.668099"  id="-26"  changeset="false" ><tag k="name" v="Wading Pool - Dutchie's Hole"/><tag k="leisure" v="swimming_pool"/><tag k="name:fr" v="Pataugeoire - Dutchie's Hole"/><tag k="addr:housenumber" v="154"/><tag k="addr:street" v="Mann Avenue"/><tag k="wheelchair" v="no"/><tag k="covered" v="no"/><tag k="seasonal" v="summer"/><tag k="website" v="http://ottawa.ca/en/residents/recreation-and-parks/swimming#wading-pool-locations"/><tag k="operator" v="City of Ottawa"/><tag k="source" v="City of Ottawa"/><tag k="source:date" v="2017-12-08"/><tag k="note" v="Closed: Tuesday"/></node><node lat="45.433645" lon="-75.695707"  id="-27"  changeset="false" ><tag k="name" v="Wading Pool - Bingham"/><tag k="leisure" v="swimming_pool"/><tag k="name:fr" v="Pataugeoire - Bingham"/><tag k="addr:housenumber" v="145"/><tag k="addr:street" v="Cathcart St"/><tag k="wheelchair" v="no"/><tag k="covered" v="no"/><tag k="seasonal" v="summer"/><tag k="website" v="http://ottawa.ca/en/residents/recreation-and-parks/swimming#wading-pool-locations"/><tag k="operator" v="City of Ottawa"/><tag k="source" v="City of Ottawa"/><tag k="source:date" v="2017-12-08"/><tag k="note" v="Closed: Tuesday"/></node><node lat="45.45148" lon="-75.651009"  id="-28"  changeset="false" ><tag k="name" v="Wading Pool - Alvin Heights"/><tag k="leisure" v="swimming_pool"/><tag k="name:fr" v="Pataugeoire - Alvin Heights"/><tag k="addr:housenumber" v="349"/><tag k="addr:street" v="Claremont Drive"/><tag k="wheelchair" v="no"/><tag k="covered" v="no"/><tag k="seasonal" v="summer"/><tag k="website" v="http://ottawa.ca/en/residents/recreation-and-parks/swimming#wading-pool-locations"/><tag k="operator" v="City of Ottawa"/><tag k="source" v="City of Ottawa"/><tag k="source:date" v="2017-12-08"/><tag k="note" v="Closed: Tuesday"/></node><node lat="45.40506" lon="-75.643414"  id="-29"  changeset="false" ><tag k="name" v="Wading Pool - Balena"/><tag k="leisure" v="swimming_pool"/><tag k="name:fr" v="Pataugeoire - Balena"/><tag k="addr:housenumber" v="1640"/><tag k="addr:street" v="Devon Road"/><tag k="wheelchair" v="no"/><tag k="covered" v="no"/><tag k="seasonal" v="summer"/><tag k="website" v="http://ottawa.ca/en/residents/recreation-and-parks/swimming#wading-pool-locations"/><tag k="operator" v="City of Ottawa"/><tag k="source" v="City of Ottawa"/><tag k="source:date" v="2017-12-08"/><tag k="note" v="Closed: Friday"/></node><node lat="45.357509" lon="-75.762378"  id="-30"  changeset="false" ><tag k="name" v="Wading Pool - Bel Air"/><tag k="leisure" v="swimming_pool"/><tag k="name:fr" v="Pataugeoire - Bel Air"/><tag k="addr:housenumber" v="2149"/><tag k="addr:street" v="Berwick Avenue"/><tag k="wheelchair" v="no"/><tag k="covered" v="no"/><tag k="seasonal" v="summer"/><tag k="website" v="http://ottawa.ca/en/residents/recreation-and-parks/swimming#wading-pool-locations"/><tag k="operator" v="City of Ottawa"/><tag k="source" v="City of Ottawa"/><tag k="source:date" v="2017-12-08"/><tag k="note" v="Closed: Wednesday"/></node><node lat="45.376538" lon="-75.740428"  id="-31"  changeset="false" ><tag k="name" v="Wading Pool - Raven"/><tag k="leisure" v="swimming_pool"/><tag k="name:fr" v="Pataugeoire - Raven"/><tag k="addr:housenumber" v="1500"/><tag k="addr:street" v="Larose Avenue"/><tag k="wheelchair" v="no"/><tag k="covered" v="no"/><tag k="seasonal" v="summer"/><tag k="website" v="http://ottawa.ca/en/residents/recreation-and-parks/swimming#wading-pool-locations"/><tag k="operator" v="City of Ottawa"/><tag k="source" v="City of Ottawa"/><tag k="source:date" v="2017-12-08"/><tag k="note" v="Closed: Tuesday"/></node><node lat="45.360638" lon="-75.799352"  id="-32"  changeset="false" ><tag k="name" v="Wading Pool - Britannia"/><tag k="leisure" v="swimming_pool"/><tag k="name:fr" v="Pataugeoire - Britannia"/><tag k="addr:housenumber" v="2844"/><tag k="addr:street" v="Ahern Avenue"/><tag k="wheelchair" v="no"/><tag k="covered" v="no"/><tag k="seasonal" v="summer"/><tag k="website" v="http://ottawa.ca/en/residents/recreation-and-parks/swimming#wading-pool-locations"/><tag k="operator" v="City of Ottawa"/><tag k="source" v="City of Ottawa"/><tag k="source:date" v="2017-12-08"/><tag k="note" v="Closed: Monday"/></node><node lat="45.40985" lon="-75.713539"  id="-33"  changeset="false" ><tag k="name" v="Wading Pool - Chaudiere"/><tag k="leisure" v="swimming_pool"/><tag k="name:fr" v="Pataugeoire - Chaudière"/><tag k="addr:housenumber" v="68"/><tag k="addr:street" v="Elm Street"/><tag k="wheelchair" v="yes"/><tag k="covered" v="no"/><tag k="seasonal" v="summer"/><tag k="website" v="http://ottawa.ca/en/residents/recreation-and-parks/swimming#wading-pool-locations"/><tag k="operator" v="City of Ottawa"/><tag k="source" v="City of Ottawa"/><tag k="source:date" v="2017-12-08"/><tag k="note" v="Closed: Friday"/></node><node lat="45.398099" lon="-75.7239"  id="-34"  changeset="false" ><tag k="name" v="Wading Pool - Reid"/><tag k="leisure" v="swimming_pool"/><tag k="name:fr" v="Pataugeoire - Reid"/><tag k="addr:housenumber" v="40"/><tag k="addr:street" v="Reid Avenue"/><tag k="wheelchair" v="no"/><tag k="covered" v="no"/><tag k="seasonal" v="summer"/><tag k="website" v="http://ottawa.ca/en/residents/recreation-and-parks/swimming#wading-pool-locations"/><tag k="operator" v="City of Ottawa"/><tag k="source" v="City of Ottawa"/><tag k="source:date" v="2017-12-08"/><tag k="note" v="Closed: Tuesday"/></node><node lat="45.38743" lon="-75.738363"  id="-35"  changeset="false" ><tag k="name" v="Wading Pool - Hampton"/><tag k="leisure" v="swimming_pool"/><tag k="name:fr" v="Pataugeoire - Hampton"/><tag k="addr:housenumber" v="645"/><tag k="addr:street" v="Parkview Road"/><tag k="wheelchair" v="no"/><tag k="covered" v="no"/><tag k="seasonal" v="summer"/><tag k="website" v="http://ottawa.ca/en/residents/recreation-and-parks/swimming#wading-pool-locations"/><tag k="operator" v="City of Ottawa"/><tag k="source" v="City of Ottawa"/><tag k="source:date" v="2017-12-08"/><tag k="note" v="Closed: Saturday"/></node><node lat="45.344204" lon="-75.788885"  id="-36"  changeset="false" ><tag k="name" v="Wading Pool - Lisa"/><tag k="leisure" v="swimming_pool"/><tag k="name:fr" v="Pataugeoire - Lisa"/><tag k="addr:housenumber" v="6"/><tag k="addr:street" v="Lisa Avenue"/><tag k="wheelchair" v="no"/><tag k="covered" v="no"/><tag k="seasonal" v="summer"/><tag k="website" v="http://ottawa.ca/en/residents/recreation-and-parks/swimming#wading-pool-locations"/><tag k="operator" v="City of Ottawa"/><tag k="source" v="City of Ottawa"/><tag k="source:date" v="2017-12-08"/><tag k="note" v="Closed: Wednesday"/></node><node lat="45.383356" lon="-75.766336"  id="-37"  changeset="false" ><tag k="name" v="Wading Pool - McKellar"/><tag k="leisure" v="swimming_pool"/><tag k="name:fr" v="Pataugeoire - McKellar"/><tag k="addr:housenumber" v="539"/><tag k="addr:street" v="Wavell Avenue"/><tag k="wheelchair" v="no"/><tag k="covered" v="no"/><tag k="seasonal" v="summer"/><tag k="website" v="http://ottawa.ca/en/residents/recreation-and-parks/swimming#wading-pool-locations"/><tag k="operator" v="City of Ottawa"/><tag k="source" v="City of Ottawa"/><tag k="source:date" v="2017-12-08"/></node><node lat="45.425063" lon="-75.657121"  id="-38"  changeset="false" ><tag k="name" v="Wading Pool - Overbrook"/><tag k="leisure" v="swimming_pool"/><tag k="name:fr" v="Pataugeoire - Overbrook"/><tag k="addr:housenumber" v="33"/><tag k="addr:street" v="Quill Street"/><tag k="wheelchair" v="no"/><tag k="covered" v="no"/><tag k="seasonal" v="summer"/><tag k="website" v="http://ottawa.ca/en/residents/recreation-and-parks/swimming#wading-pool-locations"/><tag k="operator" v="City of Ottawa"/><tag k="source" v="City of Ottawa"/><tag k="source:date" v="2017-12-08"/><tag k="note" v="Closed: Sunday"/></node><node lat="45.354388" lon="-75.664797"  id="-39"  changeset="false" ><tag k="name" v="Wading Pool - Owl"/><tag k="leisure" v="swimming_pool"/><tag k="name:fr" v="Pataugeoire - Owl"/><tag k="addr:housenumber" v="215"/><tag k="addr:street" v="Owl Drive"/><tag k="wheelchair" v="yes"/><tag k="covered" v="no"/><tag k="seasonal" v="summer"/><tag k="website" v="http://ottawa.ca/en/residents/recreation-and-parks/swimming#wading-pool-locations"/><tag k="operator" v="City of Ottawa"/><tag k="source" v="City of Ottawa"/><tag k="source:date" v="2017-12-08"/><tag k="note" v="Closed: Saturday,Sunday"/></node><node lat="45.35959" lon="-75.648253"  id="-40"  changeset="false" ><tag k="name" v="Wading Pool - Pushman"/><tag k="leisure" v="swimming_pool"/><tag k="name:fr" v="Pataugeoire - Pushman"/><tag k="addr:housenumber" v="1270"/><tag k="addr:street" v="Pebble Road"/><tag k="wheelchair" v="no"/><tag k="covered" v="no"/><tag k="seasonal" v="summer"/><tag k="website" v="http://ottawa.ca/en/residents/recreation-and-parks/swimming#wading-pool-locations"/><tag k="operator" v="City of Ottawa"/><tag k="source" v="City of Ottawa"/><tag k="source:date" v="2017-12-08"/><tag k="note" v="Closed: Friday"/></node><node lat="45.436351" lon="-75.64849"  id="-41"  changeset="false" ><tag k="name" v="Wading Pool - St-Laurent"/><tag k="leisure" v="swimming_pool"/><tag k="name:fr" v="Pataugeoire - St-Laurent"/><tag k="addr:housenumber" v="525"/><tag k="addr:street" v="Côté Street"/><tag k="wheelchair" v="yes"/><tag k="covered" v="no"/><tag k="seasonal" v="summer"/><tag k="website" v="http://ottawa.ca/en/residents/recreation-and-parks/swimming#wading-pool-locations"/><tag k="operator" v="City of Ottawa"/><tag k="source" v="City of Ottawa"/><tag k="source:date" v="2017-12-08"/><tag k="note" v="Closed: Sunday"/></node><node lat="45.430041" lon="-75.648131"  id="-42"  changeset="false" ><tag k="name" v="Wading Pool - St. Paul's"/><tag k="leisure" v="swimming_pool"/><tag k="name:fr" v="Pataugeoire - St. Paul's"/><tag k="addr:housenumber" v="469"/><tag k="addr:street" v="Donald Street"/><tag k="wheelchair" v="no"/><tag k="covered" v="no"/><tag k="seasonal" v="summer"/><tag k="website" v="http://ottawa.ca/en/residents/recreation-and-parks/swimming#wading-pool-locations"/><tag k="operator" v="City of Ottawa"/><tag k="source" v="City of Ottawa"/><tag k="source:date" v="2017-12-08"/><tag k="note" v="Closed: Thursday"/></node><node lat="45.37608" lon="-75.772257"  id="-43"  changeset="false" ><tag k="name" v="Wading Pool - Woodroffe"/><tag k="leisure" v="swimming_pool"/><tag k="name:fr" v="Pataugeoire - Woodroffe"/><tag k="addr:housenumber" v="180"/><tag k="addr:street" v="Lockhart Avenue"/><tag k="wheelchair" v="no"/><tag k="covered" v="no"/><tag k="seasonal" v="summer"/><tag k="website" v="http://ottawa.ca/en/residents/recreation-and-parks/swimming#wading-pool-locations"/><tag k="operator" v="City of Ottawa"/><tag k="source" v="City of Ottawa"/><tag k="source:date" v="2017-12-08"/></node><node lat="45.394278" lon="-75.75232"  id="-44"  changeset="false" ><tag k="name" v="Wading Pool - Lions"/><tag k="leisure" v="swimming_pool"/><tag k="name:fr" v="Pataugeoire - Lions"/><tag k="addr:housenumber" v="294"/><tag k="addr:street" v="Elmgrove Avenue"/><tag k="wheelchair" v="no"/><tag k="covered" v="no"/><tag k="seasonal" v="summer"/><tag k="website" v="http://ottawa.ca/en/residents/recreation-and-parks/swimming#wading-pool-locations"/><tag k="operator" v="City of Ottawa"/><tag k="source" v="City of Ottawa"/><tag k="source:date" v="2017-12-08"/><tag k="note" v="Closed: Saturday,Sunday"/></node><node lat="45.408976" lon="-75.702745"  id="-45"  changeset="false" ><tag k="name" v="Wading Pool - McNabb"/><tag k="leisure" v="swimming_pool"/><tag k="name:fr" v="Pataugeoire - McNabb"/><tag k="addr:housenumber" v="435"/><tag k="addr:street" v="Bronson Avenue"/><tag k="wheelchair" v="no"/><tag k="covered" v="no"/><tag k="seasonal" v="summer"/><tag k="website" v="http://ottawa.ca/en/residents/recreation-and-parks/swimming#wading-pool-locations"/><tag k="operator" v="City of Ottawa"/><tag k="source" v="City of Ottawa"/><tag k="source:date" v="2017-12-08"/><tag k="note" v="Closed: Thursday"/></node><node lat="45.38033" lon="-75.731639"  id="-46"  changeset="false" ><tag k="name" v="Wading Pool - Alexander"/><tag k="leisure" v="swimming_pool"/><tag k="name:fr" v="Pataugeoire - Alexander"/><tag k="addr:housenumber" v="960"/><tag k="addr:street" v="Silver Street"/><tag k="wheelchair" v="no"/><tag k="covered" v="no"/><tag k="seasonal" v="summer"/><tag k="website" v="http://ottawa.ca/en/residents/recreation-and-parks/swimming#wading-pool-locations"/><tag k="operator" v="City of Ottawa"/><tag k="source" v="City of Ottawa"/><tag k="source:date" v="2017-12-08"/><tag k="note" v="Closed: Wednesday"/></node><node lat="45.404316" lon="-75.744965"  id="-47"  changeset="false" ><tag k="name" v="Wading Pool - Champlain"/><tag k="leisure" v="swimming_pool"/><tag k="name:fr" v="Pataugeoire - Champlain"/><tag k="addr:housenumber" v="140"/><tag k="addr:street" v="Carleton Avenue"/><tag k="wheelchair" v="no"/><tag k="covered" v="no"/><tag k="seasonal" v="summer"/><tag k="website" v="http://ottawa.ca/en/residents/recreation-and-parks/swimming#wading-pool-locations"/><tag k="operator" v="City of Ottawa"/><tag k="source" v="City of Ottawa"/><tag k="source:date" v="2017-12-08"/><tag k="note" v="Closed: Wednesday"/></node><node lat="45.399346" lon="-75.711483"  id="-48"  changeset="false" ><tag k="name" v="Wading Pool - Ev Tremblay"/><tag k="leisure" v="swimming_pool"/><tag k="name:fr" v="Pataugeoire - Ev-Tremblay"/><tag k="addr:housenumber" v="108"/><tag k="addr:street" v="Beech Street"/><tag k="wheelchair" v="no"/><tag k="covered" v="no"/><tag k="seasonal" v="summer"/><tag k="website" v="http://ottawa.ca/en/residents/recreation-and-parks/swimming#wading-pool-locations"/><tag k="operator" v="City of Ottawa"/><tag k="source" v="City of Ottawa"/><tag k="source:date" v="2017-12-08"/><tag k="note" v="Closed: Monday"/></node><node lat="45.392426" lon="-75.742472"  id="-49"  changeset="false" ><tag k="name" v="Wading Pool - Iona"/><tag k="leisure" v="swimming_pool"/><tag k="name:fr" v="Pataugeoire - Iona"/><tag k="addr:housenumber" v="223"/><tag k="addr:street" v="Iona Street"/><tag k="wheelchair" v="no"/><tag k="covered" v="no"/><tag k="seasonal" v="summer"/><tag k="website" v="http://ottawa.ca/en/residents/recreation-and-parks/swimming#wading-pool-locations"/><tag k="operator" v="City of Ottawa"/><tag k="source" v="City of Ottawa"/><tag k="source:date" v="2017-12-08"/><tag k="note" v="Closed: Monday,Sunday"/></node><node lat="45.378281" lon="-75.724777"  id="-50"  changeset="false" ><tag k="name" v="Wading Pool - Meadowvale"/><tag k="leisure" v="swimming_pool"/><tag k="name:fr" v="Pataugeoire - Meadowvale"/><tag k="addr:housenumber" v="1205"/><tag k="addr:street" v="Trenton Avenue"/><tag k="wheelchair" v="no"/><tag k="covered" v="no"/><tag k="seasonal" v="summer"/><tag k="website" v="http://ottawa.ca/en/residents/recreation-and-parks/swimming#wading-pool-locations"/><tag k="operator" v="City of Ottawa"/><tag k="source" v="City of Ottawa"/><tag k="source:date" v="2017-12-08"/><tag k="note" v="Closed: Monday,Sunday"/></node><node lat="45.421628" lon="-75.676792"  id="-51"  changeset="false" ><tag k="name" v="Wading Pool - Sandy Hill"/><tag k="leisure" v="swimming_pool"/><tag k="name:fr" v="Pataugeoire - Côte-de-Sable"/><tag k="addr:housenumber" v="250"/><tag k="addr:street" v="Somerset Street East"/><tag k="wheelchair" v="no"/><tag k="covered" v="no"/><tag k="seasonal" v="summer"/><tag k="website" v="http://ottawa.ca/en/residents/recreation-and-parks/swimming#wading-pool-locations"/><tag k="operator" v="City of Ottawa"/><tag k="source" v="City of Ottawa"/><tag k="source:date" v="2017-12-08"/><tag k="note" v="Closed: Thursday"/></node><node lat="45.383906" lon="-75.753013"  id="-52"  changeset="false" ><tag k="name" v="Wading Pool - Westboro"/><tag k="leisure" v="swimming_pool"/><tag k="name:fr" v="Pataugeoire - Westboro"/><tag k="addr:housenumber" v="411"/><tag k="addr:street" v="Dovercourt Avenue"/><tag k="wheelchair" v="no"/><tag k="covered" v="no"/><tag k="seasonal" v="summer"/><tag k="website" v="http://ottawa.ca/en/residents/recreation-and-parks/swimming#wading-pool-locations"/><tag k="operator" v="City of Ottawa"/><tag k="source" v="City of Ottawa"/><tag k="source:date" v="2017-12-08"/></node><node lat="45.394532" lon="-75.675937"  id="-53"  changeset="false" ><tag k="name" v="Wading Pool - Windsor"/><tag k="leisure" v="swimming_pool"/><tag k="name:fr" v="Pataugeoire - Windsor"/><tag k="addr:housenumber" v="1B"/><tag k="addr:street" v="Windsor Avenue"/><tag k="wheelchair" v="yes"/><tag k="covered" v="no"/><tag k="seasonal" v="summer"/><tag k="website" v="http://ottawa.ca/en/residents/recreation-and-parks/swimming#wading-pool-locations"/><tag k="operator" v="City of Ottawa"/><tag k="source" v="City of Ottawa"/><tag k="source:date" v="2017-12-08"/><tag k="note" v="Closed: Tuesday"/></node><node lat="45.356182" lon="-75.789138"  id="-54"  changeset="false" ><tag k="name" v="Wading Pool - Frank Ryan"/><tag k="leisure" v="swimming_pool"/><tag k="name:fr" v="Pataugeoire - Frank-Ryan"/><tag k="addr:housenumber" v="950"/><tag k="addr:street" v="Alpine Avenue"/><tag k="wheelchair" v="no"/><tag k="covered" v="no"/><tag k="seasonal" v="summer"/><tag k="website" v="http://ottawa.ca/en/residents/recreation-and-parks/swimming#wading-pool-locations"/><tag k="operator" v="City of Ottawa"/><tag k="source" v="City of Ottawa"/><tag k="source:date" v="2017-12-08"/><tag k="note" v="Closed: Wednesday"/></node><node lat="45.428143" lon="-75.672707"  id="-55"  changeset="false" ><tag k="name" v="Wading Pool - Strathcona"/><tag k="leisure" v="swimming_pool"/><tag k="name:fr" v="Pataugeoire - Strathcona"/><tag k="addr:housenumber" v="25"/><tag k="addr:street" v="Range Road"/><tag k="wheelchair" v="no"/><tag k="covered" v="no"/><tag k="seasonal" v="summer"/><tag k="website" v="http://ottawa.ca/en/residents/recreation-and-parks/swimming#wading-pool-locations"/><tag k="operator" v="City of Ottawa"/><tag k="source" v="City of Ottawa"/><tag k="source:date" v="2017-12-08"/><tag k="note" v="Closed: Monday"/></node><node lat="45.363298" lon="-75.636446"  id="-56"  changeset="false" ><tag k="name" v="Wading Pool - Greenboro"/><tag k="leisure" v="swimming_pool"/><tag k="name:fr" v="Pataugeoire - Greenboro"/><tag k="addr:housenumber" v="363"/><tag k="addr:street" v="Lorry Greenberg Drive"/><tag k="wheelchair" v="yes"/><tag k="covered" v="no"/><tag k="seasonal" v="summer"/><tag k="website" v="http://ottawa.ca/en/residents/recreation-and-parks/swimming#wading-pool-locations"/><tag k="operator" v="City of Ottawa"/><tag k="source" v="City of Ottawa"/><tag k="source:date" v="2017-12-08"/><tag k="note" v="Closed: Sunday"/></node><node lat="45.40257" lon="-75.682186"  id="-57"  changeset="false" ><tag k="name" v="Wading Pool - Sylvia Holden"/><tag k="leisure" v="swimming_pool"/><tag k="name:fr" v="Pataugeoire - Sylvia-Holden"/><tag k="addr:housenumber" v="10"/><tag k="addr:street" v="Fifth Avenue"/><tag k="wheelchair" v="yes"/><tag k="covered" v="no"/><tag k="seasonal" v="summer"/><tag k="website" v="http://ottawa.ca/en/residents/recreation-and-parks/swimming#wading-pool-locations"/><tag k="operator" v="City of Ottawa"/><tag k="source" v="City of Ottawa"/><tag k="source:date" v="2017-12-08"/><tag k="note" v="Closed: Monday"/></node><node lat="45.43665" lon="-75.653146"  id="-58"  changeset="false" ><tag k="name" v="Wading Pool - Kiwanis"/><tag k="leisure" v="swimming_pool"/><tag k="name:fr" v="Pataugeoire - Kiwanis"/><tag k="addr:housenumber" v="395"/><tag k="addr:street" v="Levis Street"/><tag k="wheelchair" v="no"/><tag k="covered" v="no"/><tag k="seasonal" v="summer"/><tag k="website" v="http://ottawa.ca/en/residents/recreation-and-parks/swimming#wading-pool-locations"/><tag k="operator" v="City of Ottawa"/><tag k="source" v="City of Ottawa"/><tag k="source:date" v="2017-12-08"/><tag k="note" v="Closed: Monday,Sunday"/></node><node lat="45.326319" lon="-75.816756"  id="-59"  changeset="false" ><tag k="name" v="Wading Pool - Entrance"/><tag k="leisure" v="swimming_pool"/><tag k="name:fr" v="Pataugeoire - Entrance"/><tag k="addr:housenumber" v="2"/><tag k="addr:street" v="Eaton Street"/><tag k="wheelchair" v="no"/><tag k="covered" v="no"/><tag k="seasonal" v="summer"/><tag k="website" v="http://ottawa.ca/en/residents/recreation-and-parks/swimming#wading-pool-locations"/><tag k="operator" v="City of Ottawa"/><tag k="source" v="City of Ottawa"/><tag k="source:date" v="2017-12-08"/></node><node lat="45.351722" lon="-75.720682"  id="-60"  changeset="false" ><tag k="name" v="Wading Pool - General Burns"/><tag k="leisure" v="swimming_pool"/><tag k="name:fr" v="Pataugeoire - General-Burns"/><tag k="addr:housenumber" v="107"/><tag k="addr:street" v="Chesterton Drive"/><tag k="wheelchair" v="no"/><tag k="covered" v="no"/><tag k="seasonal" v="summer"/><tag k="website" v="http://ottawa.ca/en/residents/recreation-and-parks/swimming#wading-pool-locations"/><tag k="operator" v="City of Ottawa"/><tag k="source" v="City of Ottawa"/><tag k="source:date" v="2017-12-08"/></node><node lat="45.346092" lon="-75.827333"  id="-61"  changeset="false" ><tag k="name" v="Wading Pool - Corkstown"/><tag k="leisure" v="swimming_pool"/><tag k="name:fr" v="Pataugeoire - Corkstown"/><tag k="addr:housenumber" v="61"/><tag k="addr:street" v="Corkstown Road"/><tag k="wheelchair" v="no"/><tag k="covered" v="no"/><tag k="seasonal" v="summer"/><tag k="website" v="http://ottawa.ca/en/residents/recreation-and-parks/swimming#wading-pool-locations"/><tag k="operator" v="City of Ottawa"/><tag k="source" v="City of Ottawa"/><tag k="source:date" v="2017-12-08"/></node><node lat="45.36671" lon="-75.676559"  id="-62"  changeset="false" ><tag k="name" v="Wading Pool - Pauline Vanier"/><tag k="leisure" v="swimming_pool"/><tag k="name:fr" v="Pataugeoire - Pauline-Vanier"/><tag k="addr:housenumber" v="1015"/><tag k="addr:street" v="Harkness Avenue"/><tag k="wheelchair" v="no"/><tag k="covered" v="no"/><tag k="seasonal" v="summer"/><tag k="website" v="http://ottawa.ca/en/residents/recreation-and-parks/swimming#wading-pool-locations"/><tag k="operator" v="City of Ottawa"/><tag k="source" v="City of Ottawa"/><tag k="source:date" v="2017-12-08"/><tag k="note" v="Closed: Monday,Sunday"/></node></osm>